{"type":"FeatureCollection", "features": [
{"type":"Feature","geometry":{"type":"Polygon","coordinates":[[[127.0606,41.6587],[127.0309,41.6727],[127.0558,41.6999],[127.0457,41.7223],[127.0486,41.7397],[127.015,41.7397],[127.0002,41.7454],[127.0021,41.7607],[126.9822,41.763],[126.9746,41.7733],[126.941,41.7694],[126.9293,41.7822],[126.9469,41.7906],[126.9466,41.8021],[126.9325,41.8087],[126.8843,41.7902],[126.8657,41.7758],[126.853,41.7589],[126.8408,41.722],[126.8258,41.7208],[126.8168,41.7414],[126.8026,41.7451],[126.7907,41.7114],[126.7981,41.6949],[126.785,41.6911],[126.7701,41.7014],[126.7696,41.7158],[126.7478,41.726],[126.7233,41.7437],[126.6973,41.7503],[126.6818,41.7386],[126.6946,41.7235],[126.724,41.7173],[126.7252,41.7068],[126.6836,41.6781],[126.6811,41.6679],[126.6404,41.6548],[126.6195,41.6709],[126.6043,41.6592],[126.6093,41.6441],[126.5906,41.6273],[126.5862,41.6147],[126.5587,41.6122],[126.5726,41.5841],[126.5857,41.568],[126.5815,41.5485],[126.5596,41.538],[126.5434,41.4952],[126.5484,41.4837],[126.5329,41.4763],[126.5202,41.4541],[126.5033,41.4358],[126.5035,41.3939],[126.5313,41.3727],[126.5343,41.3612],[126.522,41.3485],[126.4803,41.345],[126.4764,41.3518],[126.503,41.361],[126.4864,41.3712],[126.4303,41.3501],[126.4274,41.3289],[126.4034,41.3255],[126.3935,41.3017],[126.3608,41.2781],[126.3536,41.2433],[126.319,41.2298],[126.3077,41.2081],[126.3053,41.1901],[126.284,41.1861],[126.2912,41.1686],[126.2717,41.1539],[126.2455,41.1481],[126.2267,41.1304],[126.1932,41.1168],[126.1681,41.0931],[126.1431,41.0866],[126.1226,41.0897],[126.1099,41.0699],[126.1281,41.0615],[126.129,41.0487],[126.1197,41.0326],[126.1018,41.0363],[126.0948,41.0252],[126.1012,41.0017],[126.0768,41.0043],[126.0605,40.9926],[126.0771,40.9738],[126.0489,40.9618],[126.0473,40.9446],[126.0349,40.9396],[126.035,40.9257],[126.0142,40.9316],[125.994,40.9309],[125.998,40.9171],[126.0216,40.9058],[126.0214,40.899],[125.9884,40.8932],[125.9753,40.9024],[125.9614,40.8832],[125.9322,40.8765],[125.9173,40.8802],[125.9059,40.8931],[125.8687,40.904],[125.8532,40.8829],[125.8254,40.8729],[125.8096,40.862],[125.7965,40.8677],[125.7965,40.8797],[125.7679,40.8916],[125.749,40.8679],[125.7204,40.8707],[125.6989,40.8597],[125.6733,40.8332],[125.6352,40.8105],[125.6298,40.8009],[125.6436,40.7923],[125.6723,40.788],[125.6844,40.7791],[125.6755,40.7614],[125.6508,40.7643],[125.61,40.7564],[125.5931,40.7609],[125.5842,40.7734],[125.5655,40.7736],[125.5491,40.7614],[125.5457,40.736],[125.5304,40.7183],[125.4815,40.7209],[125.4551,40.6995],[125.4426,40.6662],[125.4138,40.6708],[125.4113,40.6544],[125.4592,40.6317],[125.4986,40.6155],[125.5155,40.6011],[125.5386,40.5733],[125.5614,40.5694],[125.5928,40.5733],[125.6014,40.54],[125.6139,40.52],[125.6064,40.498],[125.593,40.483],[125.5869,40.4461],[125.5753,40.4236],[125.5817,40.4086],[125.6305,40.37],[125.6305,40.3586],[125.613,40.3444],[125.6194,40.328],[125.6891,40.2805],[125.75,40.2575],[125.7955,40.2267],[125.8178,40.22],[125.8819,40.2386],[125.9125,40.2386],[125.9325,40.22],[125.9469,40.2167],[125.9673,40.2216],[125.9817,40.2161],[126.0158,40.1789],[126.0464,40.1542],[126.0825,40.1317],[126.1414,40.0747],[126.1917,40.0489],[126.2191,40.0422],[126.3175,40.0339],[126.3602,40.0176],[126.4036,39.9939],[126.4264,39.9905],[126.4466,39.9975],[126.468,40.0178],[126.4872,40.0278],[126.5394,40.0325],[126.5597,40.0414],[126.5697,40.0889],[126.6003,40.1114],[126.6358,40.1272],[126.6636,40.1442],[126.7075,40.1536],[126.7292,40.1808],[126.743,40.1883],[126.7761,40.1967],[126.8008,40.1975],[126.8141,40.2128],[126.8267,40.2519],[126.8511,40.27],[126.8728,40.28],[126.89,40.2944],[126.9112,40.3347],[126.9239,40.3717],[126.9344,40.4125],[126.9483,40.4364],[126.9914,40.4669],[127.0078,40.4817],[127.0114,40.5],[127.0061,40.548],[127.023,40.5672],[127.0672,40.5761],[127.1236,40.6153],[127.2058,40.6286],[127.2164,40.6389],[127.2269,40.6661],[127.2322,40.7033],[127.2425,40.7192],[127.2683,40.7361],[127.3072,40.7467],[127.3239,40.7617],[127.3516,40.7742],[127.3814,40.7786],[127.4053,40.7942],[127.4178,40.8205],[127.415,40.8447],[127.4003,40.8939],[127.3964,40.9236],[127.4017,40.9542],[127.4075,40.9642],[127.4311,40.9828],[127.4811,41.01],[127.495,41.0239],[127.5056,41.0708],[127.5047,41.1119],[127.5003,41.1422],[127.4878,41.1625],[127.468,41.1705],[127.4486,41.1697],[127.408,41.1592],[127.3811,41.1467],[127.358,41.1117],[127.325,41.1],[127.2833,41.1072],[127.235,41.1097],[127.1903,41.1372],[127.1691,41.1405],[127.1489,41.1514],[127.1364,41.1758],[127.123,41.2369],[127.1372,41.2614],[127.1264,41.2697],[127.0855,41.2808],[127.073,41.2889],[127.0478,41.3394],[127.0164,41.3842],[127.0155,41.4047],[127.0333,41.4242],[127.0122,41.4369],[126.9719,41.4339],[126.9594,41.4403],[126.9278,41.4678],[126.9111,41.5183],[126.9297,41.5353],[126.9703,41.5275],[126.9972,41.5311],[127.0117,41.5655],[127.0308,41.5758],[127.0641,41.5869],[127.073,41.6011],[127.0594,41.6308],[127.0606,41.6587]]]},"properties":{"adm1_name":"Jagang","adm1_name1":null,"adm1_pcode":"KP05","area_sqkm":16725.0790887}},
{"type":"Feature","geometry":{"type":"Polygon","coordinates":[[[127.3341,39.4051],[127.2811,39.413],[127.2342,39.413],[127.1986,39.4072],[127.1525,39.4128],[127.1244,39.4008],[127.1133,39.3908],[127.1022,39.3692],[127.1019,39.3436],[127.0936,39.3222],[127.0925,39.2958],[127.0861,39.2839],[127.0297,39.2694],[127.0228,39.2525],[127.0425,39.2208],[127.0397,39.2094],[127.0255,39.2043],[127.0491,39.1878],[127.0655,39.1669],[127.0558,39.1505],[127.0153,39.1358],[126.995,39.1236],[126.9886,39.1056],[126.9894,39.0803],[126.982,39.0692],[126.9753,39.0492],[126.9778,39.038],[127.0086,39.0014],[127.0191,38.9825],[127.0111,38.9475],[126.9839,38.9181],[126.9656,38.9083],[126.9183,38.9064],[126.8936,38.8986],[126.8736,38.8792],[126.8708,38.8586],[126.8775,38.8244],[126.87,38.7825],[126.8528,38.7567],[126.8183,38.7169],[126.8008,38.6855],[126.7855,38.6708],[126.7597,38.6569],[126.7008,38.6436],[126.6792,38.6283],[126.6822,38.6078],[126.713,38.5736],[126.715,38.5539],[126.7,38.5133],[126.7105,38.4683],[126.7325,38.4303],[126.7522,38.4055],[126.7878,38.3679],[126.795,38.348],[126.8253,38.3419],[126.83,38.3269],[126.8433,38.3231],[126.8811,38.3408],[126.8936,38.3236],[126.8883,38.3117],[126.8716,38.3047],[126.8658,38.29],[126.8847,38.2704],[126.8808,38.2539],[126.8691,38.2408],[126.8736,38.2265],[126.8905,38.205],[126.9261,38.1958],[126.9444,38.1642],[126.9613,38.162],[126.9645,38.1805],[126.9756,38.1997],[127.0118,38.2277],[127.0166,38.2374],[127.0575,38.2596],[127.0755,38.273],[127.1323,38.3049],[127.168,38.3018],[127.2072,38.3125],[127.2387,38.3273],[127.2749,38.3229],[127.2918,38.313],[127.3256,38.3139],[127.3376,38.3218],[127.3597,38.3217],[127.3905,38.332],[127.4113,38.3287],[127.4402,38.314],[127.452,38.3166],[127.4989,38.2978],[127.5551,38.3246],[127.5861,38.3331],[127.6136,38.3211],[127.6537,38.3246],[127.6818,38.319],[127.7026,38.3299],[127.7158,38.3274],[127.7638,38.3275],[127.7827,38.3376],[127.7972,38.3361],[127.8047,38.3212],[127.8335,38.3004],[127.852,38.3084],[127.8796,38.3138],[127.8983,38.3285],[127.9599,38.3134],[127.9787,38.317],[128.0252,38.3109],[128.047,38.305],[128.0783,38.3088],[128.1098,38.3292],[128.1377,38.3283],[128.1761,38.3561],[128.2143,38.3748],[128.2307,38.3941],[128.2493,38.4037],[128.2892,38.4344],[128.3121,38.4727],[128.3097,38.4847],[128.3198,38.5059],[128.315,38.5533],[128.3151,38.5863],[128.3599,38.6124],[128.356,38.6789],[128.3436,38.6805],[128.2831,38.7217],[128.2802,38.7443],[128.2558,38.7295],[128.2208,38.7304],[128.2038,38.7352],[128.1851,38.7484],[128.1626,38.7731],[128.1457,38.7834],[128.1395,38.8004],[128.1217,38.816],[128.107,38.8193],[128.091,38.8351],[128.0561,38.8524],[128.0469,38.842],[128.0102,38.8503],[127.9889,38.8646],[127.9556,38.9003],[127.9537,38.9169],[127.9308,38.9177],[127.8988,38.9453],[127.8744,38.959],[127.8797,38.9694],[127.8523,38.977],[127.8506,38.9876],[127.8271,39.0169],[127.8048,39.0367],[127.7727,39.0911],[127.7448,39.1273],[127.7175,39.1068],[127.6972,39.1123],[127.6798,39.1006],[127.6583,39.105],[127.6213,39.132],[127.6036,39.1564],[127.5846,39.1422],[127.5505,39.1484],[127.5412,39.1391],[127.5209,39.1395],[127.4715,39.1719],[127.4677,39.156],[127.4443,39.1524],[127.4313,39.1733],[127.4187,39.1748],[127.3745,39.2047],[127.3637,39.2337],[127.368,39.2759],[127.3996,39.3108],[127.4243,39.3251],[127.4478,39.3303],[127.4632,39.3254],[127.47,39.3428],[127.4662,39.354],[127.4464,39.3688],[127.4255,39.3482],[127.4142,39.3568],[127.3995,39.3473],[127.3797,39.3507],[127.369,39.3666],[127.385,39.378],[127.3984,39.3759],[127.4088,39.3882],[127.4282,39.3816],[127.4343,39.3965],[127.4119,39.4075],[127.3875,39.4026],[127.373,39.4068],[127.3463,39.3998],[127.3341,39.4051]]]},"properties":{"adm1_name":"Kangwon","adm1_name1":null,"adm1_pcode":"KP04","area_sqkm":11163.91738317}},
{"type":"Feature","geometry":{"type":"MultiPolygon","coordinates":[[[[125.5789,39.0103],[125.5391,39.0074],[125.5227,39.002],[125.5099,39.0263],[125.4906,39.0425],[125.461,39.0183],[125.4447,39.0183],[125.3666,39.0266],[125.3726,38.9727],[125.358,38.9569],[125.3204,38.9648],[125.2813,38.9675],[125.2551,38.9595],[125.2304,38.9876],[125.2182,38.9945],[125.201,38.9956],[125.1877,38.9862],[125.1878,38.9747],[125.2043,38.9721],[125.1786,38.9409],[125.1671,38.9069],[125.151,38.8798],[125.1384,38.8762],[125.1465,38.8477],[125.1467,38.8312],[125.1367,38.8057],[125.1508,38.784],[125.1635,38.7868],[125.1698,38.7704],[125.1907,38.7669],[125.2105,38.7384],[125.2278,38.7619],[125.2307,38.7738],[125.2518,38.7641],[125.2429,38.739],[125.225,38.7219],[125.2822,38.6876],[125.3166,38.7053],[125.3618,38.7144],[125.3969,38.7152],[125.4336,38.7313],[125.4323,38.7489],[125.4424,38.7522],[125.4883,38.7145],[125.4994,38.7239],[125.5291,38.7176],[125.5555,38.7036],[125.5581,38.6919],[125.5708,38.6861],[125.595,38.6572],[125.6298,38.6569],[125.6144,38.6897],[125.618,38.7197],[125.6066,38.7314],[125.58,38.7472],[125.5736,38.7675],[125.575,38.7864],[125.5644,38.8044],[125.5469,38.8075],[125.5278,38.8211],[125.5203,38.8408],[125.5269,38.8583],[125.5622,38.8703],[125.5878,38.8844],[125.5955,38.9203],[125.6059,38.9388],[125.5955,38.9719],[125.5852,38.9836],[125.5789,39.0103]]],[[[125.2466,38.6577],[125.2108,38.6459],[125.1893,38.6494],[125.1691,38.6603],[125.1815,38.6303],[125.1658,38.6182],[125.1838,38.6065],[125.226,38.6145],[125.2409,38.6276],[125.2466,38.6577]]]]},"properties":{"adm1_name":"Nampo","adm1_name1":null,"adm1_pcode":"KP11","area_sqkm":1135.29467266}},
{"type":"Feature","geometry":{"type":"MultiPolygon","coordinates":[[[[129.168,40.5677],[129.166,40.5871],[129.1754,40.6072],[129.1857,40.6145],[129.2206,40.699],[129.2375,40.7051],[129.2733,40.7047],[129.2939,40.6783],[129.3033,40.6764],[129.3276,40.7184],[129.3458,40.7378],[129.3862,40.7554],[129.3989,40.7561],[129.4126,40.7697],[129.4503,40.7788],[129.477,40.7891],[129.515,40.7897],[129.5411,40.8088],[129.5614,40.8303],[129.616,40.8388],[129.6308,40.8333],[129.6771,40.837],[129.6986,40.8435],[129.7157,40.8303],[129.7339,40.8546],[129.7377,40.8854],[129.7573,40.9042],[129.7484,40.9148],[129.7651,40.9383],[129.7533,40.9443],[129.7351,40.9666],[129.7354,40.9923],[129.7207,41.0168],[129.7279,41.073],[129.7341,41.089],[129.7204,41.0999],[129.7179,41.1228],[129.7272,41.1335],[129.7184,41.1441],[129.7216,41.1953],[129.7289,41.2093],[129.7417,41.2152],[129.7346,41.2432],[129.7611,41.2728],[129.7581,41.2925],[129.7817,41.312],[129.7944,41.3397],[129.7997,41.3687],[129.7935,41.385],[129.7664,41.3857],[129.7306,41.4179],[129.6998,41.4267],[129.6805,41.4404],[129.6604,41.4664],[129.6525,41.4903],[129.6583,41.5136],[129.6502,41.5495],[129.6671,41.5709],[129.6804,41.6044],[129.6881,41.6342],[129.7071,41.6662],[129.7402,41.6841],[129.7594,41.7232],[129.7595,41.7556],[129.7738,41.7572],[129.7977,41.7714],[129.8171,41.7755],[129.8412,41.7598],[129.8515,41.7624],[129.849,41.7811],[129.8686,41.7921],[129.8877,41.8413],[129.8828,41.8723],[129.8969,41.9023],[129.9084,41.9068],[129.9535,41.8921],[129.9487,41.9071],[129.9671,41.9207],[129.9735,41.9561],[129.9867,41.964],[129.9791,41.9792],[129.9986,41.9966],[130.0077,42.0119],[130.0249,42.0037],[130.0445,42.022],[130.0474,42.0501],[130.0571,42.055],[130.0688,42.0352],[130.0807,42.0455],[130.0758,42.0754],[130.0992,42.0861],[130.132,42.0875],[130.1523,42.0658],[130.1738,42.0729],[130.1736,42.0849],[130.1505,42.0928],[130.1718,42.1063],[130.1931,42.1068],[130.2017,42.1362],[130.213,42.1513],[130.1982,42.1674],[130.2122,42.1789],[130.2324,42.1774],[130.2462,42.1928],[130.2818,42.2147],[130.2946,42.2322],[130.3081,42.2314],[130.3148,42.2176],[130.3065,42.191],[130.3317,42.1926],[130.3282,42.2055],[130.3691,42.235],[130.3657,42.2508],[130.3974,42.2575],[130.3836,42.277],[130.3857,42.2941],[130.3972,42.2975],[130.402,42.3305],[130.454,42.3041],[130.4617,42.3271],[130.4867,42.3371],[130.5116,42.3327],[130.5271,42.3177],[130.5763,42.313],[130.6073,42.2875],[130.5877,42.2665],[130.5987,42.2552],[130.6215,42.272],[130.6358,42.2679],[130.6749,42.2836],[130.6623,42.2955],[130.6649,42.3072],[130.6461,42.3389],[130.645,42.3483],[130.66,42.3676],[130.6555,42.3865],[130.6339,42.4142],[130.6126,42.4294],[130.5721,42.4335],[130.5612,42.4559],[130.5804,42.4835],[130.5571,42.4885],[130.5486,42.4969],[130.5456,42.5277],[130.5277,42.541],[130.5251,42.5615],[130.5114,42.5812],[130.518,42.5967],[130.5144,42.6154],[130.4766,42.6184],[130.4579,42.5943],[130.4752,42.5717],[130.4738,42.5541],[130.4411,42.5482],[130.4172,42.5678],[130.4207,42.5879],[130.437,42.6],[130.4204,42.6138],[130.386,42.5984],[130.3555,42.6338],[130.307,42.6627],[130.293,42.6928],[130.2789,42.702],[130.2569,42.7048],[130.2344,42.7368],[130.2425,42.7552],[130.2383,42.7744],[130.2274,42.7878],[130.2357,42.8007],[130.2359,42.818],[130.2552,42.843],[130.2497,42.8578],[130.2681,42.8793],[130.2682,42.8908],[130.2554,42.907],[130.2148,42.9036],[130.1729,42.9141],[130.1419,42.9029],[130.1045,42.9136],[130.1015,42.9262],[130.1318,42.9336],[130.1147,42.951],[130.144,42.9699],[130.1187,42.9872],[130.0906,42.9841],[130.0603,42.9681],[130.0392,42.9719],[130.0198,42.968],[129.9553,42.9786],[129.9501,42.987],[129.9547,43.0113],[129.9061,43.0065],[129.8793,42.9918],[129.884,42.9786],[129.9149,42.979],[129.9081,42.9672],[129.8635,42.9713],[129.8494,42.9533],[129.87,42.9197],[129.8438,42.9189],[129.8437,42.8904],[129.8367,42.8639],[129.8135,42.8497],[129.8125,42.8283],[129.8031,42.8162],[129.8092,42.7908],[129.7849,42.7716],[129.7839,42.7561],[129.7624,42.7275],[129.7602,42.7084],[129.7773,42.6764],[129.7752,42.652],[129.7471,42.647],[129.7659,42.6334],[129.7529,42.6241],[129.7711,42.6156],[129.7493,42.5823],[129.7361,42.5728],[129.7376,42.5538],[129.7461,42.5414],[129.732,42.4993],[129.7402,42.489],[129.7428,42.4656],[129.7323,42.4619],[129.7205,42.4402],[129.6973,42.426],[129.6738,42.4345],[129.6503,42.4258],[129.6259,42.4476],[129.6165,42.462],[129.5841,42.4461],[129.6059,42.4358],[129.5963,42.4142],[129.5789,42.414],[129.5643,42.4001],[129.5497,42.3742],[129.5345,42.3628],[129.5224,42.3914],[129.5054,42.3938],[129.4955,42.4116],[129.4628,42.4218],[129.4517,42.4374],[129.4163,42.4354],[129.4009,42.4505],[129.3893,42.4481],[129.3822,42.4231],[129.3559,42.4311],[129.3683,42.4465],[129.3599,42.4561],[129.3361,42.4395],[129.3546,42.4177],[129.3215,42.419],[129.295,42.3893],[129.2765,42.3858],[129.2653,42.3744],[129.2444,42.3791],[129.2261,42.3559],[129.2319,42.344],[129.2564,42.329],[129.2465,42.3183],[129.2241,42.3132],[129.2079,42.3208],[129.1936,42.313],[129.2251,42.2963],[129.2171,42.2656],[129.1905,42.2646],[129.1766,42.259],[129.1749,42.2381],[129.2008,42.2423],[129.1958,42.2278],[129.2021,42.2061],[129.1863,42.2003],[129.1889,42.1891],[129.1591,42.1852],[129.1657,42.1652],[129.1262,42.1601],[129.1296,42.152],[129.1139,42.1389],[129.081,42.1425],[129.0507,42.1371],[129.0351,42.1283],[129.0333,42.1048],[129.0125,42.0995],[129.0191,42.0747],[129.0167,42.0542],[129.0014,42.0439],[128.9819,42.0183],[128.9872,42.0131],[128.9661,41.9886],[128.953,41.9936],[128.9241,41.9736],[128.9014,41.9744],[128.8914,41.9564],[128.9008,41.9397],[128.8833,41.9253],[128.8788,41.9125],[128.8577,41.9292],[128.8091,41.9247],[128.8066,41.9153],[128.8383,41.8964],[128.8394,41.8858],[128.8664,41.8517],[128.8741,41.8256],[128.9147,41.8297],[128.9261,41.8219],[128.923,41.7811],[128.935,41.7114],[128.9505,41.6953],[128.9533,41.6778],[128.9297,41.6503],[128.9272,41.6403],[128.955,41.6311],[128.9919,41.6272],[129.0239,41.6069],[129.0497,41.5719],[129.058,41.5444],[129.0511,41.5294],[129.0164,41.498],[128.9819,41.4736],[128.9666,41.4528],[128.9622,41.4286],[128.9688,41.3808],[128.9819,41.3544],[128.9988,41.3331],[129.0028,41.3158],[129.0286,41.288],[129.0305,41.2603],[128.9938,41.2125],[128.9908,41.2008],[129.0064,41.1378],[129.0069,41.1247],[128.9888,41.0989],[128.998,41.0736],[128.9933,41.0431],[129.0005,41.0122],[128.9861,40.9805],[128.9475,40.9422],[128.9391,40.9228],[128.9577,40.888],[128.9591,40.8783],[128.9341,40.8558],[128.938,40.8258],[128.9641,40.795],[128.9755,40.7736],[128.9733,40.7475],[128.9786,40.7222],[129.0031,40.6967],[129.058,40.6567],[129.0625,40.6364],[129.0544,40.6119],[129.0636,40.5975],[129.0891,40.5892],[129.1361,40.5792],[129.168,40.5677]]],[[[130.2807,42.1446],[130.2876,42.1667],[130.2732,42.1704],[130.2634,42.1602],[130.2807,42.1446]]]]},"properties":{"adm1_name":"North Hamgyong","adm1_name1":null,"adm1_pcode":"KP02","area_sqkm":16827.22485312}},
{"type":"Feature","geometry":{"type":"Polygon","coordinates":[[[126.982,39.0692],[126.9319,39.0583],[126.8905,39.0728],[126.8394,39.1069],[126.8022,39.12],[126.7711,39.1236],[126.7303,39.1469],[126.7139,39.1472],[126.66,39.1356],[126.635,39.135],[126.6128,39.1431],[126.5858,39.17],[126.5619,39.1594],[126.5575,39.1431],[126.5628,39.115],[126.5817,39.0933],[126.5919,39.0722],[126.6169,39.0544],[126.6292,39.0283],[126.6528,39.0008],[126.6611,38.9858],[126.6569,38.9761],[126.6242,38.9667],[126.5966,38.9683],[126.5717,38.975],[126.5155,39.0028],[126.483,38.9958],[126.4789,38.9853],[126.4975,38.9508],[126.5005,38.9308],[126.4878,38.9111],[126.4683,38.9078],[126.4427,38.9181],[126.4036,38.9222],[126.3874,38.9305],[126.3492,38.9422],[126.3294,38.9539],[126.2961,38.96],[126.2691,38.9586],[126.2417,38.9753],[126.2383,38.985],[126.1994,38.9875],[126.17,38.9742],[126.1422,38.9689],[126.1236,38.9703],[126.1085,38.9524],[126.0827,38.9713],[126.0537,39.0009],[126.0277,39.0117],[126.0081,39.0037],[125.956,39.0092],[125.9494,38.9931],[125.9619,38.9473],[125.9453,38.9204],[125.9289,38.9097],[125.8997,38.9178],[125.8603,38.8937],[125.8377,38.9126],[125.8215,38.9207],[125.7923,38.9234],[125.7464,38.902],[125.7334,38.9047],[125.7173,38.9236],[125.711,38.9451],[125.672,38.9506],[125.6059,38.9388],[125.5955,38.9203],[125.5878,38.8844],[125.5622,38.8703],[125.5269,38.8583],[125.5203,38.8408],[125.5278,38.8211],[125.5469,38.8075],[125.5644,38.8044],[125.575,38.7864],[125.5736,38.7675],[125.58,38.7472],[125.6066,38.7314],[125.618,38.7197],[125.6144,38.6897],[125.6298,38.6569],[125.6533,38.6272],[125.6561,38.5794],[125.6653,38.5639],[125.6625,38.5319],[125.6822,38.5158],[125.678,38.5008],[125.6966,38.4919],[125.7033,38.4678],[125.6964,38.4572],[125.6994,38.4155],[125.7236,38.3908],[125.7253,38.3808],[125.7053,38.3525],[125.7452,38.343],[125.7528,38.3269],[125.7339,38.3097],[125.7589,38.3028],[125.7741,38.3158],[125.7878,38.3144],[125.8044,38.3017],[125.8144,38.3169],[125.8378,38.3147],[125.8422,38.3],[125.8583,38.288],[125.8611,38.2683],[125.8861,38.2594],[125.9017,38.245],[125.9083,38.23],[125.9211,38.1814],[125.9367,38.1694],[125.9705,38.1697],[126.0072,38.1769],[126.0453,38.1919],[126.0753,38.175],[126.0875,38.1792],[126.1133,38.203],[126.1264,38.208],[126.158,38.203],[126.2017,38.2319],[126.2466,38.2403],[126.2722,38.2414],[126.3042,38.233],[126.3561,38.2105],[126.3886,38.2017],[126.4064,38.1903],[126.4419,38.14],[126.4391,38.1192],[126.423,38.1294],[126.4178,38.1486],[126.3783,38.1275],[126.3708,38.1031],[126.3766,38.0933],[126.3953,38.0939],[126.3944,38.0789],[126.3811,38.0544],[126.4017,38.04],[126.3892,38.0205],[126.3894,38.0108],[126.4039,37.9961],[126.4042,37.9861],[126.3917,37.9705],[126.3903,37.9253],[126.4091,37.9178],[126.413,37.9081],[126.4177,37.9002],[126.4045,37.8808],[126.423,37.8517],[126.4623,37.8367],[126.4718,37.816],[126.507,37.8146],[126.5553,37.7888],[126.5744,37.7695],[126.5958,37.7701],[126.6203,37.7884],[126.6541,37.7889],[126.6497,37.8009],[126.6658,37.833],[126.6787,37.8358],[126.6892,37.8589],[126.6901,37.8981],[126.6953,37.9113],[126.6829,37.9453],[126.7415,37.9625],[126.7693,37.9622],[126.784,37.968],[126.8065,37.9925],[126.8404,38.0184],[126.8634,38.0462],[126.8743,38.0809],[126.8922,38.0992],[126.9379,38.127],[126.9669,38.139],[126.9713,38.1464],[126.9613,38.162],[126.9444,38.1642],[126.9261,38.1958],[126.8905,38.205],[126.8736,38.2265],[126.8691,38.2408],[126.8808,38.2539],[126.8847,38.2704],[126.8658,38.29],[126.8716,38.3047],[126.8883,38.3117],[126.8936,38.3236],[126.8811,38.3408],[126.8433,38.3231],[126.83,38.3269],[126.8253,38.3419],[126.795,38.348],[126.7878,38.3679],[126.7522,38.4055],[126.7325,38.4303],[126.7105,38.4683],[126.7,38.5133],[126.715,38.5539],[126.713,38.5736],[126.6822,38.6078],[126.6792,38.6283],[126.7008,38.6436],[126.7597,38.6569],[126.7855,38.6708],[126.8008,38.6855],[126.8183,38.7169],[126.8528,38.7567],[126.87,38.7825],[126.8775,38.8244],[126.8708,38.8586],[126.8736,38.8792],[126.8936,38.8986],[126.9183,38.9064],[126.9656,38.9083],[126.9839,38.9181],[127.0111,38.9475],[127.0191,38.9825],[127.0086,39.0014],[126.9778,39.038],[126.9753,39.0492],[126.982,39.0692]]]},"properties":{"adm1_name":"North Hwanghae","adm1_name1":null,"adm1_pcode":"KP08","area_sqkm":10379.51996352}},
{"type":"Feature","geometry":{"type":"MultiPolygon","coordinates":[[[[125.4113,40.6544],[125.4187,40.6361],[125.4078,40.6248],[125.3897,40.6298],[125.3663,40.6492],[125.334,40.6382],[125.32,40.6385],[125.2979,40.6539],[125.2827,40.6554],[125.2683,40.6463],[125.2647,40.6226],[125.2508,40.6119],[125.1995,40.6071],[125.1739,40.5994],[125.1286,40.5729],[125.1019,40.5603],[125.0228,40.5335],[125.0014,40.5169],[125.0105,40.4966],[125.0357,40.4874],[125.0417,40.4638],[125.0176,40.4576],[124.9828,40.4689],[124.9372,40.4527],[124.9053,40.4626],[124.8905,40.4757],[124.8562,40.4269],[124.7983,40.395],[124.7529,40.3824],[124.7335,40.3597],[124.7262,40.3272],[124.7128,40.3162],[124.6664,40.2992],[124.6144,40.286],[124.5799,40.2633],[124.5719,40.2523],[124.5208,40.2282],[124.5079,40.2165],[124.4838,40.1753],[124.4563,40.1739],[124.4278,40.1459],[124.405,40.135],[124.3856,40.1106],[124.3484,40.0791],[124.3356,40.0614],[124.3396,40.0461],[124.3553,40.0395],[124.3658,40.0245],[124.3583,40],[124.3717,40],[124.3637,39.9673],[124.3682,39.9529],[124.38,39.9493],[124.3527,39.929],[124.331,39.9235],[124.3159,39.9035],[124.3345,39.8971],[124.3509,39.8805],[124.3767,39.88],[124.3916,39.8694],[124.4051,39.8351],[124.4162,39.8207],[124.4102,39.8014],[124.4256,39.7973],[124.4454,39.8143],[124.4585,39.8327],[124.4708,39.825],[124.49,39.8234],[124.5064,39.8139],[124.5452,39.8071],[124.5621,39.8245],[124.5722,39.8096],[124.5571,39.796],[124.549,39.7696],[124.5724,39.7693],[124.5835,39.7628],[124.5834,39.7356],[124.5721,39.7188],[124.5937,39.7137],[124.6121,39.7012],[124.6219,39.6844],[124.6388,39.6911],[124.6468,39.6711],[124.633,39.6593],[124.6272,39.637],[124.6119,39.6221],[124.6137,39.6094],[124.6394,39.5897],[124.6575,39.6103],[124.6726,39.6118],[124.7005,39.6346],[124.7391,39.6396],[124.7256,39.6485],[124.7309,39.6585],[124.7567,39.6643],[124.7592,39.6739],[124.7429,39.6842],[124.7403,39.7052],[124.7506,39.7172],[124.7518,39.733],[124.7373,39.7654],[124.7577,39.764],[124.7533,39.7513],[124.7701,39.7307],[124.7882,39.7326],[124.8029,39.7116],[124.8521,39.716],[124.8521,39.6995],[124.8754,39.6958],[124.8921,39.686],[124.9112,39.6658],[124.902,39.6538],[124.9211,39.6444],[124.9277,39.6517],[124.9474,39.6438],[124.9442,39.6631],[124.9709,39.6522],[124.9723,39.6355],[125.0591,39.616],[125.0616,39.6077],[125.1037,39.6133],[125.1241,39.5663],[125.1419,39.5658],[125.166,39.5751],[125.1824,39.5936],[125.1999,39.5944],[125.2231,39.6117],[125.2289,39.6299],[125.2418,39.6281],[125.2259,39.6055],[125.2165,39.5724],[125.2292,39.5727],[125.2492,39.5593],[125.2736,39.5189],[125.3131,39.5265],[125.3366,39.547],[125.3759,39.5554],[125.3935,39.5751],[125.426,39.5821],[125.4345,39.571],[125.4714,39.5758],[125.5039,39.5756],[125.53,39.5919],[125.5789,39.6019],[125.6175,39.6217],[125.6347,39.6364],[125.6566,39.6358],[125.6722,39.6292],[125.6941,39.6314],[125.728,39.6503],[125.7822,39.665],[125.8008,39.685],[125.8236,39.6905],[125.838,39.7178],[125.8525,39.7228],[125.855,39.7458],[125.8986,39.7505],[125.9286,39.7805],[125.9578,39.7919],[125.9616,39.8097],[125.9775,39.8256],[125.9994,39.8294],[126.0039,39.8472],[126.0161,39.8636],[126.0508,39.8364],[126.0714,39.825],[126.1075,39.8205],[126.1422,39.8303],[126.1983,39.8414],[126.243,39.8467],[126.2711,39.8542],[126.2972,39.8708],[126.3247,39.8817],[126.3539,39.8853],[126.3672,39.8939],[126.3694,39.923],[126.3433,39.9572],[126.3394,39.9683],[126.3433,39.9928],[126.3602,40.0176],[126.3175,40.0339],[126.2191,40.0422],[126.1917,40.0489],[126.1414,40.0747],[126.0825,40.1317],[126.0464,40.1542],[126.0158,40.1789],[125.9817,40.2161],[125.9673,40.2216],[125.9469,40.2167],[125.9325,40.22],[125.9125,40.2386],[125.8819,40.2386],[125.8178,40.22],[125.7955,40.2267],[125.75,40.2575],[125.6891,40.2805],[125.6194,40.328],[125.613,40.3444],[125.6305,40.3586],[125.6305,40.37],[125.5817,40.4086],[125.5753,40.4236],[125.5869,40.4461],[125.593,40.483],[125.6064,40.498],[125.6139,40.52],[125.6014,40.54],[125.5928,40.5733],[125.5614,40.5694],[125.5386,40.5733],[125.5155,40.6011],[125.4986,40.6155],[125.4592,40.6317],[125.4113,40.6544]]],[[[124.2514,39.8063],[124.2659,39.8133],[124.282,39.8303],[124.2682,39.8647],[124.2784,39.8754],[124.2723,39.9208],[124.2421,39.9109],[124.2261,39.89],[124.2279,39.8687],[124.245,39.8572],[124.1891,39.8221],[124.2021,39.805],[124.2296,39.7843],[124.2514,39.8063]]],[[[124.8933,39.6067],[124.8722,39.6002],[124.8755,39.5727],[124.8576,39.5656],[124.8467,39.5498],[124.8548,39.514],[124.8193,39.494],[124.8421,39.4867],[124.8584,39.491],[124.8783,39.5105],[124.9398,39.5431],[124.9225,39.5479],[124.9106,39.5709],[124.9143,39.5896],[124.9268,39.5958],[124.8933,39.6067]]],[[[124.6862,39.5631],[124.6271,39.5604],[124.6125,39.5397],[124.6723,39.5285],[124.6929,39.5413],[124.6985,39.5552],[124.6862,39.5631]]],[[[124.7024,39.497],[124.7092,39.5114],[124.7054,39.5309],[124.6797,39.5142],[124.6786,39.5001],[124.7024,39.497]]],[[[124.3827,39.8464],[124.3918,39.8571],[124.3872,39.8692],[124.3641,39.8719],[124.3682,39.8477],[124.3827,39.8464]]],[[[124.615,39.4241],[124.6136,39.4445],[124.5929,39.442],[124.5999,39.4215],[124.615,39.4241]]],[[[124.3541,39.8537],[124.3514,39.8725],[124.3347,39.8733],[124.338,39.8516],[124.3541,39.8537]]]]},"properties":{"adm1_name":"North Pyongan","adm1_name1":null,"adm1_pcode":"KP06","area_sqkm":12441.02304141}},
{"type":"Feature","geometry":{"type":"Polygon","coordinates":[[[126.3874,38.9305],[126.3889,38.9658],[126.3725,38.9983],[126.3542,39.0189],[126.3486,39.0414],[126.3372,39.053],[126.2875,39.0603],[126.2711,39.0675],[126.248,39.09],[126.2394,39.1142],[126.2489,39.1403],[126.2355,39.1555],[126.2142,39.1592],[126.1883,39.1558],[126.1661,39.1592],[126.1408,39.1833],[126.0933,39.1825],[126.0819,39.2125],[126.0736,39.2236],[126.0403,39.2336],[126.0247,39.2136],[125.9723,39.2034],[125.9483,39.2272],[125.925,39.2347],[125.8969,39.2294],[125.8857,39.2216],[125.8668,39.2374],[125.8545,39.2397],[125.827,39.2201],[125.8017,39.2242],[125.7817,39.2364],[125.7603,39.2653],[125.7433,39.2794],[125.713,39.2814],[125.6722,39.258],[125.6308,39.2475],[125.6194,39.2272],[125.638,39.1942],[125.6405,39.1742],[125.6336,39.1489],[125.6625,39.13],[125.6608,39.1178],[125.6266,39.0992],[125.5822,39.0694],[125.575,39.0542],[125.5789,39.0103],[125.5852,38.9836],[125.5955,38.9719],[125.6059,38.9388],[125.672,38.9506],[125.711,38.9451],[125.7173,38.9236],[125.7334,38.9047],[125.7464,38.902],[125.7923,38.9234],[125.8215,38.9207],[125.8377,38.9126],[125.8603,38.8937],[125.8997,38.9178],[125.9289,38.9097],[125.9453,38.9204],[125.9619,38.9473],[125.9494,38.9931],[125.956,39.0092],[126.0081,39.0037],[126.0277,39.0117],[126.0537,39.0009],[126.0827,38.9713],[126.1085,38.9524],[126.1236,38.9703],[126.1422,38.9689],[126.17,38.9742],[126.1994,38.9875],[126.2383,38.985],[126.2417,38.9753],[126.2691,38.9586],[126.2961,38.96],[126.3294,38.9539],[126.3492,38.9422],[126.3874,38.9305]]]},"properties":{"adm1_name":"Pyongyang","adm1_name1":null,"adm1_pcode":"KP10","area_sqkm":1758.73111172}},
{"type":"Feature","geometry":{"type":"Polygon","coordinates":[[[128.9888,41.0989],[129.0069,41.1247],[129.0064,41.1378],[128.9908,41.2008],[128.9938,41.2125],[129.0305,41.2603],[129.0286,41.288],[129.0028,41.3158],[128.9988,41.3331],[128.9819,41.3544],[128.9688,41.3808],[128.9622,41.4286],[128.9666,41.4528],[128.9819,41.4736],[129.0164,41.498],[129.0511,41.5294],[129.058,41.5444],[129.0497,41.5719],[129.0239,41.6069],[128.9919,41.6272],[128.955,41.6311],[128.9272,41.6403],[128.9297,41.6503],[128.9533,41.6778],[128.9505,41.6953],[128.935,41.7114],[128.923,41.7811],[128.9261,41.8219],[128.9147,41.8297],[128.8741,41.8256],[128.8664,41.8517],[128.8394,41.8858],[128.8383,41.8964],[128.8066,41.9153],[128.8091,41.9247],[128.8577,41.9292],[128.8788,41.9125],[128.8833,41.9253],[128.9008,41.9397],[128.8914,41.9564],[128.9014,41.9744],[128.9241,41.9736],[128.953,41.9936],[128.9661,41.9886],[128.9872,42.0131],[128.9819,42.0183],[129.0014,42.0439],[129.0167,42.0542],[129.0191,42.0747],[129.0125,42.0995],[129.0033,42.0894],[128.9635,42.0941],[128.9492,42.0831],[128.9453,42.0636],[128.9584,42.0547],[128.9528,42.0406],[128.9295,42.0185],[128.9077,42.0091],[128.8862,42.025],[128.854,42.0286],[128.8366,42.0237],[128.8138,42.0404],[128.7554,42.0383],[128.75,42.0478],[128.7129,42.0349],[128.7038,42.024],[128.6757,42.0123],[128.6289,42.0364],[128.591,42.0242],[128.5901,42.0087],[128.5623,41.9976],[128.5412,42.0045],[128.5277,42],[128.4893,41.9974],[128.4654,42.0069],[128.4517,42.0241],[128.4257,42.0317],[128.383,42.0331],[128.3271,42.0384],[128.2671,42.0357],[128.2254,42.0262],[128.1979,42.0129],[128.1515,42.0035],[128.1106,41.9768],[128.1018,41.99],[128.0814,41.994],[128.0711,41.982],[128.0753,41.9349],[128.0858,41.9173],[128.0849,41.9047],[128.0985,41.897],[128.1033,41.8562],[128.0976,41.8411],[128.1066,41.8082],[128.1037,41.7971],[128.1273,41.7793],[128.1436,41.7557],[128.1461,41.7356],[128.1656,41.7106],[128.1846,41.7076],[128.204,41.6847],[128.254,41.6692],[128.2711,41.6514],[128.2691,41.6446],[128.2872,41.6259],[128.288,41.6125],[128.3113,41.5876],[128.3013,41.5672],[128.2899,41.5591],[128.2784,41.5233],[128.2559,41.5042],[128.2354,41.4975],[128.2389,41.4861],[128.2293,41.4534],[128.2065,41.4254],[128.2018,41.4086],[128.1828,41.41],[128.1664,41.4021],[128.1504,41.3818],[128.1191,41.377],[128.1089,41.3607],[128.0892,41.379],[128.0827,41.3923],[128.0548,41.3946],[128.039,41.3891],[128.0351,41.4043],[128.0126,41.4107],[128.0136,41.4251],[127.9973,41.4426],[127.9876,41.4194],[127.9658,41.4354],[127.9438,41.4361],[127.928,41.4436],[127.8994,41.4323],[127.8677,41.4373],[127.8718,41.4089],[127.8548,41.405],[127.848,41.4185],[127.7674,41.4195],[127.7385,41.4239],[127.7161,41.416],[127.6858,41.4213],[127.6723,41.4125],[127.653,41.426],[127.647,41.4032],[127.6256,41.414],[127.6149,41.4289],[127.5895,41.4238],[127.552,41.434],[127.5382,41.4551],[127.4973,41.4748],[127.4619,41.4611],[127.4416,41.4571],[127.4279,41.4616],[127.4065,41.4564],[127.398,41.4754],[127.3815,41.4792],[127.3553,41.4764],[127.3452,41.4604],[127.2879,41.4832],[127.2602,41.4759],[127.2478,41.4854],[127.2742,41.4919],[127.2745,41.5115],[127.2601,41.5103],[127.2436,41.4974],[127.2281,41.5055],[127.2352,41.5171],[127.1708,41.5267],[127.1671,41.5389],[127.1084,41.5363],[127.1002,41.5529],[127.1239,41.5671],[127.1405,41.5696],[127.1482,41.5861],[127.175,41.5853],[127.1719,41.597],[127.1325,41.5951],[127.1165,41.6035],[127.1045,41.6186],[127.0879,41.6275],[127.0981,41.6442],[127.0705,41.6447],[127.0606,41.6587],[127.0594,41.6308],[127.073,41.6011],[127.0641,41.5869],[127.0308,41.5758],[127.0117,41.5655],[126.9972,41.5311],[126.9703,41.5275],[126.9297,41.5353],[126.9111,41.5183],[126.9278,41.4678],[126.9594,41.4403],[126.9719,41.4339],[127.0122,41.4369],[127.0333,41.4242],[127.0155,41.4047],[127.0164,41.3842],[127.0478,41.3394],[127.073,41.2889],[127.0855,41.2808],[127.1264,41.2697],[127.1372,41.2614],[127.123,41.2369],[127.1364,41.1758],[127.1489,41.1514],[127.1691,41.1405],[127.1903,41.1372],[127.235,41.1097],[127.2833,41.1072],[127.325,41.1],[127.358,41.1117],[127.3811,41.1467],[127.408,41.1592],[127.4486,41.1697],[127.468,41.1705],[127.4878,41.1625],[127.5003,41.1422],[127.5047,41.1119],[127.5056,41.0708],[127.5817,41.0614],[127.6089,41.065],[127.625,41.0839],[127.638,41.1278],[127.6555,41.1453],[127.6836,41.1453],[127.7619,41.1317],[127.7817,41.1261],[127.7939,41.1117],[127.7947,41.0897],[127.7755,41.0308],[127.7658,41.0155],[127.7405,41.0033],[127.7005,41.0036],[127.6903,40.9889],[127.7119,40.9686],[127.7169,40.945],[127.7075,40.9292],[127.6861,40.9089],[127.6497,40.8911],[127.61,40.8664],[127.5955,40.8503],[127.5986,40.8336],[127.6105,40.8155],[127.6189,40.7758],[127.6461,40.7442],[127.6733,40.7],[127.7036,40.6908],[127.7116,40.6808],[127.7239,40.6089],[127.7525,40.6],[127.7869,40.6003],[127.7891,40.5864],[127.7691,40.5669],[127.7741,40.5375],[127.7697,40.5203],[127.743,40.4994],[127.7286,40.4778],[127.7253,40.4594],[127.7275,40.4244],[127.7428,40.4139],[127.7825,40.4267],[127.8364,40.458],[127.9119,40.4978],[127.9433,40.5294],[127.9578,40.5603],[127.9864,40.5819],[128.0222,40.5878],[128.0508,40.6],[128.0897,40.6031],[128.1024,40.5967],[128.1222,40.5758],[128.1491,40.5636],[128.188,40.5689],[128.2061,40.5828],[128.2458,40.6258],[128.2878,40.6583],[128.3355,40.6903],[128.3427,40.7014],[128.3488,40.73],[128.3611,40.7558],[128.3774,40.7708],[128.3908,40.7961],[128.4061,40.8547],[128.4167,40.8822],[128.4386,40.91],[128.4413,40.9408],[128.4339,40.9878],[128.4436,41.0019],[128.4916,41.0067],[128.52,41.0053],[128.5755,41.0133],[128.6011,41.0369],[128.6169,41.0655],[128.6283,41.0744],[128.6617,41.0858],[128.6689,41.0953],[128.6714,41.1205],[128.6989,41.1492],[128.7433,41.1747],[128.7691,41.1675],[128.8025,41.1678],[128.8425,41.178],[128.8758,41.165],[128.9675,41.1219],[128.9888,41.0989]]]},"properties":{"adm1_name":"Ryanggang","adm1_name1":null,"adm1_pcode":"KP01","area_sqkm":13892.09197096}},
{"type":"Feature","geometry":{"type":"Polygon","coordinates":[[[128.9888,41.0989],[128.9675,41.1219],[128.8758,41.165],[128.8425,41.178],[128.8025,41.1678],[128.7691,41.1675],[128.7433,41.1747],[128.6989,41.1492],[128.6714,41.1205],[128.6689,41.0953],[128.6617,41.0858],[128.6283,41.0744],[128.6169,41.0655],[128.6011,41.0369],[128.5755,41.0133],[128.52,41.0053],[128.4916,41.0067],[128.4436,41.0019],[128.4339,40.9878],[128.4413,40.9408],[128.4386,40.91],[128.4167,40.8822],[128.4061,40.8547],[128.3908,40.7961],[128.3774,40.7708],[128.3611,40.7558],[128.3488,40.73],[128.3427,40.7014],[128.3355,40.6903],[128.2878,40.6583],[128.2458,40.6258],[128.2061,40.5828],[128.188,40.5689],[128.1491,40.5636],[128.1222,40.5758],[128.1024,40.5967],[128.0897,40.6031],[128.0508,40.6],[128.0222,40.5878],[127.9864,40.5819],[127.9578,40.5603],[127.9433,40.5294],[127.9119,40.4978],[127.8364,40.458],[127.7825,40.4267],[127.7428,40.4139],[127.7275,40.4244],[127.7253,40.4594],[127.7286,40.4778],[127.743,40.4994],[127.7697,40.5203],[127.7741,40.5375],[127.7691,40.5669],[127.7891,40.5864],[127.7869,40.6003],[127.7525,40.6],[127.7239,40.6089],[127.7116,40.6808],[127.7036,40.6908],[127.6733,40.7],[127.6461,40.7442],[127.6189,40.7758],[127.6105,40.8155],[127.5986,40.8336],[127.5955,40.8503],[127.61,40.8664],[127.6497,40.8911],[127.6861,40.9089],[127.7075,40.9292],[127.7169,40.945],[127.7119,40.9686],[127.6903,40.9889],[127.7005,41.0036],[127.7405,41.0033],[127.7658,41.0155],[127.7755,41.0308],[127.7947,41.0897],[127.7939,41.1117],[127.7817,41.1261],[127.7619,41.1317],[127.6836,41.1453],[127.6555,41.1453],[127.638,41.1278],[127.625,41.0839],[127.6089,41.065],[127.5817,41.0614],[127.5056,41.0708],[127.495,41.0239],[127.4811,41.01],[127.4311,40.9828],[127.4075,40.9642],[127.4017,40.9542],[127.3964,40.9236],[127.4003,40.8939],[127.415,40.8447],[127.4178,40.8205],[127.4053,40.7942],[127.3814,40.7786],[127.3516,40.7742],[127.3239,40.7617],[127.3072,40.7467],[127.2683,40.7361],[127.2425,40.7192],[127.2322,40.7033],[127.2269,40.6661],[127.2164,40.6389],[127.2058,40.6286],[127.1236,40.6153],[127.0672,40.5761],[127.023,40.5672],[127.0061,40.548],[127.0114,40.5],[127.0078,40.4817],[126.9914,40.4669],[126.9483,40.4364],[126.9344,40.4125],[126.9239,40.3717],[126.9112,40.3347],[126.9919,40.3375],[127.0169,40.3353],[127.0528,40.3253],[127.0747,40.3061],[127.1019,40.2894],[127.1139,40.2689],[127.1022,40.2411],[127.1103,40.188],[127.1219,40.1808],[127.1594,40.1744],[127.1775,40.1539],[127.1786,40.1356],[127.1625,40.1153],[127.1314,40.0939],[127.0961,40.075],[127.0814,40.0611],[127.0889,40.0339],[127.0564,40.0203],[127.0692,39.9631],[127.0855,39.9353],[127.1142,39.8964],[127.1094,39.8733],[127.0961,39.8533],[127.0836,39.8472],[127.0341,39.8453],[127.0078,39.8247],[126.9886,39.8355],[126.97,39.8578],[126.9511,39.8636],[126.9186,39.8667],[126.8708,39.8661],[126.8028,39.8517],[126.7761,39.8355],[126.7578,39.7864],[126.7189,39.7378],[126.7275,39.7192],[126.7517,39.7172],[126.7539,39.7005],[126.7258,39.6764],[126.7119,39.6689],[126.7003,39.6525],[126.7164,39.6089],[126.7114,39.5905],[126.675,39.5636],[126.6697,39.5406],[126.6789,39.5183],[126.7072,39.4947],[126.7342,39.4783],[126.7394,39.4558],[126.7139,39.4047],[126.6955,39.3558],[126.6955,39.3308],[126.7158,39.303],[126.738,39.2972],[126.7958,39.3153],[126.8253,39.3097],[126.8361,39.3],[126.845,39.2733],[126.8566,39.2678],[126.8722,39.2825],[126.9097,39.2856],[126.9264,39.273],[126.9325,39.2578],[126.9208,39.2244],[126.9289,39.2147],[126.9514,39.2108],[126.9792,39.2164],[127.0028,39.2142],[127.0255,39.2043],[127.0397,39.2094],[127.0425,39.2208],[127.0228,39.2525],[127.0297,39.2694],[127.0861,39.2839],[127.0925,39.2958],[127.0936,39.3222],[127.1019,39.3436],[127.1022,39.3692],[127.1133,39.3908],[127.1244,39.4008],[127.1525,39.4128],[127.1986,39.4072],[127.2342,39.413],[127.2811,39.413],[127.3341,39.4051],[127.3612,39.4071],[127.371,39.4139],[127.3961,39.4101],[127.4132,39.4196],[127.442,39.4061],[127.4722,39.4197],[127.5018,39.4272],[127.5124,39.3941],[127.5325,39.3895],[127.541,39.3574],[127.526,39.3471],[127.5264,39.3233],[127.5145,39.3157],[127.5166,39.2998],[127.5565,39.2916],[127.5665,39.3066],[127.5539,39.3407],[127.5549,39.3535],[127.534,39.4108],[127.5187,39.4443],[127.5145,39.506],[127.5395,39.5457],[127.5754,39.5857],[127.5575,39.6028],[127.5634,39.6193],[127.55,39.622],[127.5336,39.6369],[127.5123,39.6312],[127.4939,39.6457],[127.488,39.6628],[127.4904,39.6991],[127.5141,39.7375],[127.5431,39.7576],[127.5414,39.7746],[127.5705,39.791],[127.5892,39.7972],[127.6073,39.8169],[127.6358,39.8233],[127.6592,39.7964],[127.691,39.8337],[127.7077,39.8441],[127.7368,39.8495],[127.7489,39.844],[127.7761,39.8474],[127.7902,39.884],[127.8037,39.8723],[127.8379,39.8772],[127.8711,39.901],[127.8829,39.9241],[127.8697,39.9365],[127.8852,39.9668],[127.9022,39.9813],[127.917,39.9709],[127.9405,39.9856],[127.9588,40.0053],[127.9902,40.0067],[128.0612,40.0145],[128.1082,40.0131],[128.1608,40.0074],[128.173,40],[128.1648,39.9863],[128.1738,39.9786],[128.2107,39.9827],[128.2266,40],[128.2623,40.006],[128.2937,39.9968],[128.3224,40],[128.3272,40.0407],[128.3346,40.0576],[128.3605,40.0909],[128.375,40.0971],[128.4434,40.1017],[128.4631,40.1168],[128.4722,40.1321],[128.52,40.1339],[128.5564,40.1685],[128.5724,40.1709],[128.5965,40.1839],[128.6327,40.1811],[128.6459,40.1921],[128.6624,40.1936],[128.6662,40.2062],[128.6583,40.239],[128.6497,40.2534],[128.6355,40.255],[128.6185,40.2765],[128.6294,40.3057],[128.6503,40.3157],[128.6699,40.3099],[128.697,40.3323],[128.7524,40.3393],[128.7681,40.3513],[128.7789,40.3452],[128.8091,40.3517],[128.8322,40.3651],[128.8571,40.3723],[128.9041,40.3987],[128.9599,40.4512],[128.9789,40.4619],[129.0157,40.4679],[129.0428,40.4815],[129.0603,40.4696],[129.1022,40.4941],[129.1298,40.535],[129.1434,40.5365],[129.1578,40.5642],[129.168,40.5677],[129.1361,40.5792],[129.0891,40.5892],[129.0636,40.5975],[129.0544,40.6119],[129.0625,40.6364],[129.058,40.6567],[129.0031,40.6967],[128.9786,40.7222],[128.9733,40.7475],[128.9755,40.7736],[128.9641,40.795],[128.938,40.8258],[128.9341,40.8558],[128.9591,40.8783],[128.9577,40.888],[128.9391,40.9228],[128.9475,40.9422],[128.9861,40.9805],[129.0005,41.0122],[128.9933,41.0431],[128.998,41.0736],[128.9888,41.0989]]]},"properties":{"adm1_name":"South Hamgyong","adm1_name1":null,"adm1_pcode":"KP03","area_sqkm":18682.97298373}},
{"type":"Feature","geometry":{"type":"MultiPolygon","coordinates":[[[[125.5581,38.6919],[125.5402,38.6883],[125.5195,38.669],[125.5064,38.6814],[125.4762,38.698],[125.4555,38.7004],[125.4374,38.7092],[125.4319,38.6809],[125.3942,38.6828],[125.3625,38.6881],[125.3466,38.6688],[125.322,38.6681],[125.3178,38.6512],[125.3068,38.6434],[125.2643,38.6585],[125.2466,38.6577],[125.2409,38.6276],[125.226,38.6145],[125.1838,38.6065],[125.1658,38.6182],[125.1531,38.6257],[125.129,38.6652],[125.1101,38.6579],[125.1103,38.6401],[125.1309,38.6125],[125.1288,38.5851],[125.1414,38.5769],[125.1127,38.5688],[125.0842,38.572],[125.0863,38.5621],[125.0729,38.5373],[125.0568,38.5493],[125.0362,38.5544],[125.0525,38.5663],[125.0295,38.5787],[125,38.5823],[125,38.5278],[125.0076,38.5236],[125.0152,38.5001],[125.001,38.4749],[124.9696,38.452],[124.979,38.4413],[124.9715,38.4309],[124.9566,38.4574],[124.9372,38.4371],[124.8948,38.371],[124.8579,38.344],[124.8596,38.3282],[124.8766,38.3066],[124.8665,38.266],[124.8951,38.2175],[124.9369,38.2163],[124.9615,38.2283],[124.9905,38.2265],[124.9926,38.2157],[124.968,38.219],[124.9505,38.2163],[124.9154,38.1872],[124.9078,38.213],[124.8828,38.2108],[124.8662,38.2376],[124.8192,38.1919],[124.8163,38.1784],[124.799,38.1672],[124.7769,38.181],[124.7593,38.1583],[124.7218,38.1351],[124.6665,38.1399],[124.6529,38.1288],[124.6667,38.1172],[124.6917,38.1089],[124.7625,38.095],[124.7984,38.095],[124.8174,38.1023],[124.8555,38.1062],[124.8866,38.1248],[124.9193,38.1129],[124.9497,38.094],[125.012,38.0704],[125.0272,38.0743],[125.0444,38.0663],[125.0643,38.0745],[125.1258,38.0912],[125.1425,38.087],[125.1711,38.0939],[125.2217,38.0782],[125.2442,38.0857],[125.262,38.0778],[125.2588,38.0671],[125.2361,38.0505],[125.2342,38.0327],[125.2238,38.023],[125.2135,38.0417],[125.2016,38.0513],[125.1809,38.0569],[125.1491,38.048],[125.1117,38.0444],[125.1027,38.0203],[125.1191,37.9923],[125.1399,37.9878],[125.1473,37.9726],[125.1725,37.9734],[125.15,37.9519],[125.1325,37.9595],[125.0882,37.9581],[125.0757,37.9783],[125.0357,37.9646],[125.0163,37.9622],[124.985,37.9468],[124.9765,37.9274],[125.0124,37.9301],[125.0055,37.9202],[125.0122,37.9056],[125.0319,37.8973],[125.0621,37.9012],[125.0835,37.8759],[125.108,37.8742],[125.1317,37.8633],[125.1388,37.871],[125.1612,37.8647],[125.1934,37.8688],[125.2269,37.8905],[125.2325,37.9208],[125.2459,37.9337],[125.2608,37.9305],[125.2434,37.9145],[125.2431,37.9021],[125.2712,37.8952],[125.2894,37.9023],[125.3015,37.8849],[125.296,37.8668],[125.2654,37.8373],[125.2327,37.8237],[125.2406,37.816],[125.2746,37.814],[125.281,37.8247],[125.3039,37.8191],[125.3017,37.7998],[125.3201,37.8078],[125.3265,37.8198],[125.3461,37.819],[125.3567,37.8477],[125.3567,37.8601],[125.3721,37.8631],[125.3892,37.8554],[125.4086,37.8544],[125.4224,37.862],[125.4352,37.8471],[125.4471,37.8594],[125.4334,37.8757],[125.3902,37.879],[125.3755,37.8919],[125.3939,37.9005],[125.4107,37.8908],[125.4367,37.8991],[125.424,37.9112],[125.4336,37.9246],[125.4542,37.9276],[125.4528,37.8878],[125.506,37.8925],[125.5101,37.8773],[125.4708,37.8675],[125.4821,37.8611],[125.4758,37.8401],[125.4944,37.8249],[125.5251,37.8369],[125.5065,37.8121],[125.49,37.8018],[125.4828,37.823],[125.43,37.8251],[125.3934,37.7944],[125.3737,37.7936],[125.3548,37.7765],[125.3848,37.7764],[125.3905,37.764],[125.4112,37.7718],[125.4174,37.7846],[125.4423,37.7766],[125.4267,37.7574],[125.4137,37.7679],[125.3949,37.7545],[125.3724,37.7459],[125.3588,37.7519],[125.3336,37.7372],[125.3141,37.7089],[125.3375,37.6908],[125.3414,37.6733],[125.3566,37.6797],[125.3599,37.7102],[125.3693,37.7247],[125.3827,37.7194],[125.4114,37.7253],[125.467,37.7213],[125.4818,37.7367],[125.4802,37.7504],[125.4941,37.7632],[125.4931,37.7775],[125.5116,37.7909],[125.5169,37.7722],[125.5273,37.764],[125.5478,37.7625],[125.5477,37.7801],[125.5653,37.7782],[125.5878,37.7601],[125.6056,37.7575],[125.6123,37.7686],[125.6154,37.796],[125.6001,37.805],[125.6266,37.8135],[125.618,37.8336],[125.6177,37.8515],[125.6377,37.8529],[125.6312,37.8771],[125.642,37.892],[125.6261,37.9114],[125.6437,37.9179],[125.6519,37.8939],[125.6755,37.8893],[125.6996,37.8943],[125.7282,37.9121],[125.711,37.9255],[125.6983,37.9177],[125.6826,37.9341],[125.696,37.9446],[125.7105,37.9668],[125.6731,37.9636],[125.6858,37.9792],[125.6797,37.9882],[125.6474,37.9641],[125.6275,37.9673],[125.622,37.9779],[125.6,37.9866],[125.5606,38.0247],[125.586,38.0398],[125.606,38.0332],[125.6224,38.037],[125.6432,38.0185],[125.675,38.025],[125.6985,37.9886],[125.7157,37.9921],[125.7192,38.0122],[125.7431,38.0161],[125.7774,37.995],[125.8056,37.9898],[125.7924,37.9573],[125.8044,37.9419],[125.8176,37.9412],[125.8493,37.9105],[125.86,37.894],[125.878,37.8868],[125.9018,37.8383],[125.9303,37.8414],[125.9555,37.8289],[125.9772,37.8291],[125.9642,37.845],[125.9708,37.8604],[125.9529,37.8796],[125.9762,37.8899],[125.9905,37.8845],[125.9941,37.873],[126.0123,37.8637],[126.0123,37.8556],[126.0307,37.8458],[126.0465,37.8659],[126.0607,37.8596],[126.0621,37.8162],[126.0851,37.7899],[126.1043,37.7882],[126.0977,37.7571],[126.1322,37.7398],[126.1633,37.7409],[126.1702,37.7792],[126.1633,37.7819],[126.1587,37.807],[126.1484,37.8176],[126.1529,37.8337],[126.1709,37.8408],[126.212,37.8489],[126.2342,37.8573],[126.2674,37.8405],[126.3208,37.8692],[126.3408,37.8774],[126.3934,37.8845],[126.413,37.9081],[126.4091,37.9178],[126.3903,37.9253],[126.3917,37.9705],[126.4042,37.9861],[126.4039,37.9961],[126.3894,38.0108],[126.3892,38.0205],[126.4017,38.04],[126.3811,38.0544],[126.3944,38.0789],[126.3953,38.0939],[126.3766,38.0933],[126.3708,38.1031],[126.3783,38.1275],[126.4178,38.1486],[126.423,38.1294],[126.4391,38.1192],[126.4419,38.14],[126.4064,38.1903],[126.3886,38.2017],[126.3561,38.2105],[126.3042,38.233],[126.2722,38.2414],[126.2466,38.2403],[126.2017,38.2319],[126.158,38.203],[126.1264,38.208],[126.1133,38.203],[126.0875,38.1792],[126.0753,38.175],[126.0453,38.1919],[126.0072,38.1769],[125.9705,38.1697],[125.9367,38.1694],[125.9211,38.1814],[125.9083,38.23],[125.9017,38.245],[125.8861,38.2594],[125.8611,38.2683],[125.8583,38.288],[125.8422,38.3],[125.8378,38.3147],[125.8144,38.3169],[125.8044,38.3017],[125.7878,38.3144],[125.7741,38.3158],[125.7589,38.3028],[125.7339,38.3097],[125.7528,38.3269],[125.7452,38.343],[125.7053,38.3525],[125.7253,38.3808],[125.7236,38.3908],[125.6994,38.4155],[125.6964,38.4572],[125.7033,38.4678],[125.6966,38.4919],[125.678,38.5008],[125.6822,38.5158],[125.6625,38.5319],[125.6653,38.5639],[125.6561,38.5794],[125.6533,38.6272],[125.6298,38.6569],[125.595,38.6572],[125.5708,38.6861],[125.5581,38.6919]]],[[[124.8762,38.5259],[124.8277,38.5478],[124.8021,38.5364],[124.7793,38.5335],[124.795,38.5187],[124.8174,38.5168],[124.8549,38.4977],[124.874,38.4936],[124.8943,38.502],[124.8886,38.522],[124.8762,38.5259]]],[[[125.3381,37.766],[125.3251,37.7664],[125.27,37.733],[125.2528,37.7257],[125.2347,37.7065],[125.2138,37.7],[125.225,37.6863],[125.2529,37.695],[125.2809,37.7181],[125.2965,37.7231],[125.3341,37.7571],[125.3381,37.766]]],[[[125.0478,37.8345],[125.0244,37.833],[125.0263,37.8144],[125.0051,37.8214],[124.991,37.809],[124.9913,37.7991],[125.021,37.7971],[125.0419,37.8131],[125.0478,37.8345]]],[[[126.3752,37.8341],[126.4,37.855],[126.3975,37.8636],[126.3593,37.8627],[126.3558,37.8477],[126.3631,37.8335],[126.3752,37.8341]]],[[[125.0011,38.6522],[124.9912,38.6526],[124.9866,38.6327],[125.0011,38.6249],[125.0158,38.6341],[125.0215,38.6528],[125.0011,38.6522]]],[[[125.1971,37.8066],[125.1887,37.818],[125.1665,37.8103],[125.1495,37.7989],[125.155,37.7862],[125.1796,37.8025],[125.1971,37.8066]]],[[[126.1736,37.8028],[126.1971,37.8307],[126.1914,37.8393],[126.1707,37.8265],[126.1667,37.8135],[126.1736,37.8028]]]]},"properties":{"adm1_name":"South Hwanghae","adm1_name1":null,"adm1_pcode":"KP09","area_sqkm":8257.21300254}},
{"type":"Feature","geometry":{"type":"Polygon","coordinates":[[[127.0255,39.2043],[127.0028,39.2142],[126.9792,39.2164],[126.9514,39.2108],[126.9289,39.2147],[126.9208,39.2244],[126.9325,39.2578],[126.9264,39.273],[126.9097,39.2856],[126.8722,39.2825],[126.8566,39.2678],[126.845,39.2733],[126.8361,39.3],[126.8253,39.3097],[126.7958,39.3153],[126.738,39.2972],[126.7158,39.303],[126.6955,39.3308],[126.6955,39.3558],[126.7139,39.4047],[126.7394,39.4558],[126.7342,39.4783],[126.7072,39.4947],[126.6789,39.5183],[126.6697,39.5406],[126.675,39.5636],[126.7114,39.5905],[126.7164,39.6089],[126.7003,39.6525],[126.7119,39.6689],[126.7258,39.6764],[126.7539,39.7005],[126.7517,39.7172],[126.7275,39.7192],[126.7189,39.7378],[126.7578,39.7864],[126.7761,39.8355],[126.8028,39.8517],[126.8708,39.8661],[126.9186,39.8667],[126.9511,39.8636],[126.97,39.8578],[126.9886,39.8355],[127.0078,39.8247],[127.0341,39.8453],[127.0836,39.8472],[127.0961,39.8533],[127.1094,39.8733],[127.1142,39.8964],[127.0855,39.9353],[127.0692,39.9631],[127.0564,40.0203],[127.0889,40.0339],[127.0814,40.0611],[127.0961,40.075],[127.1314,40.0939],[127.1625,40.1153],[127.1786,40.1356],[127.1775,40.1539],[127.1594,40.1744],[127.1219,40.1808],[127.1103,40.188],[127.1022,40.2411],[127.1139,40.2689],[127.1019,40.2894],[127.0747,40.3061],[127.0528,40.3253],[127.0169,40.3353],[126.9919,40.3375],[126.9112,40.3347],[126.89,40.2944],[126.8728,40.28],[126.8511,40.27],[126.8267,40.2519],[126.8141,40.2128],[126.8008,40.1975],[126.7761,40.1967],[126.743,40.1883],[126.7292,40.1808],[126.7075,40.1536],[126.6636,40.1442],[126.6358,40.1272],[126.6003,40.1114],[126.5697,40.0889],[126.5597,40.0414],[126.5394,40.0325],[126.4872,40.0278],[126.468,40.0178],[126.4466,39.9975],[126.4264,39.9905],[126.4036,39.9939],[126.3602,40.0176],[126.3433,39.9928],[126.3394,39.9683],[126.3433,39.9572],[126.3694,39.923],[126.3672,39.8939],[126.3539,39.8853],[126.3247,39.8817],[126.2972,39.8708],[126.2711,39.8542],[126.243,39.8467],[126.1983,39.8414],[126.1422,39.8303],[126.1075,39.8205],[126.0714,39.825],[126.0508,39.8364],[126.0161,39.8636],[126.0039,39.8472],[125.9994,39.8294],[125.9775,39.8256],[125.9616,39.8097],[125.9578,39.7919],[125.9286,39.7805],[125.8986,39.7505],[125.855,39.7458],[125.8525,39.7228],[125.838,39.7178],[125.8236,39.6905],[125.8008,39.685],[125.7822,39.665],[125.728,39.6503],[125.6941,39.6314],[125.6722,39.6292],[125.6566,39.6358],[125.6347,39.6364],[125.6175,39.6217],[125.5789,39.6019],[125.53,39.5919],[125.5039,39.5756],[125.4714,39.5758],[125.4345,39.571],[125.4436,39.5591],[125.4065,39.5414],[125.3997,39.5308],[125.3987,39.5065],[125.387,39.4884],[125.3412,39.4605],[125.3376,39.452],[125.3727,39.378],[125.3966,39.3748],[125.4052,39.3549],[125.4023,39.3365],[125.4194,39.3098],[125.4055,39.2938],[125.4047,39.2767],[125.4127,39.2646],[125.3954,39.2578],[125.3742,39.2344],[125.3587,39.2271],[125.3025,39.1722],[125.282,39.1169],[125.2908,39.0952],[125.261,39.0762],[125.2459,39.0445],[125.2107,39.0024],[125.2182,38.9945],[125.2304,38.9876],[125.2551,38.9595],[125.2813,38.9675],[125.3204,38.9648],[125.358,38.9569],[125.3726,38.9727],[125.3666,39.0266],[125.4447,39.0183],[125.461,39.0183],[125.4906,39.0425],[125.5099,39.0263],[125.5227,39.002],[125.5391,39.0074],[125.5789,39.0103],[125.575,39.0542],[125.5822,39.0694],[125.6266,39.0992],[125.6608,39.1178],[125.6625,39.13],[125.6336,39.1489],[125.6405,39.1742],[125.638,39.1942],[125.6194,39.2272],[125.6308,39.2475],[125.6722,39.258],[125.713,39.2814],[125.7433,39.2794],[125.7603,39.2653],[125.7817,39.2364],[125.8017,39.2242],[125.827,39.2201],[125.8545,39.2397],[125.8668,39.2374],[125.8857,39.2216],[125.8969,39.2294],[125.925,39.2347],[125.9483,39.2272],[125.9723,39.2034],[126.0247,39.2136],[126.0403,39.2336],[126.0736,39.2236],[126.0819,39.2125],[126.0933,39.1825],[126.1408,39.1833],[126.1661,39.1592],[126.1883,39.1558],[126.2142,39.1592],[126.2355,39.1555],[126.2489,39.1403],[126.2394,39.1142],[126.248,39.09],[126.2711,39.0675],[126.2875,39.0603],[126.3372,39.053],[126.3486,39.0414],[126.3542,39.0189],[126.3725,38.9983],[126.3889,38.9658],[126.3874,38.9305],[126.4036,38.9222],[126.4427,38.9181],[126.4683,38.9078],[126.4878,38.9111],[126.5005,38.9308],[126.4975,38.9508],[126.4789,38.9853],[126.483,38.9958],[126.5155,39.0028],[126.5717,38.975],[126.5966,38.9683],[126.6242,38.9667],[126.6569,38.9761],[126.6611,38.9858],[126.6528,39.0008],[126.6292,39.0283],[126.6169,39.0544],[126.5919,39.0722],[126.5817,39.0933],[126.5628,39.115],[126.5575,39.1431],[126.5619,39.1594],[126.5858,39.17],[126.6128,39.1431],[126.635,39.135],[126.66,39.1356],[126.7139,39.1472],[126.7303,39.1469],[126.7711,39.1236],[126.8022,39.12],[126.8394,39.1069],[126.8905,39.0728],[126.9319,39.0583],[126.982,39.0692],[126.9894,39.0803],[126.9886,39.1056],[126.995,39.1236],[127.0153,39.1358],[127.0558,39.1505],[127.0655,39.1669],[127.0491,39.1878],[127.0255,39.2043]]]},"properties":{"adm1_name":"South Pyongan","adm1_name1":null,"adm1_pcode":"KP07","area_sqkm":11305.25278168}}
]}