{"type":"FeatureCollection","features":[{"type":"Feature","geometry":{"type":"Point","coordinates":[126.0621556,39.5717058]},"properties":{"id":"camp-0","name":"Camp 14, Kaechon","province":"South Pyongan Province","kind":"Political prison camp (kwanliso)","prisoners":15000,"status":"Operating","note":"Total control zone where prisoners are never released. Shin Dong-hyuk (Escape from Camp 14) says he was born here.","sources":"[{\"name\":\"HRNK prison camp map\",\"url\":\"https://www.hrnk.org/\"},{\"name\":\"Wikipedia\",\"url\":\"https://en.wikipedia.org/wiki/Kaechon_internment_camp\"}]","more":"/learn/north-korea-prison-camps","county":"KP0721"}},{"type":"Feature","geometry":{"type":"Point","coordinates":[129.7210693,41.8329909]},"properties":{"id":"camp-1","name":"Camp 25, Chongjin","province":"North Hamgyong Province","kind":"Political prison camp (kwanliso)","prisoners":5000,"status":"Operating, expanded in the 2010s","note":"Political prison camp on the edge of Chongjin. Satellite imagery showed new guard posts and buildings in the 2010s.","sources":"[{\"name\":\"HRNK prison camp map\",\"url\":\"https://www.hrnk.org/\"},{\"name\":\"Wikipedia\",\"url\":\"https://en.wikipedia.org/wiki/Chongjin_concentration_camp\"}]","more":"/learn/north-korea-prison-camps","county":"KP0205"}},{"type":"Feature","geometry":{"type":"Point","coordinates":[126.8510413,39.6742705]},"properties":{"id":"camp-2","name":"Camp 15, Yodok","province":"South Hamgyong Province","kind":"Political prison camp (kwanliso)","prisoners":null,"status":"Reported closed or downsized, disputed","note":"Had a \"revolutionizing zone\" from which some prisoners were released, which is why most early camp testimony comes from here. Kang Chol-hwan (The Aquariums of Pyongyang) was held here as a child.","sources":"[{\"name\":\"HRNK prison camp map\",\"url\":\"https://www.hrnk.org/\"},{\"name\":\"Wikipedia\",\"url\":\"https://en.wikipedia.org/wiki/Yodok_concentration_camp\"}]","more":"/learn/north-korea-prison-camps","county":"KP0317"}},{"type":"Feature","geometry":{"type":"Point","coordinates":[129.2683983,41.2869653]},"properties":{"id":"camp-3","name":"Camp 16, Hwasong","province":"North Hamgyong Province","kind":"Political prison camp (kwanliso)","prisoners":20000,"status":"Operating","note":"The largest known political prison camp, a few km from the Punggye-ri nuclear test site. Tens of thousands of prisoners estimated.","sources":"[{\"name\":\"HRNK prison camp map\",\"url\":\"https://www.hrnk.org/\"},{\"name\":\"Wikipedia\",\"url\":\"https://en.wikipedia.org/wiki/Hwasong_concentration_camp\"}]","more":"/learn/north-korea-prison-camps","county":"KP0214"}},{"type":"Feature","geometry":{"type":"Point","coordinates":[129.8776233,42.5844976]},"properties":{"id":"camp-4","name":"Camp 22, Hoeryong","province":"North Hamgyong Province","kind":"Political prison camp (kwanliso)","prisoners":null,"status":"Closed ~2012","note":"Once one of the largest camps. Closed around 2012. What happened to its prisoners is unknown.","sources":"[{\"name\":\"HRNK prison camp map\",\"url\":\"https://www.hrnk.org/\"},{\"name\":\"Wikipedia\",\"url\":\"https://en.wikipedia.org/wiki/Hoeryong_concentration_camp\"}]","more":"/learn/north-korea-prison-camps","county":"KP0203"}},{"type":"Feature","geometry":{"type":"Point","coordinates":[126.085968,39.5596476]},"properties":{"id":"camp-5","name":"Camp 18, Pukchang","province":"South Pyongan Province","kind":"Political prison camp (kwanliso)","prisoners":27000,"status":"Reported closed or merged","note":"Mining camp across the river from Camp 14. Reports suggest it was closed or merged in the 2000s, though parts may still be used.","sources":"[{\"name\":\"HRNK prison camp map\",\"url\":\"https://www.hrnk.org/\"},{\"name\":\"Wikipedia\",\"url\":\"https://en.wikipedia.org/wiki/Pukchang_concentration_camp\"}]","more":"/learn/north-korea-prison-camps","county":"KP0721"}},{"type":"Feature","geometry":{"type":"Point","coordinates":[127.2649381,39.3613796]},"properties":{"id":"camp-6","name":"Kyo-hwa-so No. 8, Yongdam","province":"Kangwon Province","kind":"Prison (kyohwaso)","prisoners":2000,"status":"Operating (per HRNK)","note":"Type of prisoners: Unknown Type of Labor: Unknown This location has not been confirmed by HRNK prisoner testimony. Both NKDB and KINU mention Yongdam as an unnumbered kyo-hwa-so located in Chonnae-gun, Kangwon Province. The 2011 NKDB volume, Prisoners in North Korea Today, lists a “Prison No. 8” located in the Seungho area of Pyongang. There is no further information about its current state of operation.","sources":"[{\"name\":\"HRNK prison camp map\",\"url\":\"https://www.hrnk.org/\"}]","more":"/learn/north-korea-prison-camps","county":"KP0417"}},{"type":"Feature","geometry":{"type":"Point","coordinates":[125.3218811,39.142294]},"properties":{"id":"camp-7","name":"Kyo-hwa-so No. 11, Chung-san","province":"South Pyongan Province","kind":"Prison (kyohwaso)","prisoners":null,"status":"Operating (per HRNK)","note":"Kyo-hwa-so No. 11, Chung-san is also transliterated as Chonsan, Jungsan, and Jeungsan.  500 Type of prisoners: Men, women, border crossers, political prisoners Type of Labor: Farming, construction, manufacturing Detailed analysis of Kyo-hwa-so No. 11, Chung-san can be found in this 2017 HRNK report: https://www.hrnk.org/uploads/pdfs/Hawk_The_Parallel_Gulag_Web.pdf","sources":"[{\"name\":\"HRNK prison camp map\",\"url\":\"https://www.hrnk.org/\"}]","more":"/learn/north-korea-prison-camps","county":"KP0708"}},{"type":"Feature","geometry":{"type":"Point","coordinates":[126.5677088,40.9542659]},"properties":{"id":"camp-8","name":"Kyo-hwa-so No. 7, Kanggye","province":"Chagang Province","kind":"Prison (kyohwaso)","prisoners":null,"status":"Operating (per HRNK)","note":"Kyo-hwa-so No. 7, Kanggye is also transliterated as Kangkye and Ganggye.  Type of prisoners: Unknown Type of Labor: Unknown This location has not been confirmed by HRNK prisoner testimony. It has been listed in NKDB and KINU reports. There is no further information about its current state of operation.","sources":"[{\"name\":\"HRNK prison camp map\",\"url\":\"https://www.hrnk.org/\"}]","more":"/learn/north-korea-prison-camps","county":"KP0501"}},{"type":"Feature","geometry":{"type":"Point","coordinates":[124.7295749,39.8775221]},"properties":{"id":"camp-9","name":"Kyo-hwa-so No. 2, Dongrim","province":"North Pyongan Province","kind":"Prison (kyohwaso)","prisoners":null,"status":"Operating (per HRNK)","note":"Type of prisoners: Unknown Type of Labor: Unknown This location has not been confirmed by HRNK prisoner testimony. It has been listed in NKDB reports in 2011 and 2016, as well as KINU reports in 2014 and 2016. There is no further information about its current state of operation. A second location associated with this camp known as Obong Workers' District is located at 39° 52’5.42”N 124° 44’59.35”E.","sources":"[{\"name\":\"HRNK prison camp map\",\"url\":\"https://www.hrnk.org/\"}]","more":"/learn/north-korea-prison-camps","county":"KP0609"}},{"type":"Feature","geometry":{"type":"Point","coordinates":[127.3643518,39.1572112]},"properties":{"id":"camp-10","name":"Kyo-hwa-so No. 88, Wonsan","province":"Kangwon Province","kind":"Prison (kyohwaso)","prisoners":null,"status":"Operating (per HRNK)","note":"Type of prisoners: Unknown Type of Labor: Unknown This location has not been confirmed by HRNK prisoner testimony. It has been previously listed in NKDB and KINU reports. There is no further information about its current state of operation. A second location associated with this camp is located in Chuksan-ri at 39° 11’57.43”N 127° 20’45.07”E","sources":"[{\"name\":\"HRNK prison camp map\",\"url\":\"https://www.hrnk.org/\"}]","more":"/learn/north-korea-prison-camps","county":"KP0401"}},{"type":"Feature","geometry":{"type":"Point","coordinates":[127.5631502,39.9576574]},"properties":{"id":"camp-11","name":"Kyo-hwa-so No. 9, Hamhung","province":"South Hamgyong Province","kind":"Prison (kyohwaso)","prisoners":null,"status":"Operating (per HRNK)","note":"Also transliterated as Hamheung, the 2011 NKDB report locates Kyo-hwa-so No. 9, Hamhung Men’s Prison at Hoeyang, Hoesang Area, Hamhung City, while Hamhung Women’s Prison is located at Songwon Village, which is also spelled as Sungwon, Hoesang Area, Hamhung City.  500 Type of prisoners: Men, women, political prisoners, forcibly repatriated women Type of Labor: Sewing, farming, gold mining A second location associated with this camp known as Hamhung Women's Prison is located in Sungwon-ri at 40° 3","sources":"[{\"name\":\"HRNK prison camp map\",\"url\":\"https://www.hrnk.org/\"}]","more":"/learn/north-korea-prison-camps","county":"KP0307"}},{"type":"Feature","geometry":{"type":"Point","coordinates":[125.795675,39.4359833333333]},"properties":{"id":"camp-12","name":"Sunchon Kyo-hwa-so","province":"South Pyongan Province","kind":"Prison (kyohwaso)","prisoners":400,"status":"Operating (per HRNK)","note":"Sunchon Kyo-hwa-so is sometimes known as Sukchon Kyo-hwa-so.  Type of prisoners: Unknown Type of Labor: Gold mining This location has not been confirmed by HRNK prisoner testimony. It has been listed in NKDB and KINU reports. There is no further information about its current state of operation.","sources":"[{\"name\":\"HRNK prison camp map\",\"url\":\"https://www.hrnk.org/\"}]","more":"/learn/north-korea-prison-camps","county":"KP0715"}},{"type":"Feature","geometry":{"type":"Point","coordinates":[126.057844444444,39.0014583333333]},"properties":{"id":"camp-13","name":"Kyo-hwa-so No. 8, Sungho-ri","province":"Pyongyang","kind":"Prison (kyohwaso)","prisoners":2000,"status":"Operating (per HRNK)","note":"Type of prisoners: Unknown Type of Labor: Coal mining This location has not been confirmed by HRNK prisoner testimony. It has been previously listed in NKDB and KINU reports. There is no further information about its current state of operation. Detailed analysis of Kyo-hwa-so No. 8, Sungho-ri can be found in this 2019 HRNK report: https://www.hrnk.org/uploads/pdfs/Bermudez_Pokchongni_FINALFINAL_Web.pdf","sources":"[{\"name\":\"HRNK prison camp map\",\"url\":\"https://www.hrnk.org/\"}]","more":"/learn/north-korea-prison-camps","county":"KP1023"}},{"type":"Feature","geometry":{"type":"Point","coordinates":[128.512002777778,40.1644083333333]},"properties":{"id":"camp-14","name":"Facility at I-gol","province":"South Hamgyong Province","kind":"Political prison camp (kwanliso)","prisoners":null,"status":"Operating (per HRNK)","note":"Type of prisoners: Unknown Type of Labor: Unknown This location has not been confirmed by HRNK prisoner testimony or listed by NGO reports. However, the satellite images share the appearance of other well documented kyo-hwa-so. There is no further information about its current state of operation.","sources":"[{\"name\":\"HRNK prison camp map\",\"url\":\"https://www.hrnk.org/\"}]","more":"/learn/north-korea-prison-camps","county":"KP0321"}},{"type":"Feature","geometry":{"type":"Point","coordinates":[129.580680555556,40.8492361111111]},"properties":{"id":"camp-15","name":"Facility at Udan","province":"North Hamgyong Province","kind":"Political prison camp (kwanliso)","prisoners":null,"status":"Operating (per HRNK)","note":"Type of prisoners: Unknown Type of Labor: Unknown This location has not been confirmed by HRNK prisoner testimony or listed by NGO reports. However, the satellite images share the appearance of other well documented kyo-hwa-so. There is no further information about its current state of operation.","sources":"[{\"name\":\"HRNK prison camp map\",\"url\":\"https://www.hrnk.org/\"}]","more":"/learn/north-korea-prison-camps","county":"KP0212"}},{"type":"Feature","geometry":{"type":"Point","coordinates":[125.999343,39.631412]},"properties":{"id":"camp-16","name":"Ch’oma-bong Restricted Area","province":"South Pyongan Province","kind":"Political prison camp (kwanliso)","prisoners":null,"status":"Operating (per HRNK)","note":"Type of prisoners: Unknown Type of Labor: Mining, agricultural production Detailed analysis of Ch’oma-bong Restricted Area can be found in this 2016 HRNK report: https://www.hrnk.org/uploads/pdfs/ASA_HRNK_Chmbg_201603_FINAL.pdf","sources":"[{\"name\":\"HRNK prison camp map\",\"url\":\"https://www.hrnk.org/\"}]","more":"/learn/north-korea-prison-camps","county":"KP0704"}},{"type":"Feature","geometry":{"type":"Point","coordinates":[124.409625,40.0619444444444]},"properties":{"id":"camp-17","name":"Kyo-hwa-so No. 3, Sinuiju","province":"North Pyongan Province","kind":"Prison (kyohwaso)","prisoners":2500,"status":"Operating (per HRNK)","note":"Type of prisoners: Men, criminal offenders, political prisoners, other (uknown) Type of Labor: Rock and gold mining, prison uniform manufacturing This location is not yet confirmed. It has been listed in NKDB and KINU reports. There is no further information about its current state of operation.","sources":"[{\"name\":\"HRNK prison camp map\",\"url\":\"https://www.hrnk.org/\"}]","more":"/learn/north-korea-prison-camps","county":"KP0601"}},{"type":"Feature","geometry":{"type":"Point","coordinates":[125.9230614,39.7083752]},"properties":{"id":"camp-18","name":"Kyohwaso No. 1, Kaechon","province":"South Pyongan Province","kind":"Prison (kyohwaso)","prisoners":4000,"status":"Operating","note":"Re-education prison for people convicted of crimes. Survivors describe forced labor and high death rates.","sources":"[{\"name\":\"HRNK prison camp map\",\"url\":\"https://www.hrnk.org/\"},{\"name\":\"Wikipedia\",\"url\":\"https://en.wikipedia.org/wiki/Kaechon_prison_camp\"}]","more":"/learn/north-korea-prison-camps","county":"KP0704"}},{"type":"Feature","geometry":{"type":"Point","coordinates":[126.1529938,39.0089107]},"properties":{"id":"camp-19","name":"Kyo-hwa-so No. 4, Kangdong","province":"Pyongyang City","kind":"Prison (kyohwaso)","prisoners":1000,"status":"Operating (per HRNK)","note":"Also transliterated as Gangdong, Kyo-hwa-so No. 4, Kangdong is located in Chael-kol on the eastern outskirts of Pyongyang close to South Pyongan Province.  to 4,000 Type of prisoners: Men, civilian and military offenders, political prisoners Type of Labor: Limestone and cement production Detailed analysis of Kyo-hwa-so No. 4, Kangdong can be found in this 2019 HRNK report: https://www.hrnk.org/uploads/pdfs/Bermudez_Kangdong_FINALFINAL.pdf","sources":"[{\"name\":\"HRNK prison camp map\",\"url\":\"https://www.hrnk.org/\"}]","more":"/learn/north-korea-prison-camps","county":"KP1023"}},{"type":"Feature","geometry":{"type":"Point","coordinates":[129.7555538,42.2086005]},"properties":{"id":"camp-20","name":"Kyohwaso No. 12, Chongori","province":"North Hamgyong Province","kind":"Prison (kyohwaso)","prisoners":2300,"status":"Operating","note":"Holds many people forcibly sent back from China after escaping. Testimony describes starvation and abuse, especially of women.","sources":"[{\"name\":\"HRNK prison camp map\",\"url\":\"https://www.hrnk.org/\"},{\"name\":\"Wikipedia\",\"url\":\"https://en.wikipedia.org/wiki/Chongori_concentration_camp\"}]","more":"/learn/how-north-koreans-escape","county":"KP0219"}},{"type":"Feature","geometry":{"type":"Point","coordinates":[125.774052777778,38.5126138888889]},"properties":{"id":"camp-21","name":"Kyo-hwa-so No. 6, Sariwon","province":"North Hwanghae Province","kind":"Prison (kyohwaso)","prisoners":3000,"status":"Operating (per HRNK)","note":"to 4,000 Type of prisoners: Men, political prisoners Type of Labor: Clothing and Shoe factory, farming, \"model detention facility\" Kyo-hwa-so No. 6, Sariwon was one of the earliest North Korean prison camps to become widely known about outside of North Korea because of the involvement of Amnesty International in the release of Ali Lameda and Jacques Sedillot. They were members in good standing in the Venezuelan and French, respectively, communist parties. In 1967, both were recruited to Pyongyan","sources":"[{\"name\":\"HRNK prison camp map\",\"url\":\"https://www.hrnk.org/\"}]","more":"/learn/north-korea-prison-camps","county":"KP0807"}},{"type":"Feature","geometry":{"type":"Point","coordinates":[127.523594444444,40.0433]},"properties":{"id":"camp-22","name":"Kyo-hwa-so No. 22, Oro","province":"South Hamgyong Province","kind":"Prison (kyohwaso)","prisoners":1100,"status":"Reported closed","note":"It is believed that Kyo-hwa-so No. 22, Oro was closed around 2008.  Type of prisoners: Men, women, political prisoners, short term prisoners Type of Labor: Construction This location is not yet confirmed. It has been listed in NKDB and KINU reports as well as identified in prisoner testimony. There is no further information about its current state of operation. A second location associated with this camp is located in Pungho-ri at 40° 1’19.71”N 127° 25’55.91”E. A third location associated with t","sources":"[{\"name\":\"HRNK prison camp map\",\"url\":\"https://www.hrnk.org/\"}]","more":"/learn/north-korea-prison-camps","county":"KP0311"}},{"type":"Feature","geometry":{"type":"Point","coordinates":[128.899183333333,40.4376]},"properties":{"id":"camp-23","name":"Kyo-hwa-so No. 77, Danchon","province":"South Hamgyong Province","kind":"Prison (kyohwaso)","prisoners":null,"status":"Reported closed","note":"It is believed that Kyo-hwa-so No. 77, Danchon was closed around 1997. However, the locations identified here appear to be in operation.  Type of prisoners: Men, political prisoners, genuine criminal offenders, border crossers Type of Labor: Gold mining This location is not yet confirmed. It has been listed in NKDB reports as well as identified in prisoner testimony. There is no further information about its current state of operation. A second location associated with this camp is located in Sa","sources":"[{\"name\":\"HRNK prison camp map\",\"url\":\"https://www.hrnk.org/\"}]","more":"/learn/north-korea-prison-camps","county":"KP0302"}}]}