{"type":"FeatureCollection","features":[{"type":"Feature","geometry":{"type":"Point","coordinates":[130.23386666666664,42.793755555555556]},"properties":{"id":"cn-0","name":"Hunchun Public Security Bureau detention centre, Hunchun City, Jilin Province, China","incidents":9,"sources":"[{\"name\":\"NKDB Visual Atlas\",\"url\":\"https://www.visualatlas.org/en/forced-repatriation\"}]"}},{"type":"Feature","geometry":{"type":"Point","coordinates":[128.176675,41.41774722222222]},"properties":{"id":"cn-1","name":"Changbai Public Security Bureau detention centre, Changbai County, Jilin Province, China","incidents":22,"sources":"[{\"name\":\"NKDB Visual Atlas\",\"url\":\"https://www.visualatlas.org/en/forced-repatriation\"}]"}},{"type":"Feature","geometry":{"type":"Point","coordinates":[129.8401881784833,42.984308993829586]},"properties":{"id":"cn-2","name":"Tumen Public Security Bureau detention centre, Tumen City, Jilin Province, China","incidents":124,"sources":"[{\"name\":\"NKDB Visual Atlas\",\"url\":\"https://www.visualatlas.org/en/forced-repatriation\"}]"}},{"type":"Feature","geometry":{"type":"Point","coordinates":[127.26442222222222,41.50859444444445]},"properties":{"id":"cn-3","name":"County MPS, Kimhyongjik County (Huchang County), Yanggang Province","incidents":1,"sources":"[{\"name\":\"NKDB Visual Atlas\",\"url\":\"https://www.visualatlas.org/en/forced-repatriation\"}]"}},{"type":"Feature","geometry":{"type":"Point","coordinates":[128.16453611111112,41.395894444444444]},"properties":{"id":"cn-4","name":"MPS, Hyesan City, Yanggang Province","incidents":9,"sources":"[{\"name\":\"NKDB Visual Atlas\",\"url\":\"https://www.visualatlas.org/en/forced-repatriation\"}]"}},{"type":"Feature","geometry":{"type":"Point","coordinates":[127.26765555555555,41.50716388888889]},"properties":{"id":"cn-5","name":"Labor Training Camp, Kimhyongjik County (Huchang County), Yanggang Province","incidents":1,"sources":"[{\"name\":\"NKDB Visual Atlas\",\"url\":\"https://www.visualatlas.org/en/forced-repatriation\"}]"}},{"type":"Feature","geometry":{"type":"Point","coordinates":[128.16452777777778,41.39588888888889]},"properties":{"id":"cn-6","name":"City MPS, Hyesan City, Yanggang Province","incidents":6,"sources":"[{\"name\":\"NKDB Visual Atlas\",\"url\":\"https://www.visualatlas.org/en/forced-repatriation\"}]"}},{"type":"Feature","geometry":{"type":"Point","coordinates":[130.23386944444442,42.793749999999996]},"properties":{"id":"cn-7","name":"Public Security Bureau detention centre, Jian City, Jilin Province, China","incidents":1,"sources":"[{\"name\":\"NKDB Visual Atlas\",\"url\":\"https://www.visualatlas.org/en/forced-repatriation\"}]"}},{"type":"Feature","geometry":{"type":"Point","coordinates":[127.26805833333333,41.50687777777778]},"properties":{"id":"cn-8","name":"County MSS, Kimhyongjik County, Yanggang Province","incidents":4,"sources":"[{\"name\":\"NKDB Visual Atlas\",\"url\":\"https://www.visualatlas.org/en/forced-repatriation\"}]"}},{"type":"Feature","geometry":{"type":"Point","coordinates":[128.16453333333334,41.395897222222224]},"properties":{"id":"cn-9","name":"City MPS, Hyesan City, Yanggang Province","incidents":1,"sources":"[{\"name\":\"NKDB Visual Atlas\",\"url\":\"https://www.visualatlas.org/en/forced-repatriation\"}]"}},{"type":"Feature","geometry":{"type":"Point","coordinates":[127.89305833333334,38.954236111111115]},"properties":{"id":"cn-10","name":"Labor Training Camp, Tongchon County, Kangwon Province","incidents":1,"sources":"[{\"name\":\"NKDB Visual Atlas\",\"url\":\"https://www.visualatlas.org/en/forced-repatriation\"}]"}},{"type":"Feature","geometry":{"type":"Point","coordinates":[129.73323611111113,42.463097222222224]},"properties":{"id":"cn-11","name":"Longjing Public Security Bureau detention centre, Longjing City, Jilin Province, China","incidents":16,"sources":"[{\"name\":\"NKDB Visual Atlas\",\"url\":\"https://www.visualatlas.org/en/forced-repatriation\"}]"}},{"type":"Feature","geometry":{"type":"Point","coordinates":[129.83081944444444,41.77913611111111]},"properties":{"id":"cn-12","name":"Sinam District MPS, Chongjin City, North Hamgyong Province","incidents":2,"sources":"[{\"name\":\"NKDB Visual Atlas\",\"url\":\"https://www.visualatlas.org/en/forced-repatriation\"}]"}}]}