{"type":"FeatureCollection","features":[{"type":"Feature","geometry":{"type":"Point","coordinates":[130.1978655,42.8578288]},"properties":{"id":"det-0","name":"Kyongwon (Saebyul) County MPS Waiting Room","type":"Detention / interrogation","agency":"Ministry of People's Security","province":"North Hamgyong","status":"Operative","incidents":0,"sources":"[{\"name\":\"Korea Future (NKPD)\",\"url\":\"https://nkpd.io/en/entity/4v5lmb1s91s\"}]","county":"KP0221"}},{"type":"Feature","geometry":{"type":"Point","coordinates":[128.65351,40.32297]},"properties":{"id":"det-1","name":"Riwon County MPS Detention Centre","type":"Detention / interrogation","agency":"Ministry of People's Security","province":"South Hamgyong","status":"Operative","incidents":0,"sources":"[{\"name\":\"Korea Future (NKPD)\",\"url\":\"https://nkpd.io/en/entity/igfg643l8k\"}]","county":"KP0323"}},{"type":"Feature","geometry":{"type":"Point","coordinates":[129.98643,42.959342]},"properties":{"id":"det-2","name":"Onsong County MPS Waiting Room","type":"Detention / interrogation","agency":"Ministry of People's Security","province":"North Hamgyong","status":"Operative","incidents":0,"sources":"[{\"name\":\"Korea Future (NKPD)\",\"url\":\"https://nkpd.io/en/entity/jbovxi9342\"}]","county":"KP0220"}},{"type":"Feature","geometry":{"type":"Point","coordinates":[128.2496182,41.4264292]},"properties":{"id":"det-3","name":"Ryanggang Provincial Labour Training Camp","type":"Labour training camp","agency":"People's Committee of North Korea","province":"Ryanggang","status":"Closed","incidents":0,"sources":"[{\"name\":\"Korea Future (NKPD)\",\"url\":\"https://nkpd.io/en/entity/lfy4krc95i\"}]","county":"KP0101"}},{"type":"Feature","geometry":{"type":"Point","coordinates":[129.2139126,42.2309647]},"properties":{"id":"det-4","name":"Musan County MSS Office","type":"Security office","agency":"Ministry of State Security","province":"North Hamgyong","status":null,"incidents":52,"sources":"[{\"name\":\"Korea Future (NKPD)\",\"url\":\"https://nkpd.io/en/entity/4jnkl5koul9\"},{\"name\":\"NKDB Visual Atlas\",\"url\":\"https://www.visualatlas.org/en/density\"},{\"name\":\"NKDB Visual Atlas\",\"url\":\"https://www.visualatlas.org/en/density\"},{\"name\":\"NKDB Visual Atlas\",\"url\":\"https://www.visualatlas.org/en/density\"},{\"name\":\"NKDB Visual Atlas\",\"url\":\"https://www.visualatlas.org/en/density\"},{\"name\":\"NKDB Visual Atlas\",\"url\":\"https://www.visualatlas.org/en/density\"}]","county":"KP0218"}},{"type":"Feature","geometry":{"type":"Point","coordinates":[128.286912,41.095693]},"properties":{"id":"det-5","name":"Kapsan County MSS Office","type":"Security office","agency":"Ministry of State Security","province":"Ryanggang","status":"Operative","incidents":1,"sources":"[{\"name\":\"Korea Future (NKPD)\",\"url\":\"https://nkpd.io/en/entity/9v8ppnyo7y\"},{\"name\":\"NKDB Visual Atlas\",\"url\":\"https://www.visualatlas.org/en/density\"}]","county":"KP0111"}},{"type":"Feature","geometry":{"type":"Point","coordinates":[128.17618,41.39718]},"properties":{"id":"det-6","name":"Hyesan City MSS Office","type":"Security office","agency":"Ministry of State Security","province":"Ryanggang","status":null,"incidents":121,"sources":"[{\"name\":\"Korea Future (NKPD)\",\"url\":\"https://nkpd.io/en/entity/rq8vnpu8rc8\"},{\"name\":\"NKDB Visual Atlas\",\"url\":\"https://www.visualatlas.org/en/density\"},{\"name\":\"NKDB Visual Atlas\",\"url\":\"https://www.visualatlas.org/en/density\"},{\"name\":\"NKDB Visual Atlas\",\"url\":\"https://www.visualatlas.org/en/density\"},{\"name\":\"NKDB Visual Atlas\",\"url\":\"https://www.visualatlas.org/en/density\"},{\"name\":\"NKDB Visual Atlas\",\"url\":\"https://www.visualatlas.org/en/density\"},{\"name\":\"NKDB Visual Atlas\",\"url\":\"https://www.visualatlas.org/en/density\"},{\"name\":\"NKDB Visual Atlas\",\"url\":\"https://www.visualatlas.org/en/density\"}]","county":"KP0102"}},{"type":"Feature","geometry":{"type":"Point","coordinates":[127.264132,41.508581]},"properties":{"id":"det-7","name":"Kimhyongjik (Huchang) County MPS Office","type":"Security office","agency":"Ministry of People's Security","province":"Ryanggang","status":"Operative","incidents":0,"sources":"[{\"name\":\"Korea Future (NKPD)\",\"url\":\"https://nkpd.io/en/entity/yfeuat4a5r\"}]","county":null}},{"type":"Feature","geometry":{"type":"Point","coordinates":[129.008244,41.907917]},"properties":{"id":"det-8","name":"Yonsa County MPS Detention Centre","type":"Detention / interrogation","agency":"Ministry of People's Security","province":"North Hamgyong","status":null,"incidents":0,"sources":"[{\"name\":\"Korea Future (NKPD)\",\"url\":\"https://nkpd.io/en/entity/lu6fpjq6i3n\"}]","county":"KP0217"}},{"type":"Feature","geometry":{"type":"Point","coordinates":[128.181222,41.403884]},"properties":{"id":"det-9","name":"Ryanggang Provincial MSS Holding Centre","type":"Holding centre","agency":"Ministry of State Security","province":"Ryanggang","status":null,"incidents":12,"sources":"[{\"name\":\"Korea Future (NKPD)\",\"url\":\"https://nkpd.io/en/entity/7vi9d419hes\"},{\"name\":\"NKDB Visual Atlas\",\"url\":\"https://www.visualatlas.org/en/density\"},{\"name\":\"NKDB Visual Atlas\",\"url\":\"https://www.visualatlas.org/en/density\"}]","county":"KP0102"}},{"type":"Feature","geometry":{"type":"Point","coordinates":[128.158201,41.38711]},"properties":{"id":"det-10","name":"Ryanggang Provincial MPS Holding Centre","type":"Holding centre","agency":"Ministry of People's Security","province":"Ryanggang","status":"Operative","incidents":36,"sources":"[{\"name\":\"Korea Future (NKPD)\",\"url\":\"https://nkpd.io/en/entity/czep2m08f7\"},{\"name\":\"NKDB Visual Atlas\",\"url\":\"https://www.visualatlas.org/en/density\"},{\"name\":\"NKDB Visual Atlas\",\"url\":\"https://www.visualatlas.org/en/density\"},{\"name\":\"NKDB Visual Atlas\",\"url\":\"https://www.visualatlas.org/en/density\"},{\"name\":\"NKDB Visual Atlas\",\"url\":\"https://www.visualatlas.org/en/density\"},{\"name\":\"NKDB Visual Atlas\",\"url\":\"https://www.visualatlas.org/en/density\"}]","county":"KP0102"}},{"type":"Feature","geometry":{"type":"Point","coordinates":[129.80911,41.816808]},"properties":{"id":"det-11","name":"North Hamgyong Provincial MSS Closed Detention Facility","type":"Detention / interrogation","agency":"Ministry of State Security","province":"North Hamgyong","status":"Operative","incidents":0,"sources":"[{\"name\":\"Korea Future (NKPD)\",\"url\":\"https://nkpd.io/en/entity/ky04131u9i\"}]","county":"KP0205"}},{"type":"Feature","geometry":{"type":"Point","coordinates":[128.2320336,41.4287248]},"properties":{"id":"det-12","name":"Hyesan City Sonbong-dong MSS Office","type":"Security office","agency":"Ministry of State Security","province":"Ryanggang","status":null,"incidents":1,"sources":"[{\"name\":\"Korea Future (NKPD)\",\"url\":\"https://nkpd.io/en/entity/h2lbqb3u7y6\"},{\"name\":\"NKDB Visual Atlas\",\"url\":\"https://www.visualatlas.org/en/density\"}]","county":"KP0101"}},{"type":"Feature","geometry":{"type":"Point","coordinates":[128.17438837501535,41.40575640893876]},"properties":{"id":"det-13","name":"Hyesan City Border Security Command Base","type":"Other facility","agency":"Other North Korean government organisation","province":"Ryanggang","status":null,"incidents":0,"sources":"[{\"name\":\"Korea Future (NKPD)\",\"url\":\"https://nkpd.io/en/entity/vgumx0lv9mk\"}]","county":null}},{"type":"Feature","geometry":{"type":"Point","coordinates":[128.173179,41.381868]},"properties":{"id":"det-14","name":"Hyesan City Labour Training Centre","type":"Labour training camp","agency":"People's Committee of North Korea","province":"Ryanggang","status":null,"incidents":21,"sources":"[{\"name\":\"Korea Future (NKPD)\",\"url\":\"https://nkpd.io/en/entity/rbqpowjan6p\"},{\"name\":\"NKDB Visual Atlas\",\"url\":\"https://www.visualatlas.org/en/density\"}]","county":"KP0102"}},{"type":"Feature","geometry":{"type":"Point","coordinates":[129.6357711,41.7377004]},"properties":{"id":"det-15","name":"Chongjin City No.2 Economy Labour Training Centre","type":"Labour training camp","agency":"People's Committee of North Korea","province":"North Hamgyong","status":null,"incidents":0,"sources":"[{\"name\":\"Korea Future (NKPD)\",\"url\":\"https://nkpd.io/en/entity/vzxzp9yyr4\"}]","county":"KP0216"}},{"type":"Feature","geometry":{"type":"Point","coordinates":[128.175675,41.397819]},"properties":{"id":"det-16","name":"Ryanggang Provincial Prosecutor's Office","type":"Security office","agency":"Other North Korean government organisation","province":"Ryanggang","status":null,"incidents":0,"sources":"[{\"name\":\"Korea Future (NKPD)\",\"url\":\"https://nkpd.io/en/entity/77e4wqaqa88\"}]","county":"KP0102"}},{"type":"Feature","geometry":{"type":"Point","coordinates":[128.173992,41.401724]},"properties":{"id":"det-17","name":"Hyesan City Prosecutor's Office","type":"Security office","agency":"Other North Korean government organisation","province":"Ryanggang","status":"Operative","incidents":0,"sources":"[{\"name\":\"Korea Future (NKPD)\",\"url\":\"https://nkpd.io/en/entity/kj5wsohg7lc\"}]","county":"KP0102"}},{"type":"Feature","geometry":{"type":"Point","coordinates":[128.1650354,41.3962793]},"properties":{"id":"det-18","name":"Hyesan City MPS Detention Centre","type":"Detention / interrogation","agency":"Ministry of People's Security","province":"Ryanggang","status":null,"incidents":0,"sources":"[{\"name\":\"Korea Future (NKPD)\",\"url\":\"https://nkpd.io/en/entity/w4w0a3cloc\"}]","county":null}},{"type":"Feature","geometry":{"type":"Point","coordinates":[128.8141457,41.5636746]},"properties":{"id":"det-19","name":"Paekam County MPS Waiting Room","type":"Detention / interrogation","agency":"Ministry of People's Security","province":"Ryanggang","status":"Operative","incidents":0,"sources":"[{\"name\":\"Korea Future (NKPD)\",\"url\":\"https://nkpd.io/en/entity/nxlh67axp9c\"}]","county":"KP0110"}},{"type":"Feature","geometry":{"type":"Point","coordinates":[127.459152,40.02201]},"properties":{"id":"det-20","name":"Yonggwang County Women's Re-education Camp","type":"Prison (kyohwaso)","agency":"Ministry of People's Security","province":"South Hamgyong","status":null,"incidents":0,"sources":"[{\"name\":\"Korea Future (NKPD)\",\"url\":\"https://nkpd.io/en/entity/q95jmid9rb\"}]","county":"KP0311"}},{"type":"Feature","geometry":{"type":"Point","coordinates":[129.7955305,41.8065299]},"properties":{"id":"det-21","name":"Chongjin City MPS Waiting Room","type":"Detention / interrogation","agency":"Ministry of People's Security","province":"North Hamgyong","status":null,"incidents":0,"sources":"[{\"name\":\"Korea Future (NKPD)\",\"url\":\"https://nkpd.io/en/entity/lwgqorfanzh\"}]","county":"KP0205"}},{"type":"Feature","geometry":{"type":"Point","coordinates":[129.8089932,41.7801412]},"properties":{"id":"det-22","name":"Chongjin City Sinam District Labour Training Centre","type":"Labour training camp","agency":"People's Committee of North Korea","province":"North Hamgyong","status":null,"incidents":0,"sources":"[{\"name\":\"Korea Future (NKPD)\",\"url\":\"https://nkpd.io/en/entity/fa1jypijqbj\"}]","county":"KP0205"}},{"type":"Feature","geometry":{"type":"Point","coordinates":[128.176111,41.397222]},"properties":{"id":"det-23","name":"Hyesan City MSS Waiting Room","type":"Detention / interrogation","agency":"Ministry of State Security","province":"Ryanggang","status":null,"incidents":1,"sources":"[{\"name\":\"Korea Future (NKPD)\",\"url\":\"https://nkpd.io/en/entity/tbn89mz5vx\"},{\"name\":\"NKDB Visual Atlas\",\"url\":\"https://www.visualatlas.org/en/density\"}]","county":"KP0102"}},{"type":"Feature","geometry":{"type":"Point","coordinates":[127.362441,39.158481]},"properties":{"id":"det-24","name":"Tokwon National Labour Training Camp","type":"Labour training camp","agency":"Ministry of People's Security","province":"Kangwon","status":"Operative","incidents":0,"sources":"[{\"name\":\"Korea Future (NKPD)\",\"url\":\"https://nkpd.io/en/entity/kskcvmv9ghs\"}]","county":"KP0401"}},{"type":"Feature","geometry":{"type":"Point","coordinates":[129.767314,41.814819]},"properties":{"id":"det-25","name":"North Hamgyong Provincial MPS Holding Centre (Traveller)","type":"Holding centre","agency":"Ministry of People's Security","province":"North Hamgyong","status":"Operative","incidents":0,"sources":"[{\"name\":\"Korea Future (NKPD)\",\"url\":\"https://nkpd.io/en/entity/dvu8rfizpm\"}]","county":"KP0205"}},{"type":"Feature","geometry":{"type":"Point","coordinates":[128.185442,41.395218]},"properties":{"id":"det-26","name":"Ryanggang Provincial MSS Detention Centre","type":"Detention / interrogation","agency":"Ministry of State Security","province":"Ryanggang","status":null,"incidents":0,"sources":"[{\"name\":\"Korea Future (NKPD)\",\"url\":\"https://nkpd.io/en/entity/q7wig0pfj8p\"}]","county":"KP0101"}},{"type":"Feature","geometry":{"type":"Point","coordinates":[129.213977,42.231025]},"properties":{"id":"det-27","name":"Musan County MSS Detention Centre","type":"Detention / interrogation","agency":"Ministry of State Security","province":"North Hamgyong","status":null,"incidents":0,"sources":"[{\"name\":\"Korea Future (NKPD)\",\"url\":\"https://nkpd.io/en/entity/k7oti0bv7ia\"}]","county":"KP0218"}},{"type":"Feature","geometry":{"type":"Point","coordinates":[127.6087771,39.9806103]},"properties":{"id":"det-28","name":"Hamhung Re-education Camp Songwon-ri Branch","type":"Prison (kyohwaso)","agency":"Ministry of People's Security","province":"South Hamgyong","status":null,"incidents":0,"sources":"[{\"name\":\"Korea Future (NKPD)\",\"url\":\"https://nkpd.io/en/entity/u7jbisgx16\"}]","county":"KP0307"}},{"type":"Feature","geometry":{"type":"Point","coordinates":[128.185681,41.394861]},"properties":{"id":"det-29","name":"North Hamgyong Provincial MSS Detention Centre","type":"Detention / interrogation","agency":"Ministry of State Security","province":"North Hamgyong","status":"Operative","incidents":0,"sources":"[{\"name\":\"Korea Future (NKPD)\",\"url\":\"https://nkpd.io/en/entity/ufk31lmq2r8\"}]","county":"KP0101"}},{"type":"Feature","geometry":{"type":"Point","coordinates":[129.2179741,42.227567]},"properties":{"id":"det-30","name":"Musan County Hospital","type":"Other facility","agency":"People's Committee of North Korea","province":"North Hamgyong","status":null,"incidents":26,"sources":"[{\"name\":\"Korea Future (NKPD)\",\"url\":\"https://nkpd.io/en/entity/deh0lebdkom\"},{\"name\":\"NKDB Visual Atlas\",\"url\":\"https://www.visualatlas.org/en/density\"}]","county":"KP0218"}},{"type":"Feature","geometry":{"type":"Point","coordinates":[129.7898144,41.7949972]},"properties":{"id":"det-31","name":"North Hamgyong Provincial MSS Counterespionage Bureau Detention Centre","type":"Detention / interrogation","agency":"Ministry of State Security","province":"North Hamgyong","status":null,"incidents":1,"sources":"[{\"name\":\"Korea Future (NKPD)\",\"url\":\"https://nkpd.io/en/entity/832yy5wn2sh\"},{\"name\":\"NKDB Visual Atlas\",\"url\":\"https://www.visualatlas.org/en/density\"}]","county":"KP0205"}},{"type":"Feature","geometry":{"type":"Point","coordinates":[129.2055504,42.2282525]},"properties":{"id":"det-32","name":"Musan County Sambong-gu MPS Sub-municipal Station Waiting Room","type":"Detention / interrogation","agency":"Ministry of People's Security","province":"North Hamgyong","status":null,"incidents":0,"sources":"[{\"name\":\"Korea Future (NKPD)\",\"url\":\"https://nkpd.io/en/entity/3xma406ww5n\"}]","county":"KP0218"}},{"type":"Feature","geometry":{"type":"Point","coordinates":[129.6948427,41.7191688]},"properties":{"id":"det-33","name":"Chongjin City Ranam District Kkotjebi Relief Station","type":"Other facility","agency":"Unknown","province":"North Hamgyong","status":null,"incidents":0,"sources":"[{\"name\":\"Korea Future (NKPD)\",\"url\":\"https://nkpd.io/en/entity/jz20xwpxr7\"}]","county":"KP0205"}},{"type":"Feature","geometry":{"type":"Point","coordinates":[129.236123,42.224742]},"properties":{"id":"det-34","name":"Pochon County MPS Detention Centre","type":"Detention / interrogation","agency":"Ministry of People's Security","province":"Ryanggang","status":null,"incidents":0,"sources":"[{\"name\":\"Korea Future (NKPD)\",\"url\":\"https://nkpd.io/en/entity/s4hxcgrw6c\"}]","county":"KP0218"}},{"type":"Feature","geometry":{"type":"Point","coordinates":[129.4037892,41.0789781]},"properties":{"id":"det-35","name":"Myongchon County Labour Training Centre","type":"Labour training camp","agency":"People's Committee of North Korea","province":"North Hamgyong","status":null,"incidents":0,"sources":"[{\"name\":\"Korea Future (NKPD)\",\"url\":\"https://nkpd.io/en/entity/j7exuofnw1\"}]","county":"KP0214"}},{"type":"Feature","geometry":{"type":"Point","coordinates":[128.168808,41.380152]},"properties":{"id":"det-36","name":"Hyesan City Mine MPS Detention Centre","type":"Detention / interrogation","agency":"Ministry of People's Security","province":"Ryanggang","status":null,"incidents":0,"sources":"[{\"name\":\"Korea Future (NKPD)\",\"url\":\"https://nkpd.io/en/entity/6raqsozv5ps\"}]","county":"KP0102"}},{"type":"Feature","geometry":{"type":"Point","coordinates":[129.4319131,41.0706035]},"properties":{"id":"det-37","name":"Myongchon County MPS Detention Centre","type":"Detention / interrogation","agency":"Ministry of People's Security","province":"North Hamgyong","status":null,"incidents":0,"sources":"[{\"name\":\"Korea Future (NKPD)\",\"url\":\"https://nkpd.io/en/entity/f98lcdew7zr\"}]","county":"KP0214"}},{"type":"Feature","geometry":{"type":"Point","coordinates":[129.763886,42.430423]},"properties":{"id":"det-38","name":"Hoeryong City MPS Waiting Room","type":"Detention / interrogation","agency":"Ministry of People's Security","province":"North Hamgyong","status":"Operative","incidents":0,"sources":"[{\"name\":\"Korea Future (NKPD)\",\"url\":\"https://nkpd.io/en/entity/a53beg9b78j\"}]","county":"KP0203"}},{"type":"Feature","geometry":{"type":"Point","coordinates":[128.30235,41.520907]},"properties":{"id":"det-39","name":"Pochon County Labour Training Centre","type":"Labour training camp","agency":"People's Committee of North Korea","province":"Ryanggang","status":null,"incidents":2,"sources":"[{\"name\":\"Korea Future (NKPD)\",\"url\":\"https://nkpd.io/en/entity/jdej5lvwark\"},{\"name\":\"NKDB Visual Atlas\",\"url\":\"https://www.visualatlas.org/en/density\"}]","county":"KP0106"}},{"type":"Feature","geometry":{"type":"Point","coordinates":[125.322306,39.142397]},"properties":{"id":"det-40","name":"Chungsan Labour Training Camp","type":"Labour training camp","agency":"Ministry of People's Security","province":"South Pyongan","status":null,"incidents":0,"sources":"[{\"name\":\"Korea Future (NKPD)\",\"url\":\"https://nkpd.io/en/entity/33j0ll6fijp\"}]","county":"KP0708"}},{"type":"Feature","geometry":{"type":"Point","coordinates":[129.3202779,40.9530474]},"properties":{"id":"det-41","name":"Kilju County MSS Detention Centre","type":"Detention / interrogation","agency":"Ministry of State Security","province":"North Hamgyong","status":"Operative","incidents":0,"sources":"[{\"name\":\"Korea Future (NKPD)\",\"url\":\"https://nkpd.io/en/entity/gkjjxyyay4f\"}]","county":"KP0211"}},{"type":"Feature","geometry":{"type":"Point","coordinates":[127.267626,41.507213]},"properties":{"id":"det-42","name":"Kimhyongjik (Huchang) County Labour Training Centre","type":"Labour training camp","agency":"People's Committee of North Korea","province":"Ryanggang","status":"Operative","incidents":0,"sources":"[{\"name\":\"Korea Future (NKPD)\",\"url\":\"https://nkpd.io/en/entity/fewji70wwl8\"}]","county":null}},{"type":"Feature","geometry":{"type":"Point","coordinates":[128.9080117,40.4591966]},"properties":{"id":"det-43","name":"Tanchon City MPS Detention Centre","type":"Detention / interrogation","agency":"Ministry of People's Security","province":"South Hamgyong","status":"Operative","incidents":0,"sources":"[{\"name\":\"Korea Future (NKPD)\",\"url\":\"https://nkpd.io/en/entity/vk2ivnqplwl\"}]","county":"KP0302"}},{"type":"Feature","geometry":{"type":"Point","coordinates":[129.807382,41.785039]},"properties":{"id":"det-44","name":"Chongjin City Sinam District MPS Detention Centre","type":"Detention / interrogation","agency":"Ministry of People's Security","province":"North Hamgyong","status":null,"incidents":0,"sources":"[{\"name\":\"Korea Future (NKPD)\",\"url\":\"https://nkpd.io/en/entity/htobrc1fnoq\"}]","county":"KP0205"}},{"type":"Feature","geometry":{"type":"Point","coordinates":[130.317138,42.252463]},"properties":{"id":"det-45","name":"Rason City MPS Detention Centre","type":"Detention / interrogation","agency":"Ministry of People's Security","province":"Rason","status":"Operative","incidents":0,"sources":"[{\"name\":\"Korea Future (NKPD)\",\"url\":\"https://nkpd.io/en/entity/nt4vx67g4w\"}]","county":"KP0201"}},{"type":"Feature","geometry":{"type":"Point","coordinates":[130.196933,42.812399]},"properties":{"id":"det-46","name":"Kyongwon (Saebyul) County MSS Detention Centre","type":"Detention / interrogation","agency":"Ministry of State Security","province":"North Hamgyong","status":null,"incidents":0,"sources":"[{\"name\":\"Korea Future (NKPD)\",\"url\":\"https://nkpd.io/en/entity/57j30favv3t\"}]","county":"KP0221"}},{"type":"Feature","geometry":{"type":"Point","coordinates":[129.685336,41.71355]},"properties":{"id":"det-47","name":"Chongjin City Ranam District MPS Detention Centre","type":"Detention / interrogation","agency":"Ministry of People's Security","province":"North Hamgyong","status":null,"incidents":0,"sources":"[{\"name\":\"Korea Future (NKPD)\",\"url\":\"https://nkpd.io/en/entity/f4kmj9ra1w\"}]","county":"KP0216"}},{"type":"Feature","geometry":{"type":"Point","coordinates":[129.325506,40.97687]},"properties":{"id":"det-48","name":"Kilju County Labour Training Centre","type":"Labour training camp","agency":"People's Committee of North Korea","province":"North Hamgyong","status":"Operative","incidents":0,"sources":"[{\"name\":\"Korea Future (NKPD)\",\"url\":\"https://nkpd.io/en/entity/uek4qei7jg\"}]","county":"KP0211"}},{"type":"Feature","geometry":{"type":"Point","coordinates":[129.7486901,41.7718728]},"properties":{"id":"det-49","name":"Chongjin City Songpyong District MPS Detention Centre","type":"Detention / interrogation","agency":"Ministry of People's Security","province":"North Hamgyong","status":null,"incidents":0,"sources":"[{\"name\":\"Korea Future (NKPD)\",\"url\":\"https://nkpd.io/en/entity/v9uhnkubbhs\"}]","county":"KP0205"}},{"type":"Feature","geometry":{"type":"Point","coordinates":[129.335104,40.966177]},"properties":{"id":"det-50","name":"Kilju County MPS Detention Centre","type":"Detention / interrogation","agency":"Ministry of People's Security","province":"North Hamgyong","status":null,"incidents":0,"sources":"[{\"name\":\"Korea Future (NKPD)\",\"url\":\"https://nkpd.io/en/entity/x2v4nh68sz\"}]","county":"KP0211"}},{"type":"Feature","geometry":{"type":"Point","coordinates":[129.79057,41.789739]},"properties":{"id":"det-51","name":"North Hamgyong Provincial MPS Detention Centre","type":"Detention / interrogation","agency":"Ministry of People's Security","province":"North Hamgyong","status":"Operative","incidents":0,"sources":"[{\"name\":\"Korea Future (NKPD)\",\"url\":\"https://nkpd.io/en/entity/iju5pzkbf6k\"}]","county":"KP0205"}},{"type":"Feature","geometry":{"type":"Point","coordinates":[128.1907216,41.400258]},"properties":{"id":"det-52","name":"Ryanggang Provincial MSS Closed Detention Facility","type":"Detention / interrogation","agency":"Ministry of State Security","province":"Ryanggang","status":null,"incidents":0,"sources":"[{\"name\":\"Korea Future (NKPD)\",\"url\":\"https://nkpd.io/en/entity/a9fr0w4g8fu\"}]","county":"KP0101"}},{"type":"Feature","geometry":{"type":"Point","coordinates":[128.324304,41.8074468]},"properties":{"id":"det-53","name":"Samjiyon County MPS Detention Centre","type":"Detention / interrogation","agency":"Ministry of People's Security","province":"Ryanggang","status":null,"incidents":0,"sources":"[{\"name\":\"Korea Future (NKPD)\",\"url\":\"https://nkpd.io/en/entity/t3de22efqtg\"}]","county":"KP0107"}},{"type":"Feature","geometry":{"type":"Point","coordinates":[126.2958515,41.1644911]},"properties":{"id":"det-54","name":"Chagang Provincial MPS Holding Centre (Manpo)","type":"Holding centre","agency":"Ministry of People's Security","province":"Chagang","status":"Operative","incidents":1,"sources":"[{\"name\":\"Korea Future (NKPD)\",\"url\":\"https://nkpd.io/en/entity/u4jhtq8wzaj\"},{\"name\":\"NKDB Visual Atlas\",\"url\":\"https://www.visualatlas.org/en/density\"}]","county":"KP0502"}},{"type":"Feature","geometry":{"type":"Point","coordinates":[130.3438712,42.5227115]},"properties":{"id":"det-55","name":"Kyonghung (Undok) County MPS Detention Centre","type":"Detention / interrogation","agency":"Ministry of People's Security","province":"North Hamgyong","status":"Operative","incidents":0,"sources":"[{\"name\":\"Korea Future (NKPD)\",\"url\":\"https://nkpd.io/en/entity/x7mmf7gqc7\"}]","county":"KP0222"}},{"type":"Feature","geometry":{"type":"Point","coordinates":[129.754469,42.438506]},"properties":{"id":"det-56","name":"Hoeryong City MSS Detention Centre","type":"Detention / interrogation","agency":"Ministry of State Security","province":"North Hamgyong","status":"Operative","incidents":0,"sources":"[{\"name\":\"Korea Future (NKPD)\",\"url\":\"https://nkpd.io/en/entity/4rj4jgxwpfd\"}]","county":"KP0203"}},{"type":"Feature","geometry":{"type":"Point","coordinates":[124.4269557,40.0776625]},"properties":{"id":"det-57","name":"Sinuiju City Labour Training Centre","type":"Labour training camp","agency":"People's Committee of North Korea","province":"North Pyongan","status":null,"incidents":0,"sources":"[{\"name\":\"Korea Future (NKPD)\",\"url\":\"https://nkpd.io/en/entity/3iobzadt3rz\"}]","county":"KP0601"}},{"type":"Feature","geometry":{"type":"Point","coordinates":[124.396756,40.095354]},"properties":{"id":"det-58","name":"North Pyongan Provincial MSS Detention Centre","type":"Detention / interrogation","agency":"Ministry of State Security","province":"North Pyongan","status":null,"incidents":0,"sources":"[{\"name\":\"Korea Future (NKPD)\",\"url\":\"https://nkpd.io/en/entity/d72mkn600nq\"}]","county":"KP0601"}},{"type":"Feature","geometry":{"type":"Point","coordinates":[129.2302878,42.2275593]},"properties":{"id":"det-59","name":"Musan County Labour Training Centre","type":"Labour training camp","agency":"People's Committee of North Korea","province":"North Hamgyong","status":"Operative","incidents":15,"sources":"[{\"name\":\"Korea Future (NKPD)\",\"url\":\"https://nkpd.io/en/entity/5nim9k4e6vh\"},{\"name\":\"NKDB Visual Atlas\",\"url\":\"https://www.visualatlas.org/en/density\"}]","county":"KP0218"}},{"type":"Feature","geometry":{"type":"Point","coordinates":[129.763886,42.430423]},"properties":{"id":"det-60","name":"Hoeryong City MPS Detention Centre","type":"Detention / interrogation","agency":"Ministry of People's Security","province":"North Hamgyong","status":null,"incidents":0,"sources":"[{\"name\":\"Korea Future (NKPD)\",\"url\":\"https://nkpd.io/en/entity/klpihut9f1\"}]","county":"KP0203"}},{"type":"Feature","geometry":{"type":"Point","coordinates":[129.722757,41.738086]},"properties":{"id":"det-61","name":"North Hamgyong Provincial MPS Holding Centre (Nongpo)","type":"Holding centre","agency":"Ministry of People's Security","province":"North Hamgyong","status":"Operative","incidents":0,"sources":"[{\"name\":\"Korea Future (NKPD)\",\"url\":\"https://nkpd.io/en/entity/ratyqhxngre\"}]","county":"KP0205"}},{"type":"Feature","geometry":{"type":"Point","coordinates":[128.176219,41.397367]},"properties":{"id":"det-62","name":"Hyesan City MSS  Detention Centre","type":"Detention / interrogation","agency":"Ministry of State Security","province":"Ryanggang","status":null,"incidents":0,"sources":"[{\"name\":\"Korea Future (NKPD)\",\"url\":\"https://nkpd.io/en/entity/4og68nm6sjc\"}]","county":"KP0102"}},{"type":"Feature","geometry":{"type":"Point","coordinates":[129.987019,42.95964]},"properties":{"id":"det-63","name":"Onsong County MPS Detention Centre","type":"Detention / interrogation","agency":"Ministry of People's Security","province":"North Hamgyong","status":"Operative","incidents":0,"sources":"[{\"name\":\"Korea Future (NKPD)\",\"url\":\"https://nkpd.io/en/entity/pe7q4z9cv8\"}]","county":"KP0220"}},{"type":"Feature","geometry":{"type":"Point","coordinates":[124.2313891,39.8024301]},"properties":{"id":"det-64","name":"Sindo County MPS Detention Centre","type":"Detention / interrogation","agency":"Ministry of People's Security","province":"North Pyongan","status":"Operative","incidents":0,"sources":"[{\"name\":\"Korea Future (NKPD)\",\"url\":\"https://nkpd.io/en/entity/k8qnznlqbs\"}]","county":"KP0625"}},{"type":"Feature","geometry":{"type":"Point","coordinates":[124.2407001,39.8110848]},"properties":{"id":"det-65","name":"Sindo County Labour Training Centre","type":"Labour training camp","agency":"People's Committee of North Korea","province":"North Pyongan","status":null,"incidents":0,"sources":"[{\"name\":\"Korea Future (NKPD)\",\"url\":\"https://nkpd.io/en/entity/qfezf9tphqi\"}]","county":"KP0625"}},{"type":"Feature","geometry":{"type":"Point","coordinates":[128.1656781,41.3968743]},"properties":{"id":"det-66","name":"Hyesan City Hospital","type":"Other facility","agency":"Other North Korean government organisation","province":"Ryanggang","status":null,"incidents":0,"sources":"[{\"name\":\"Korea Future (NKPD)\",\"url\":\"https://nkpd.io/en/entity/phy5oa1ry8\"}]","county":null}},{"type":"Feature","geometry":{"type":"Point","coordinates":[128.179656,41.395103]},"properties":{"id":"det-67","name":"Ryanggang Provincial MPS Detention Centre","type":"Detention / interrogation","agency":"Ministry of People's Security","province":"Ryanggang","status":null,"incidents":0,"sources":"[{\"name\":\"Korea Future (NKPD)\",\"url\":\"https://nkpd.io/en/entity/zaiwo4867zr\"}]","county":"KP0102"}},{"type":"Feature","geometry":{"type":"Point","coordinates":[129.219513,42.230907]},"properties":{"id":"det-68","name":"Musan County MPS Detention Centre","type":"Detention / interrogation","agency":"Ministry of People's Security","province":"North Hamgyong","status":"Operative","incidents":0,"sources":"[{\"name\":\"Korea Future (NKPD)\",\"url\":\"https://nkpd.io/en/entity/0jr48cnoquau\"}]","county":"KP0218"}},{"type":"Feature","geometry":{"type":"Point","coordinates":[128.1639628,41.3954649]},"properties":{"id":"det-69","name":"Hyesan City MPS Waiting Room","type":"Detention / interrogation","agency":"Ministry of People's Security","province":"Ryanggang","status":null,"incidents":0,"sources":"[{\"name\":\"Korea Future (NKPD)\",\"url\":\"https://nkpd.io/en/entity/gtwjapogdmi\"}]","county":null}},{"type":"Feature","geometry":{"type":"Point","coordinates":[128.1637617,41.396186]},"properties":{"id":"det-70","name":"Hyesan City Hyehwa-dong MPS Sub-municipal Station Office","type":"Security office","agency":"Ministry of People's Security","province":"Ryanggang","status":"Operative","incidents":0,"sources":"[{\"name\":\"Korea Future (NKPD)\",\"url\":\"https://nkpd.io/en/entity/bb5fney7jk\"}]","county":null}},{"type":"Feature","geometry":{"type":"Point","coordinates":[128.8141457,41.5636746]},"properties":{"id":"det-71","name":"Paekam County MPS Detention Centre","type":"Detention / interrogation","agency":"Ministry of People's Security","province":"Ryanggang","status":"Operative","incidents":0,"sources":"[{\"name\":\"Korea Future (NKPD)\",\"url\":\"https://nkpd.io/en/entity/7d4bz9bbmv8\"}]","county":"KP0110"}},{"type":"Feature","geometry":{"type":"Point","coordinates":[129.7228,41.7381719]},"properties":{"id":"det-72","name":"North Hamgyong Provincial MSS Holding Centre","type":"Holding centre","agency":"Ministry of State Security","province":"North Hamgyong","status":null,"incidents":0,"sources":"[{\"name\":\"Korea Future (NKPD)\",\"url\":\"https://nkpd.io/en/entity/legwswh2jn\"}]","county":"KP0205"}},{"type":"Feature","geometry":{"type":"Point","coordinates":[129.219659,42.230722]},"properties":{"id":"det-73","name":"Musan County MPS Waiting Room","type":"Detention / interrogation","agency":"Ministry of People's Security","province":"North Hamgyong","status":null,"incidents":0,"sources":"[{\"name\":\"Korea Future (NKPD)\",\"url\":\"https://nkpd.io/en/entity/k9n1zi7t9wp\"}]","county":"KP0218"}},{"type":"Feature","geometry":{"type":"Point","coordinates":[129.2549051,42.2228448]},"properties":{"id":"det-74","name":"Musan County Mine Labour Training Centre","type":"Labour training camp","agency":"Ministry of People's Security","province":"North Hamgyong","status":null,"incidents":0,"sources":"[{\"name\":\"Korea Future (NKPD)\",\"url\":\"https://nkpd.io/en/entity/4dudd6qvtbl\"}]","county":"KP0218"}},{"type":"Feature","geometry":{"type":"Point","coordinates":[128.8164239,41.5718365]},"properties":{"id":"det-75","name":"Paekam County Labour Training Centre","type":"Labour training camp","agency":"People's Committee of North Korea","province":"Ryanggang","status":null,"incidents":0,"sources":"[{\"name\":\"Korea Future (NKPD)\",\"url\":\"https://nkpd.io/en/entity/81hgggj51rr\"}]","county":"KP0110"}},{"type":"Feature","geometry":{"type":"Point","coordinates":[128.311159,41.527162]},"properties":{"id":"det-76","name":"Pochon County MSS Detention Centre","type":"Detention / interrogation","agency":"Ministry of State Security","province":"Ryanggang","status":null,"incidents":0,"sources":"[{\"name\":\"Korea Future (NKPD)\",\"url\":\"https://nkpd.io/en/entity/pjk8ofuih5\"}]","county":"KP0106"}},{"type":"Feature","geometry":{"type":"Point","coordinates":[130.343889,42.522778]},"properties":{"id":"det-77","name":"Kyonghung (Undok) County MPS Waiting Room","type":"Detention / interrogation","agency":"Ministry of People's Security","province":"North Hamgyong","status":null,"incidents":0,"sources":"[{\"name\":\"Korea Future (NKPD)\",\"url\":\"https://nkpd.io/en/entity/1v6n4hnesx3\"}]","county":"KP0222"}},{"type":"Feature","geometry":{"type":"Point","coordinates":[129.80722,41.784934]},"properties":{"id":"det-78","name":"Chongjin City Sinam District MPS Waiting Room","type":"Detention / interrogation","agency":"Ministry of People's Security","province":"North Hamgyong","status":null,"incidents":0,"sources":"[{\"name\":\"Korea Future (NKPD)\",\"url\":\"https://nkpd.io/en/entity/uhtv08830jb\"}]","county":"KP0205"}},{"type":"Feature","geometry":{"type":"Point","coordinates":[129.7955305,41.8065299]},"properties":{"id":"det-79","name":"Chongjin City MPS Office","type":"Security office","agency":"Ministry of People's Security","province":"North Hamgyong","status":null,"incidents":26,"sources":"[{\"name\":\"Korea Future (NKPD)\",\"url\":\"https://nkpd.io/en/entity/6juonm2o9wa\"},{\"name\":\"NKDB Visual Atlas\",\"url\":\"https://www.visualatlas.org/en/density\"},{\"name\":\"NKDB Visual Atlas\",\"url\":\"https://www.visualatlas.org/en/density\"},{\"name\":\"NKDB Visual Atlas\",\"url\":\"https://www.visualatlas.org/en/density\"}]","county":"KP0205"}},{"type":"Feature","geometry":{"type":"Point","coordinates":[129.763871,42.430479]},"properties":{"id":"det-80","name":"Hoeryong City MSS Office","type":"Security office","agency":"Ministry of State Security","province":"North Hamgyong","status":"Operative","incidents":29,"sources":"[{\"name\":\"Korea Future (NKPD)\",\"url\":\"https://nkpd.io/en/entity/uxlalzku55n\"},{\"name\":\"NKDB Visual Atlas\",\"url\":\"https://www.visualatlas.org/en/density\"},{\"name\":\"NKDB Visual Atlas\",\"url\":\"https://www.visualatlas.org/en/density\"},{\"name\":\"NKDB Visual Atlas\",\"url\":\"https://www.visualatlas.org/en/density\"}]","county":"KP0203"}},{"type":"Feature","geometry":{"type":"Point","coordinates":[129.3346167,40.9660895]},"properties":{"id":"det-81","name":"Kilju County MPS Office","type":"Security office","agency":"Ministry of People's Security","province":"North Hamgyong","status":"Operative","incidents":0,"sources":"[{\"name\":\"Korea Future (NKPD)\",\"url\":\"https://nkpd.io/en/entity/tmkce8fyoy9\"}]","county":"KP0211"}},{"type":"Feature","geometry":{"type":"Point","coordinates":[129.6470783,42.419971]},"properties":{"id":"det-82","name":"Hoeryong City Yuson-gu MPS Sub-municipal Station Waiting Room","type":"Detention / interrogation","agency":"Ministry of People's Security","province":"North Hamgyong","status":null,"incidents":0,"sources":"[{\"name\":\"Korea Future (NKPD)\",\"url\":\"https://nkpd.io/en/entity/ovfo3p3ibf\"}]","county":"KP0203"}},{"type":"Feature","geometry":{"type":"Point","coordinates":[129.210525,42.224825]},"properties":{"id":"det-83","name":"Musan County Musan-up MPS Sub-municipal Station Office","type":"Security office","agency":"Ministry of People's Security","province":"North Hamgyong","status":null,"incidents":0,"sources":"[{\"name\":\"Korea Future (NKPD)\",\"url\":\"https://nkpd.io/en/entity/i6sj0vfhao\"}]","county":"KP0218"}},{"type":"Feature","geometry":{"type":"Point","coordinates":[128.2131908,41.4286399]},"properties":{"id":"det-84","name":"Hyesan City Yonpung-dong MPS Sub-municipal Station Office","type":"Security office","agency":"Ministry of People's Security","province":"Ryanggang","status":"Operative","incidents":0,"sources":"[{\"name\":\"Korea Future (NKPD)\",\"url\":\"https://nkpd.io/en/entity/l4aevgp2s7\"}]","county":"KP0101"}},{"type":"Feature","geometry":{"type":"Point","coordinates":[130.1962207,42.8589237]},"properties":{"id":"det-85","name":"Kyongwon (Saebyul) County Labour Training Centre","type":"Labour training camp","agency":"People's Committee of North Korea","province":"North Hamgyong","status":null,"incidents":0,"sources":"[{\"name\":\"Korea Future (NKPD)\",\"url\":\"https://nkpd.io/en/entity/jzwg7dn5yx\"}]","county":"KP0221"}},{"type":"Feature","geometry":{"type":"Point","coordinates":[128.163969,41.399607]},"properties":{"id":"det-86","name":"Hyesan City MSS Institute No.130","type":"Security office","agency":"Ministry of State Security","province":"Ryanggang","status":null,"incidents":0,"sources":"[{\"name\":\"Korea Future (NKPD)\",\"url\":\"https://nkpd.io/en/entity/aeasd4ymhxd\"}]","county":null}},{"type":"Feature","geometry":{"type":"Point","coordinates":[130.1969328,42.8123988]},"properties":{"id":"det-87","name":"Kyongwon (Saebyul) County MSS Office","type":"Security office","agency":"Ministry of State Security","province":"North Hamgyong","status":"Operative","incidents":12,"sources":"[{\"name\":\"Korea Future (NKPD)\",\"url\":\"https://nkpd.io/en/entity/ky23lh6cjyh\"},{\"name\":\"NKDB Visual Atlas\",\"url\":\"https://www.visualatlas.org/en/density\"},{\"name\":\"NKDB Visual Atlas\",\"url\":\"https://www.visualatlas.org/en/density\"},{\"name\":\"NKDB Visual Atlas\",\"url\":\"https://www.visualatlas.org/en/density\"},{\"name\":\"NKDB Visual Atlas\",\"url\":\"https://www.visualatlas.org/en/density\"}]","county":"KP0221"}},{"type":"Feature","geometry":{"type":"Point","coordinates":[128.163767,41.39621]},"properties":{"id":"det-88","name":"Hyesan City Hyehung-dong MPS Sub-municipal Station Office","type":"Security office","agency":"Ministry of People's Security","province":"Ryanggang","status":null,"incidents":0,"sources":"[{\"name\":\"Korea Future (NKPD)\",\"url\":\"https://nkpd.io/en/entity/21mfaxtb172\"}]","county":null}},{"type":"Feature","geometry":{"type":"Point","coordinates":[124.4271421,40.0763308]},"properties":{"id":"det-89","name":"North Pyongan Provincial MPS Holding Centre","type":"Holding centre","agency":"Ministry of People's Security","province":"North Pyongan","status":null,"incidents":0,"sources":"[{\"name\":\"Korea Future (NKPD)\",\"url\":\"https://nkpd.io/en/entity/j1fgixxwq6\"}]","county":"KP0601"}},{"type":"Feature","geometry":{"type":"Point","coordinates":[129.987784,42.959697]},"properties":{"id":"det-90","name":"Onsong County MSS Detention Centre","type":"Detention / interrogation","agency":"Ministry of State Security","province":"North Hamgyong","status":"Operative","incidents":0,"sources":"[{\"name\":\"Korea Future (NKPD)\",\"url\":\"https://nkpd.io/en/entity/n2ehalzkch\"}]","county":"KP0220"}},{"type":"Feature","geometry":{"type":"Point","coordinates":[128.2081777,41.4110135]},"properties":{"id":"det-91","name":"Ryanggang Province Temporary National Anti-Socialist Task Force Office","type":"Security office","agency":"Workers' Party of Korea","province":"Ryanggang","status":null,"incidents":0,"sources":"[{\"name\":\"Korea Future (NKPD)\",\"url\":\"https://nkpd.io/en/entity/xk1lnq7faf\"}]","county":"KP0101"}},{"type":"Feature","geometry":{"type":"Point","coordinates":[130.3171856,42.2234394]},"properties":{"id":"det-92","name":"Rason City Anju-dong MPS Sub-municipal Station Office","type":"Security office","agency":"Ministry of People's Security","province":"Rason","status":null,"incidents":0,"sources":"[{\"name\":\"Korea Future (NKPD)\",\"url\":\"https://nkpd.io/en/entity/ozw0qh3ymmf\"}]","county":"KP0201"}},{"type":"Feature","geometry":{"type":"Point","coordinates":[130.3171856,42.2234394]},"properties":{"id":"det-93","name":"Rason City MPS Waiting Room","type":"Detention / interrogation","agency":"Ministry of People's Security","province":"Rason","status":null,"incidents":0,"sources":"[{\"name\":\"Korea Future (NKPD)\",\"url\":\"https://nkpd.io/en/entity/yrwje012rns\"}]","county":"KP0201"}},{"type":"Feature","geometry":{"type":"Point","coordinates":[128.2097431,41.4182926]},"properties":{"id":"det-94","name":"Hyesan City Temporary Anti-Socialist Task Force Office","type":"Security office","agency":"Unknown","province":"Ryanggang","status":null,"incidents":0,"sources":"[{\"name\":\"Korea Future (NKPD)\",\"url\":\"https://nkpd.io/en/entity/jzl10ixo85\"}]","county":"KP0101"}},{"type":"Feature","geometry":{"type":"Point","coordinates":[127.8726444,39.9400809]},"properties":{"id":"det-95","name":"Rawon County Samho-gu MSS Office","type":"Security office","agency":"Ministry of State Security","province":"North Hamgyong","status":null,"incidents":0,"sources":"[{\"name\":\"Korea Future (NKPD)\",\"url\":\"https://nkpd.io/en/entity/e03clgitvpt\"}]","county":null}},{"type":"Feature","geometry":{"type":"Point","coordinates":[125.36978333333333,39.103836111111114]},"properties":{"id":"det-96","name":"Police Holding Camp, Jungsan County, South Pyongan Province","type":"Holding centre","agency":"Ministry of Social Security (police)","province":null,"status":null,"confirmed":false,"incidents":2,"sources":"[{\"name\":\"NKDB Visual Atlas\",\"url\":\"https://www.visualatlas.org/en/density\"}]","county":"KP0708"}},{"type":"Feature","geometry":{"type":"Point","coordinates":[126.27338242961736,41.15086189104392]},"properties":{"id":"det-97","name":"MSS, Gunha-ri, Manpo, Chagang Province","type":"Security office","agency":"Ministry of State Security","province":null,"status":null,"confirmed":false,"incidents":5,"sources":"[{\"name\":\"NKDB Visual Atlas\",\"url\":\"https://www.visualatlas.org/en/density\"}]","county":"KP0502"}},{"type":"Feature","geometry":{"type":"Point","coordinates":[129.59560833333333,41.59673611111111]},"properties":{"id":"det-98","name":"County MPS, Kyongsong County, North Hamgyong Province","type":"Security office","agency":"Ministry of Social Security (police)","province":null,"status":null,"confirmed":true,"incidents":1,"sources":"[{\"name\":\"NKDB Visual Atlas\",\"url\":\"https://www.visualatlas.org/en/density\"}]","county":"KP0216"}},{"type":"Feature","geometry":{"type":"Point","coordinates":[130.38590277777777,42.327377777777784]},"properties":{"id":"det-99","name":"MSS, Rajin Sonbong City, North Hamgyong Province","type":"Security office","agency":"Ministry of State Security","province":null,"status":null,"confirmed":false,"incidents":13,"sources":"[{\"name\":\"NKDB Visual Atlas\",\"url\":\"https://www.visualatlas.org/en/density\"},{\"name\":\"NKDB Visual Atlas\",\"url\":\"https://www.visualatlas.org/en/density\"},{\"name\":\"NKDB Visual Atlas\",\"url\":\"https://www.visualatlas.org/en/density\"},{\"name\":\"NKDB Visual Atlas\",\"url\":\"https://www.visualatlas.org/en/density\"}]","county":"KP0201"}},{"type":"Feature","geometry":{"type":"Point","coordinates":[129.73853888888888,41.76745555555556]},"properties":{"id":"det-100","name":"Provincial Police Holding Camp, Songpyong District, Chongjin City, North Hamgyong Province","type":"Holding centre","agency":"Ministry of Social Security (police)","province":null,"status":null,"confirmed":true,"incidents":91,"sources":"[{\"name\":\"NKDB Visual Atlas\",\"url\":\"https://www.visualatlas.org/en/density\"},{\"name\":\"NKDB Visual Atlas\",\"url\":\"https://www.visualatlas.org/en/density\"}]","county":"KP0205"}},{"type":"Feature","geometry":{"type":"Point","coordinates":[129.9878222222222,42.95951388888889]},"properties":{"id":"det-101","name":"County MSS, Onsong County, North Hamgyong Province","type":"Security office","agency":"Ministry of State Security","province":null,"status":null,"confirmed":true,"incidents":74,"sources":"[{\"name\":\"NKDB Visual Atlas\",\"url\":\"https://www.visualatlas.org/en/density\"},{\"name\":\"NKDB Visual Atlas\",\"url\":\"https://www.visualatlas.org/en/density\"},{\"name\":\"NKDB Visual Atlas\",\"url\":\"https://www.visualatlas.org/en/density\"},{\"name\":\"NKDB Visual Atlas\",\"url\":\"https://www.visualatlas.org/en/density\"}]","county":"KP0220"}},{"type":"Feature","geometry":{"type":"Point","coordinates":[126.09531388888888,38.846825]},"properties":{"id":"det-102","name":"Defense Security Command Training Camp in Sangwon County, Pyongyang","type":"Other facility","agency":"Ministry of State Security","province":null,"status":null,"confirmed":false,"incidents":1,"sources":"[{\"name\":\"NKDB Visual Atlas\",\"url\":\"https://www.visualatlas.org/en/density\"}]","county":"KP0822"}},{"type":"Feature","geometry":{"type":"Point","coordinates":[128.80421111111113,41.57653333333334]},"properties":{"id":"det-103","name":"County MPS, Paegam County, Yanggang Province","type":"Security office","agency":"Ministry of Social Security (police)","province":null,"status":null,"confirmed":false,"incidents":8,"sources":"[{\"name\":\"NKDB Visual Atlas\",\"url\":\"https://www.visualatlas.org/en/density\"},{\"name\":\"NKDB Visual Atlas\",\"url\":\"https://www.visualatlas.org/en/density\"}]","county":"KP0110"}},{"type":"Feature","geometry":{"type":"Point","coordinates":[129.97939166666666,42.95079166666667]},"properties":{"id":"det-104","name":"Labor Training Camp, Onsong County, North Hamgyong Province","type":"Labour training camp","agency":null,"province":null,"status":null,"confirmed":true,"incidents":66,"sources":"[{\"name\":\"NKDB Visual Atlas\",\"url\":\"https://www.visualatlas.org/en/density\"},{\"name\":\"NKDB Visual Atlas\",\"url\":\"https://www.visualatlas.org/en/density\"}]","county":"KP0220"}},{"type":"Feature","geometry":{"type":"Point","coordinates":[125.95066666666666,39.10727777777778]},"properties":{"id":"det-105","name":"Defense Security Command, Pyongyang City","type":"Other facility","agency":"Ministry of State Security","province":null,"status":null,"confirmed":false,"incidents":1,"sources":"[{\"name\":\"NKDB Visual Atlas\",\"url\":\"https://www.visualatlas.org/en/density\"}]","county":"KP1001"}},{"type":"Feature","geometry":{"type":"Point","coordinates":[129.42005555555554,42.42943333333333]},"properties":{"id":"det-106","name":"MPS, Keha-ri, Hoeryong City, North Hamgyong Province","type":"Security office","agency":"Ministry of Social Security (police)","province":null,"status":null,"confirmed":true,"incidents":6,"sources":"[{\"name\":\"NKDB Visual Atlas\",\"url\":\"https://www.visualatlas.org/en/density\"},{\"name\":\"NKDB Visual Atlas\",\"url\":\"https://www.visualatlas.org/en/density\"}]","county":"KP0203"}},{"type":"Feature","geometry":{"type":"Point","coordinates":[129.75406666666666,42.43948611111111]},"properties":{"id":"det-107","name":"Police Holding Camp, Hoeryong City, North Hamgyong Province","type":"Holding centre","agency":"Ministry of Social Security (police)","province":null,"status":null,"confirmed":false,"incidents":2,"sources":"[{\"name\":\"NKDB Visual Atlas\",\"url\":\"https://www.visualatlas.org/en/density\"}]","county":"KP0203"}},{"type":"Feature","geometry":{"type":"Point","coordinates":[124.39698055555556,40.09523611111111]},"properties":{"id":"det-108","name":"Provincial MSS, Sinuiju City, North Pyongan Province","type":"Security office","agency":"Ministry of State Security","province":null,"status":null,"confirmed":true,"incidents":30,"sources":"[{\"name\":\"NKDB Visual Atlas\",\"url\":\"https://www.visualatlas.org/en/density\"},{\"name\":\"NKDB Visual Atlas\",\"url\":\"https://www.visualatlas.org/en/density\"}]","county":"KP0601"}},{"type":"Feature","geometry":{"type":"Point","coordinates":[128.80503333333334,41.06309444444444]},"properties":{"id":"det-109","name":"Tanchon Prison No. 77 (Closed), Tanchon City, South Hamgyong Province","type":"Prison (kyohwaso)","agency":null,"province":null,"status":null,"confirmed":true,"incidents":4,"sources":"[{\"name\":\"NKDB Visual Atlas\",\"url\":\"https://www.visualatlas.org/en/density\"}]","county":"KP0302"}},{"type":"Feature","geometry":{"type":"Point","coordinates":[129.26825000000002,40.85740277777778]},"properties":{"id":"det-110","name":"Labor Training Camp of Ilsin Mine, Kilju County, North Hamgyong Province","type":"Labour training camp","agency":null,"province":null,"status":null,"confirmed":false,"incidents":1,"sources":"[{\"name\":\"NKDB Visual Atlas\",\"url\":\"https://www.visualatlas.org/en/density\"}]","county":"KP0211"}},{"type":"Feature","geometry":{"type":"Point","coordinates":[129.75381666666667,42.41410833333333]},"properties":{"id":"det-111","name":"Obong Police Station, Hoeryong City, North Hamgyong Province","type":"Security office","agency":"Ministry of Social Security (police)","province":null,"status":null,"confirmed":true,"incidents":1,"sources":"[{\"name\":\"NKDB Visual Atlas\",\"url\":\"https://www.visualatlas.org/en/density\"}]","county":"KP0203"}},{"type":"Feature","geometry":{"type":"Point","coordinates":[128.309975,40.24155833333334]},"properties":{"id":"det-112","name":"Labor Training Camp, Pukchung County, South Hamgyong Province","type":"Labour training camp","agency":null,"province":null,"status":null,"confirmed":false,"incidents":1,"sources":"[{\"name\":\"NKDB Visual Atlas\",\"url\":\"https://www.visualatlas.org/en/density\"}]","county":"KP0321"}},{"type":"Feature","geometry":{"type":"Point","coordinates":[128.31089722222222,41.52730277777778]},"properties":{"id":"det-113","name":"County MSS, Pochon County, Yanggang Province","type":"Security office","agency":"Ministry of State Security","province":null,"status":null,"confirmed":true,"incidents":9,"sources":"[{\"name\":\"NKDB Visual Atlas\",\"url\":\"https://www.visualatlas.org/en/density\"},{\"name\":\"NKDB Visual Atlas\",\"url\":\"https://www.visualatlas.org/en/density\"}]","county":"KP0106"}},{"type":"Feature","geometry":{"type":"Point","coordinates":[129.52249166666667,40.80610833333333]},"properties":{"id":"det-114","name":"Labor Training Camp, Hwadae County, North Hamgyong Province","type":"Labour training camp","agency":null,"province":null,"status":null,"confirmed":false,"incidents":1,"sources":"[{\"name\":\"NKDB Visual Atlas\",\"url\":\"https://www.visualatlas.org/en/density\"}]","county":"KP0212"}},{"type":"Feature","geometry":{"type":"Point","coordinates":[130.0074611111111,42.93946666666666]},"properties":{"id":"det-115","name":"MPS of Chuwon Mine, Onsong County, North Hamgyong Province","type":"Security office","agency":"Ministry of Social Security (police)","province":null,"status":null,"confirmed":false,"incidents":1,"sources":"[{\"name\":\"NKDB Visual Atlas\",\"url\":\"https://www.visualatlas.org/en/density\"}]","county":"KP0220"}},{"type":"Feature","geometry":{"type":"Point","coordinates":[127.24439444444444,39.731566666666666]},"properties":{"id":"det-116","name":"MSS of Chongpyong Mine, Chongpyong County, South Hamgyong Province","type":"Security office","agency":"Ministry of State Security","province":null,"status":null,"confirmed":true,"incidents":2,"sources":"[{\"name\":\"NKDB Visual Atlas\",\"url\":\"https://www.visualatlas.org/en/density\"}]","county":"KP0315"}},{"type":"Feature","geometry":{"type":"Point","coordinates":[129.76304444444443,41.813919444444444]},"properties":{"id":"det-117","name":"Labor Training Camp, Pohang District, Chongjin City, North Hamgyong Province","type":"Labour training camp","agency":null,"province":null,"status":null,"confirmed":false,"incidents":2,"sources":"[{\"name\":\"NKDB Visual Atlas\",\"url\":\"https://www.visualatlas.org/en/density\"}]","county":"KP0205"}},{"type":"Feature","geometry":{"type":"Point","coordinates":[129.697975,41.71842777777778]},"properties":{"id":"det-118","name":"Labor Training Camp, Ranam District, Chongjin City, North Hamgyong Province","type":"Labour training camp","agency":null,"province":null,"status":null,"confirmed":false,"incidents":6,"sources":"[{\"name\":\"NKDB Visual Atlas\",\"url\":\"https://www.visualatlas.org/en/density\"}]","county":"KP0205"}},{"type":"Feature","geometry":{"type":"Point","coordinates":[127.77647777777777,41.41863055555555]},"properties":{"id":"det-119","name":"Labor Training Camp, Kimjongsuk County, Yanggang Province","type":"Labour training camp","agency":null,"province":null,"status":null,"confirmed":false,"incidents":2,"sources":"[{\"name\":\"NKDB Visual Atlas\",\"url\":\"https://www.visualatlas.org/en/density\"}]","county":"KP0103"}},{"type":"Feature","geometry":{"type":"Point","coordinates":[129.2166638888889,42.26356111111111]},"properties":{"id":"det-120","name":"MPS, Chilsung-ri, Musan County, North Hamgyong Province","type":"Security office","agency":"Ministry of Social Security (police)","province":null,"status":null,"confirmed":false,"incidents":1,"sources":"[{\"name\":\"NKDB Visual Atlas\",\"url\":\"https://www.visualatlas.org/en/density\"}]","county":"KP0218"}},{"type":"Feature","geometry":{"type":"Point","coordinates":[124.41583611111112,40.10838888888889]},"properties":{"id":"det-121","name":"Provincial Police Holding Camp, Sinuiju City, North Hamgyong Province","type":"Holding centre","agency":"Ministry of Social Security (police)","province":null,"status":null,"confirmed":false,"incidents":49,"sources":"[{\"name\":\"NKDB Visual Atlas\",\"url\":\"https://www.visualatlas.org/en/density\"},{\"name\":\"NKDB Visual Atlas\",\"url\":\"https://www.visualatlas.org/en/density\"}]","county":"KP0601"}},{"type":"Feature","geometry":{"type":"Point","coordinates":[127.96019444444445,40.02361388888889]},"properties":{"id":"det-122","name":"MPS, Hongwon County, South Hamgyong Province","type":"Security office","agency":"Ministry of Social Security (police)","province":null,"status":null,"confirmed":false,"incidents":1,"sources":"[{\"name\":\"NKDB Visual Atlas\",\"url\":\"https://www.visualatlas.org/en/density\"}]","county":"KP0320"}},{"type":"Feature","geometry":{"type":"Point","coordinates":[128.31433055555556,41.80517222222222]},"properties":{"id":"det-123","name":"City MSS, Samjiyon County, Yanggang Province","type":"Security office","agency":"Ministry of State Security","province":null,"status":null,"confirmed":true,"incidents":16,"sources":"[{\"name\":\"NKDB Visual Atlas\",\"url\":\"https://www.visualatlas.org/en/density\"},{\"name\":\"NKDB Visual Atlas\",\"url\":\"https://www.visualatlas.org/en/density\"},{\"name\":\"NKDB Visual Atlas\",\"url\":\"https://www.visualatlas.org/en/density\"},{\"name\":\"NKDB Visual Atlas\",\"url\":\"https://www.visualatlas.org/en/density\"}]","county":"KP0107"}},{"type":"Feature","geometry":{"type":"Point","coordinates":[128.32561666666666,41.80580833333333]},"properties":{"id":"det-124","name":"Labor Training Camp, Samjiyon City, Yanggang Province","type":"Labour training camp","agency":null,"province":null,"status":null,"confirmed":true,"incidents":2,"sources":"[{\"name\":\"NKDB Visual Atlas\",\"url\":\"https://www.visualatlas.org/en/density\"}]","county":"KP0107"}},{"type":"Feature","geometry":{"type":"Point","coordinates":[126.46018055555555,39.105375]},"properties":{"id":"det-125","name":"County MPS, Hoechang County, South Pyongan Province","type":"Security office","agency":"Ministry of Social Security (police)","province":null,"status":null,"confirmed":false,"incidents":4,"sources":"[{\"name\":\"NKDB Visual Atlas\",\"url\":\"https://www.visualatlas.org/en/density\"}]","county":"KP0723"}},{"type":"Feature","geometry":{"type":"Point","coordinates":[127.40776666666667,39.14431388888889]},"properties":{"id":"det-126","name":"Tokwon Prison No. 88, Wonsan City, Kangwon Province","type":"Prison (kyohwaso)","agency":null,"province":null,"status":null,"confirmed":false,"incidents":3,"sources":"[{\"name\":\"NKDB Visual Atlas\",\"url\":\"https://www.visualatlas.org/en/density\"}]","county":"KP0401"}},{"type":"Feature","geometry":{"type":"Point","coordinates":[128.28274444444446,41.50539444444444]},"properties":{"id":"det-127","name":"Training Camp for Guards, Pochon County, Yanggang Province","type":"Other facility","agency":null,"province":null,"status":null,"confirmed":false,"incidents":1,"sources":"[{\"name\":\"NKDB Visual Atlas\",\"url\":\"https://www.visualatlas.org/en/density\"}]","county":"KP0106"}},{"type":"Feature","geometry":{"type":"Point","coordinates":[129.74872777777776,41.7719]},"properties":{"id":"det-128","name":"A police station, Songpyong District, Chongjin City, North Hamgyong Province","type":"Security office","agency":"Ministry of Social Security (police)","province":null,"status":null,"confirmed":true,"incidents":3,"sources":"[{\"name\":\"NKDB Visual Atlas\",\"url\":\"https://www.visualatlas.org/en/density\"},{\"name\":\"NKDB Visual Atlas\",\"url\":\"https://www.visualatlas.org/en/density\"}]","county":"KP0205"}},{"type":"Feature","geometry":{"type":"Point","coordinates":[129.7904111111111,41.78996111111111]},"properties":{"id":"det-129","name":"Provincial MPS, Chongjin City, North Hamgyong Province","type":"Security office","agency":"Ministry of Social Security (police)","province":null,"status":null,"confirmed":true,"incidents":7,"sources":"[{\"name\":\"NKDB Visual Atlas\",\"url\":\"https://www.visualatlas.org/en/density\"},{\"name\":\"NKDB Visual Atlas\",\"url\":\"https://www.visualatlas.org/en/density\"}]","county":"KP0205"}},{"type":"Feature","geometry":{"type":"Point","coordinates":[129.38805,41.08884166666667]},"properties":{"id":"det-130","name":"County MPS, Myongchon County, North Hamgyong Province","type":"Security office","agency":"Ministry of Social Security (police)","province":null,"status":null,"confirmed":false,"incidents":1,"sources":"[{\"name\":\"NKDB Visual Atlas\",\"url\":\"https://www.visualatlas.org/en/density\"}]","county":"KP0214"}},{"type":"Feature","geometry":{"type":"Point","coordinates":[126.29034722222222,41.15910833333333]},"properties":{"id":"det-131","name":"City MPS, Manpo City, Chagang Province","type":"Security office","agency":"Ministry of Social Security (police)","province":null,"status":null,"confirmed":true,"incidents":2,"sources":"[{\"name\":\"NKDB Visual Atlas\",\"url\":\"https://www.visualatlas.org/en/density\"},{\"name\":\"NKDB Visual Atlas\",\"url\":\"https://www.visualatlas.org/en/density\"}]","county":"KP0502"}},{"type":"Feature","geometry":{"type":"Point","coordinates":[127.5513611111111,39.92478611111111]},"properties":{"id":"det-132","name":"Police Station, Hoesang District, Hamhung City, South Hamgyong Province","type":"Security office","agency":"Ministry of Social Security (police)","province":null,"status":null,"confirmed":true,"incidents":1,"sources":"[{\"name\":\"NKDB Visual Atlas\",\"url\":\"https://www.visualatlas.org/en/density\"}]","county":"KP0307"}},{"type":"Feature","geometry":{"type":"Point","coordinates":[130.39570277777776,42.519619444444444]},"properties":{"id":"det-133","name":"Labor Training Camp, Kyonghung County (Undok County), North Hamgyong Province","type":"Labour training camp","agency":null,"province":null,"status":null,"confirmed":false,"incidents":1,"sources":"[{\"name\":\"NKDB Visual Atlas\",\"url\":\"https://www.visualatlas.org/en/density\"}]","county":"KP0222"}},{"type":"Feature","geometry":{"type":"Point","coordinates":[124.2305138888889,39.80545]},"properties":{"id":"det-134","name":"Shooting Range of Guard Camp, Sindo-eup, Shindo County, North Pyongan Province","type":"Other facility","agency":null,"province":null,"status":null,"confirmed":false,"incidents":1,"sources":"[{\"name\":\"NKDB Visual Atlas\",\"url\":\"https://www.visualatlas.org/en/density\"}]","county":"KP0625"}},{"type":"Feature","geometry":{"type":"Point","coordinates":[128.0243138888889,41.28949444444444]},"properties":{"id":"det-135","name":"Labor Training Camp, Samsu County, Yanggang Province","type":"Labour training camp","agency":null,"province":null,"status":null,"confirmed":false,"incidents":1,"sources":"[{\"name\":\"NKDB Visual Atlas\",\"url\":\"https://www.visualatlas.org/en/density\"}]","county":"KP0102"}},{"type":"Feature","geometry":{"type":"Point","coordinates":[127.54598055555556,39.92943611111111]},"properties":{"id":"det-136","name":"Labor Training Camp, Hoesang District, Hamhung City, South Hamgyong Province","type":"Labour training camp","agency":null,"province":null,"status":null,"confirmed":true,"incidents":3,"sources":"[{\"name\":\"NKDB Visual Atlas\",\"url\":\"https://www.visualatlas.org/en/density\"}]","county":"KP0307"}},{"type":"Feature","geometry":{"type":"Point","coordinates":[129.3277361111111,40.95377222222223]},"properties":{"id":"det-137","name":"Labor Training Camp, Kilju County, North Hamgyong Province","type":"Labour training camp","agency":null,"province":null,"status":null,"confirmed":false,"incidents":1,"sources":"[{\"name\":\"NKDB Visual Atlas\",\"url\":\"https://www.visualatlas.org/en/density\"}]","county":"KP0211"}},{"type":"Feature","geometry":{"type":"Point","coordinates":[126.36951388888889,39.01871666666666]},"properties":{"id":"det-138","name":"Hoechang Prison No. 606, Hoechang County, South Pyongan Province","type":"Prison (kyohwaso)","agency":null,"province":null,"status":null,"confirmed":false,"incidents":4,"sources":"[{\"name\":\"NKDB Visual Atlas\",\"url\":\"https://www.visualatlas.org/en/density\"},{\"name\":\"NKDB Visual Atlas\",\"url\":\"https://www.visualatlas.org/en/density\"}]","county":"KP0723"}},{"type":"Feature","geometry":{"type":"Point","coordinates":[129.79505277777778,42.764475]},"properties":{"id":"det-139","name":"Chongsong Police Station, Onsong County, North Hamgyong Province","type":"Security office","agency":"Ministry of Social Security (police)","province":null,"status":null,"confirmed":true,"incidents":1,"sources":"[{\"name\":\"NKDB Visual Atlas\",\"url\":\"https://www.visualatlas.org/en/density\"}]","county":"KP0203"}},{"type":"Feature","geometry":{"type":"Point","coordinates":[124.83313055555556,40.40499722222222]},"properties":{"id":"det-140","name":"Chongsong MSS, Sakju County, North Pyongan Province","type":"Security office","agency":"Ministry of State Security","province":null,"status":null,"confirmed":false,"incidents":1,"sources":"[{\"name\":\"NKDB Visual Atlas\",\"url\":\"https://www.visualatlas.org/en/density\"}]","county":"KP0621"}},{"type":"Feature","geometry":{"type":"Point","coordinates":[128.32315833333334,41.68008888888889]},"properties":{"id":"det-141","name":"MSS, Potae-dong, Samjiyon City, Yanggang Province","type":"Security office","agency":"Ministry of State Security","province":null,"status":null,"confirmed":true,"incidents":6,"sources":"[{\"name\":\"NKDB Visual Atlas\",\"url\":\"https://www.visualatlas.org/en/density\"}]","county":"KP0107"}},{"type":"Feature","geometry":{"type":"Point","coordinates":[124.6,39.91003055555555]},"properties":{"id":"det-142","name":"MSS of 8th Corps, Yongsan-ri, Yomju County, North Pyongan Province","type":"Security office","agency":"Ministry of State Security","province":null,"status":null,"confirmed":false,"incidents":1,"sources":"[{\"name\":\"NKDB Visual Atlas\",\"url\":\"https://www.visualatlas.org/en/density\"}]","county":"KP0607"}},{"type":"Feature","geometry":{"type":"Point","coordinates":[127.96020277777778,40.02361111111111]},"properties":{"id":"det-143","name":"Labor Training Camp, Hongwon County, South Hamgyong Province","type":"Labour training camp","agency":null,"province":null,"status":null,"confirmed":false,"incidents":2,"sources":"[{\"name\":\"NKDB Visual Atlas\",\"url\":\"https://www.visualatlas.org/en/density\"}]","county":"KP0320"}},{"type":"Feature","geometry":{"type":"Point","coordinates":[127.2485638888889,39.441336111111106]},"properties":{"id":"det-144","name":"Police Holding Camp, Kowon County, South Hamgyong Province","type":"Holding centre","agency":"Ministry of Social Security (police)","province":null,"status":null,"confirmed":false,"incidents":1,"sources":"[{\"name\":\"NKDB Visual Atlas\",\"url\":\"https://www.visualatlas.org/en/density\"}]","county":"KP0318"}},{"type":"Feature","geometry":{"type":"Point","coordinates":[128.84728611111112,41.99648333333334]},"properties":{"id":"det-145","name":"County MSS, Taehongdan County, Yanggang Province","type":"Security office","agency":"Ministry of State Security","province":null,"status":null,"confirmed":true,"incidents":7,"sources":"[{\"name\":\"NKDB Visual Atlas\",\"url\":\"https://www.visualatlas.org/en/density\"},{\"name\":\"NKDB Visual Atlas\",\"url\":\"https://www.visualatlas.org/en/density\"},{\"name\":\"NKDB Visual Atlas\",\"url\":\"https://www.visualatlas.org/en/density\"}]","county":"KP0108"}},{"type":"Feature","geometry":{"type":"Point","coordinates":[129.00798055555555,41.907475]},"properties":{"id":"det-146","name":"County MPS, Yonsa County, North Hamgyong Province","type":"Security office","agency":"Ministry of Social Security (police)","province":null,"status":null,"confirmed":true,"incidents":3,"sources":"[{\"name\":\"NKDB Visual Atlas\",\"url\":\"https://www.visualatlas.org/en/density\"}]","county":"KP0217"}},{"type":"Feature","geometry":{"type":"Point","coordinates":[128.55322777777778,41.060449999999996]},"properties":{"id":"det-147","name":"County MPS, Kapsan County, Yanggang Province","type":"Security office","agency":"Ministry of Social Security (police)","province":null,"status":null,"confirmed":false,"incidents":1,"sources":"[{\"name\":\"NKDB Visual Atlas\",\"url\":\"https://www.visualatlas.org/en/density\"}]","county":"KP0111"}},{"type":"Feature","geometry":{"type":"Point","coordinates":[125.70439166666667,39.02773055555556]},"properties":{"id":"det-148","name":"MSS of 131 Guidance Bureau, Mangyongdae District, Pyongyang City","type":"Security office","agency":"Ministry of State Security","province":null,"status":null,"confirmed":true,"incidents":1,"sources":"[{\"name\":\"NKDB Visual Atlas\",\"url\":\"https://www.visualatlas.org/en/density\"}]","county":"KP1001"}},{"type":"Feature","geometry":{"type":"Point","coordinates":[129.718775,42.05589444444444]},"properties":{"id":"det-149","name":"Labor Training Camp, Puryong County, North Hamgyong Province","type":"Labour training camp","agency":null,"province":null,"status":null,"confirmed":true,"incidents":2,"sources":"[{\"name\":\"NKDB Visual Atlas\",\"url\":\"https://www.visualatlas.org/en/density\"}]","county":"KP0219"}},{"type":"Feature","geometry":{"type":"Point","coordinates":[127.35446388888889,40.02220555555555]},"properties":{"id":"det-150","name":"Labor Training Camp, Yonggwang County, South Hamgyong Province","type":"Labour training camp","agency":null,"province":null,"status":null,"confirmed":false,"incidents":2,"sources":"[{\"name\":\"NKDB Visual Atlas\",\"url\":\"https://www.visualatlas.org/en/density\"}]","county":"KP0311"}},{"type":"Feature","geometry":{"type":"Point","coordinates":[125.98776944444444,39.81562777777778]},"properties":{"id":"det-151","name":"MSS, Kaechon City, South Pyongan Province","type":"Security office","agency":"Ministry of State Security","province":null,"status":null,"confirmed":false,"incidents":3,"sources":"[{\"name\":\"NKDB Visual Atlas\",\"url\":\"https://www.visualatlas.org/en/density\"}]","county":"KP0704"}},{"type":"Feature","geometry":{"type":"Point","coordinates":[128.19944166666667,41.38972777777778]},"properties":{"id":"det-152","name":"Training Camp of 25th Brigade, Yonbong-dong, Hyesan, Yanggang Province","type":"Other facility","agency":null,"province":null,"status":null,"confirmed":false,"incidents":1,"sources":"[{\"name\":\"NKDB Visual Atlas\",\"url\":\"https://www.visualatlas.org/en/density\"}]","county":"KP0101"}},{"type":"Feature","geometry":{"type":"Point","coordinates":[129.19628333333333,40.66556111111111]},"properties":{"id":"det-153","name":"Labor Training Camp, Kimchaek City, North Hamgyong Province","type":"Labour training camp","agency":null,"province":null,"status":null,"confirmed":false,"incidents":4,"sources":"[{\"name\":\"NKDB Visual Atlas\",\"url\":\"https://www.visualatlas.org/en/density\"},{\"name\":\"NKDB Visual Atlas\",\"url\":\"https://www.visualatlas.org/en/density\"}]","county":"KP0202"}},{"type":"Feature","geometry":{"type":"Point","coordinates":[130.38591666666665,42.32736944444445]},"properties":{"id":"det-154","name":"Labor Training Camp, Rajin Sonbong City, North Hamgyong Province","type":"Labour training camp","agency":null,"province":null,"status":null,"confirmed":false,"incidents":2,"sources":"[{\"name\":\"NKDB Visual Atlas\",\"url\":\"https://www.visualatlas.org/en/density\"}]","county":"KP0201"}},{"type":"Feature","geometry":{"type":"Point","coordinates":[126.62541388888889,40.96907222222222]},"properties":{"id":"det-155","name":"Provincial MSS, Kanggye City, Chagang Province","type":"Security office","agency":"Ministry of State Security","province":null,"status":null,"confirmed":true,"incidents":1,"sources":"[{\"name\":\"NKDB Visual Atlas\",\"url\":\"https://www.visualatlas.org/en/density\"}]","county":"KP0501"}},{"type":"Feature","geometry":{"type":"Point","coordinates":[128.84332777777777,41.99476111111111]},"properties":{"id":"det-156","name":"Labor Training Camp, Taehongdan County, Yanggang Province","type":"Labour training camp","agency":null,"province":null,"status":null,"confirmed":true,"incidents":3,"sources":"[{\"name\":\"NKDB Visual Atlas\",\"url\":\"https://www.visualatlas.org/en/density\"}]","county":"KP0108"}},{"type":"Feature","geometry":{"type":"Point","coordinates":[126.3188,39.76181666666667]},"properties":{"id":"det-157","name":"Labor Training Camp, Tokchon City, South Pyongan Province","type":"Labour training camp","agency":null,"province":null,"status":null,"confirmed":true,"incidents":4,"sources":"[{\"name\":\"NKDB Visual Atlas\",\"url\":\"https://www.visualatlas.org/en/density\"}]","county":"KP0706"}},{"type":"Feature","geometry":{"type":"Point","coordinates":[129.7387611111111,42.44821111111111]},"properties":{"id":"det-158","name":"Labor Training Camp, Mangyang-dong, Hoeryong City, North Hamgyong Province","type":"Labour training camp","agency":null,"province":null,"status":null,"confirmed":true,"incidents":2,"sources":"[{\"name\":\"NKDB Visual Atlas\",\"url\":\"https://www.visualatlas.org/en/density\"}]","county":"KP0203"}},{"type":"Feature","geometry":{"type":"Point","coordinates":[124.40297777777778,40.10466388888889]},"properties":{"id":"det-159","name":"Labor Training Camp, Sinuiju City, North Pyongan Province","type":"Labour training camp","agency":null,"province":null,"status":null,"confirmed":false,"incidents":2,"sources":"[{\"name\":\"NKDB Visual Atlas\",\"url\":\"https://www.visualatlas.org/en/density\"}]","county":"KP0601"}},{"type":"Feature","geometry":{"type":"Point","coordinates":[126.58932222222222,40.97754722222222]},"properties":{"id":"det-160","name":"Provincial MPS, Kanggye City, Chagang Province","type":"Security office","agency":"Ministry of Social Security (police)","province":null,"status":null,"confirmed":true,"incidents":2,"sources":"[{\"name\":\"NKDB Visual Atlas\",\"url\":\"https://www.visualatlas.org/en/density\"}]","county":"KP0501"}},{"type":"Feature","geometry":{"type":"Point","coordinates":[125.63625833333334,38.74681388888889]},"properties":{"id":"det-161","name":"City MPS (Security Department)), Songrim City, North Hwanghae Province","type":"Security office","agency":"Ministry of Social Security (police)","province":null,"status":null,"confirmed":true,"incidents":1,"sources":"[{\"name\":\"NKDB Visual Atlas\",\"url\":\"https://www.visualatlas.org/en/density\"}]","county":"KP0805"}},{"type":"Feature","geometry":{"type":"Point","coordinates":[129.31703055555556,40.960794444444446]},"properties":{"id":"det-162","name":"Police Holding Camp, Kilju County, North Hamgyong Province","type":"Holding centre","agency":"Ministry of Social Security (police)","province":null,"status":null,"confirmed":false,"incidents":1,"sources":"[{\"name\":\"NKDB Visual Atlas\",\"url\":\"https://www.visualatlas.org/en/density\"}]","county":"KP0211"}},{"type":"Feature","geometry":{"type":"Point","coordinates":[130.1816472222222,42.63570833333333]},"properties":{"id":"det-163","name":"Labor Training Camp, Kyongwon County (Saebyol County), North Hamgyong Province","type":"Labour training camp","agency":null,"province":null,"status":null,"confirmed":false,"incidents":1,"sources":"[{\"name\":\"NKDB Visual Atlas\",\"url\":\"https://www.visualatlas.org/en/density\"}]","county":"KP0221"}},{"type":"Feature","geometry":{"type":"Point","coordinates":[129.68478333333334,41.71406666666667]},"properties":{"id":"det-164","name":"MPS, Ranam District, Chongjin City, North Hamgyong Province","type":"Security office","agency":"Ministry of Social Security (police)","province":null,"status":null,"confirmed":true,"incidents":5,"sources":"[{\"name\":\"NKDB Visual Atlas\",\"url\":\"https://www.visualatlas.org/en/density\"}]","county":"KP0216"}},{"type":"Feature","geometry":{"type":"Point","coordinates":[125.73260277777779,38.03451388888889]},"properties":{"id":"det-165","name":"Provincial MSS, Haeju City, South Hwanghae Province","type":"Security office","agency":"Ministry of State Security","province":null,"status":null,"confirmed":false,"incidents":2,"sources":"[{\"name\":\"NKDB Visual Atlas\",\"url\":\"https://www.visualatlas.org/en/density\"},{\"name\":\"NKDB Visual Atlas\",\"url\":\"https://www.visualatlas.org/en/density\"}]","county":"KP0901"}},{"type":"Feature","geometry":{"type":"Point","coordinates":[129.79909444444445,41.796299999999995]},"properties":{"id":"det-166","name":"Labor Training Camp, Chongam District, Chongjin City, North Hamgyong Province","type":"Labour training camp","agency":null,"province":null,"status":null,"confirmed":false,"incidents":9,"sources":"[{\"name\":\"NKDB Visual Atlas\",\"url\":\"https://www.visualatlas.org/en/density\"}]","county":"KP0205"}},{"type":"Feature","geometry":{"type":"Point","coordinates":[125.7654388888889,39.00534444444445]},"properties":{"id":"det-167","name":"MPS, Songyo District, Pyongyang City","type":"Security office","agency":"Ministry of Social Security (police)","province":null,"status":null,"confirmed":true,"incidents":3,"sources":"[{\"name\":\"NKDB Visual Atlas\",\"url\":\"https://www.visualatlas.org/en/density\"},{\"name\":\"NKDB Visual Atlas\",\"url\":\"https://www.visualatlas.org/en/density\"}]","county":"KP1001"}},{"type":"Feature","geometry":{"type":"Point","coordinates":[128.8442527777778,41.77260555555556]},"properties":{"id":"det-168","name":"Labor Training Camp, Paegam County, Yanggang Province","type":"Labour training camp","agency":null,"province":null,"status":null,"confirmed":false,"incidents":1,"sources":"[{\"name\":\"NKDB Visual Atlas\",\"url\":\"https://www.visualatlas.org/en/density\"}]","county":"KP0110"}},{"type":"Feature","geometry":{"type":"Point","coordinates":[129.64707777777778,42.41996111111111]},"properties":{"id":"det-169","name":"Yusun Police Station, Yusun-dong, Hoeryong, North Hamgyong Province","type":"Security office","agency":"Ministry of Social Security (police)","province":null,"status":null,"confirmed":true,"incidents":4,"sources":"[{\"name\":\"NKDB Visual Atlas\",\"url\":\"https://www.visualatlas.org/en/density\"}]","county":"KP0203"}},{"type":"Feature","geometry":{"type":"Point","coordinates":[125.50232777777778,37.89861666666667]},"properties":{"id":"det-170","name":"Labor Training Camp, Kangryong County, South Hwanghae Province","type":"Labour training camp","agency":null,"province":null,"status":null,"confirmed":true,"incidents":1,"sources":"[{\"name\":\"NKDB Visual Atlas\",\"url\":\"https://www.visualatlas.org/en/density\"}]","county":"KP0902"}},{"type":"Feature","geometry":{"type":"Point","coordinates":[129.60025833333333,41.58070555555556]},"properties":{"id":"det-171","name":"Labor Training Camp, Kyongsong County, North Hamgyong Province","type":"Labour training camp","agency":null,"province":null,"status":null,"confirmed":true,"incidents":1,"sources":"[{\"name\":\"NKDB Visual Atlas\",\"url\":\"https://www.visualatlas.org/en/density\"}]","county":"KP0216"}},{"type":"Feature","geometry":{"type":"Point","coordinates":[129.74552777777777,42.41514166666666]},"properties":{"id":"det-172","name":"Labor Training Camp, Hoeryong City, North Hamgyong Province","type":"Labour training camp","agency":null,"province":null,"status":null,"confirmed":true,"incidents":12,"sources":"[{\"name\":\"NKDB Visual Atlas\",\"url\":\"https://www.visualatlas.org/en/density\"}]","county":"KP0203"}},{"type":"Feature","geometry":{"type":"Point","coordinates":[125.36978055555555,39.103833333333334]},"properties":{"id":"det-173","name":"Labor Training Camp, Jungsan County, South Pyongan Province","type":"Labour training camp","agency":null,"province":null,"status":null,"confirmed":false,"incidents":8,"sources":"[{\"name\":\"NKDB Visual Atlas\",\"url\":\"https://www.visualatlas.org/en/density\"},{\"name\":\"NKDB Visual Atlas\",\"url\":\"https://www.visualatlas.org/en/density\"}]","county":"KP0708"}},{"type":"Feature","geometry":{"type":"Point","coordinates":[128.65728611111112,40.323752777777784]},"properties":{"id":"det-174","name":"County MSS, Riwon County, South Hamgyong Province","type":"Security office","agency":"Ministry of State Security","province":null,"status":null,"confirmed":false,"incidents":1,"sources":"[{\"name\":\"NKDB Visual Atlas\",\"url\":\"https://www.visualatlas.org/en/density\"}]","county":"KP0323"}},{"type":"Feature","geometry":{"type":"Point","coordinates":[125.93575277777778,39.42709722222222]},"properties":{"id":"det-175","name":"MSS, Sunchon City, South Pyongan Province","type":"Security office","agency":"Ministry of State Security","province":null,"status":null,"confirmed":false,"incidents":2,"sources":"[{\"name\":\"NKDB Visual Atlas\",\"url\":\"https://www.visualatlas.org/en/density\"}]","county":"KP0705"}},{"type":"Feature","geometry":{"type":"Point","coordinates":[125.7587361111111,39.084894444444444]},"properties":{"id":"det-176","name":"MSS, Sosong District, Pyongyang City","type":"Security office","agency":"Ministry of State Security","province":null,"status":null,"confirmed":true,"incidents":5,"sources":"[{\"name\":\"NKDB Visual Atlas\",\"url\":\"https://www.visualatlas.org/en/density\"}]","county":"KP1001"}},{"type":"Feature","geometry":{"type":"Point","coordinates":[125.87093333333333,39.24506388888889]},"properties":{"id":"det-177","name":"Provincial MSS, Pyongsong City, South Pyongan Province","type":"Security office","agency":"Ministry of State Security","province":null,"status":null,"confirmed":false,"incidents":2,"sources":"[{\"name\":\"NKDB Visual Atlas\",\"url\":\"https://www.visualatlas.org/en/density\"}]","county":"KP0701"}},{"type":"Feature","geometry":{"type":"Point","coordinates":[130.28728611111111,42.67222777777778]},"properties":{"id":"det-178","name":"MPS, Singon-ri, Kyongwon County (Saebyol County), North Hamgyong Province","type":"Security office","agency":"Ministry of Social Security (police)","province":null,"status":null,"confirmed":false,"incidents":1,"sources":"[{\"name\":\"NKDB Visual Atlas\",\"url\":\"https://www.visualatlas.org/en/density\"}]","county":"KP0222"}},{"type":"Feature","geometry":{"type":"Point","coordinates":[130.20311666666666,42.81218055555555]},"properties":{"id":"det-179","name":"Labor Training Camp, Kyongwon County (Saebyol County), North Hamgyong Province","type":"Labour training camp","agency":null,"province":null,"status":null,"confirmed":false,"incidents":4,"sources":"[{\"name\":\"NKDB Visual Atlas\",\"url\":\"https://www.visualatlas.org/en/density\"}]","county":"KP0221"}},{"type":"Feature","geometry":{"type":"Point","coordinates":[129.7083888888889,42.06400555555555]},"properties":{"id":"det-180","name":"County MPS, Puryong County, North Hamgyong Province","type":"Security office","agency":"Ministry of Social Security (police)","province":null,"status":null,"confirmed":true,"incidents":2,"sources":"[{\"name\":\"NKDB Visual Atlas\",\"url\":\"https://www.visualatlas.org/en/density\"}]","county":"KP0219"}},{"type":"Feature","geometry":{"type":"Point","coordinates":[126.60836944444443,40.98267777777778]},"properties":{"id":"det-181","name":"Kanggye Prison No. 7, Kanggye City, Chagang Province","type":"Prison (kyohwaso)","agency":null,"province":null,"status":null,"confirmed":false,"incidents":2,"sources":"[{\"name\":\"NKDB Visual Atlas\",\"url\":\"https://www.visualatlas.org/en/density\"}]","county":"KP0501"}},{"type":"Feature","geometry":{"type":"Point","coordinates":[125.78583611111111,39.027725]},"properties":{"id":"det-182","name":"Prison No. 6 (Near Pyongyang)","type":"Prison (kyohwaso)","agency":null,"province":null,"status":null,"confirmed":false,"incidents":1,"sources":"[{\"name\":\"NKDB Visual Atlas\",\"url\":\"https://www.visualatlas.org/en/density\"}]","county":"KP1001"}},{"type":"Feature","geometry":{"type":"Point","coordinates":[127.230225,39.349494444444446]},"properties":{"id":"det-183","name":"Yongdam Prison No. 8, Chonnae County, Kangwon Province","type":"Prison (kyohwaso)","agency":null,"province":null,"status":null,"confirmed":false,"incidents":12,"sources":"[{\"name\":\"NKDB Visual Atlas\",\"url\":\"https://www.visualatlas.org/en/density\"}]","county":"KP0417"}},{"type":"Feature","geometry":{"type":"Point","coordinates":[126.02279166666666,39.43323611111111]},"properties":{"id":"det-184","name":"Labor Training Camp, Unsan County, South Pyongan Province","type":"Labour training camp","agency":null,"province":null,"status":null,"confirmed":false,"incidents":3,"sources":"[{\"name\":\"NKDB Visual Atlas\",\"url\":\"https://www.visualatlas.org/en/density\"}]","county":"KP0705"}},{"type":"Feature","geometry":{"type":"Point","coordinates":[126.608375,40.98267222222223]},"properties":{"id":"det-185","name":"Labor Training Camp, Kanggye City, Chagang Province","type":"Labour training camp","agency":null,"province":null,"status":null,"confirmed":false,"incidents":1,"sources":"[{\"name\":\"NKDB Visual Atlas\",\"url\":\"https://www.visualatlas.org/en/density\"}]","county":"KP0501"}},{"type":"Feature","geometry":{"type":"Point","coordinates":[127.50204444444445,39.899458333333335]},"properties":{"id":"det-186","name":"Tonghungsan Labor Training Camp, Hamhung City, South Hamgyong Province","type":"Labour training camp","agency":null,"province":null,"status":null,"confirmed":false,"incidents":1,"sources":"[{\"name\":\"NKDB Visual Atlas\",\"url\":\"https://www.visualatlas.org/en/density\"}]","county":"KP0307"}},{"type":"Feature","geometry":{"type":"Point","coordinates":[125.22758888888889,38.879241666666665]},"properties":{"id":"det-187","name":"Labor Training Camp, Onchon County, South Pyongan Province","type":"Labour training camp","agency":null,"province":null,"status":null,"confirmed":false,"incidents":1,"sources":"[{\"name\":\"NKDB Visual Atlas\",\"url\":\"https://www.visualatlas.org/en/density\"}]","county":"KP1103"}},{"type":"Feature","geometry":{"type":"Point","coordinates":[126.53133611111112,40.81323333333333]},"properties":{"id":"det-188","name":"Songgan Prison No. 6, Songgan County, Chagang Province","type":"Prison (kyohwaso)","agency":null,"province":null,"status":null,"confirmed":true,"incidents":2,"sources":"[{\"name\":\"NKDB Visual Atlas\",\"url\":\"https://www.visualatlas.org/en/density\"}]","county":"KP0506"}},{"type":"Feature","geometry":{"type":"Point","coordinates":[125.22758611111111,38.879244444444446]},"properties":{"id":"det-189","name":"MPS, Onchon County, South Pyongan Province","type":"Security office","agency":"Ministry of Social Security (police)","province":null,"status":null,"confirmed":false,"incidents":2,"sources":"[{\"name\":\"NKDB Visual Atlas\",\"url\":\"https://www.visualatlas.org/en/density\"}]","county":"KP1103"}},{"type":"Feature","geometry":{"type":"Point","coordinates":[129.85530555555556,42.95390277777778]},"properties":{"id":"det-190","name":"Police Holding Camp, Onsong County, North Hamgyong Province","type":"Holding centre","agency":"Ministry of Social Security (police)","province":null,"status":null,"confirmed":false,"incidents":10,"sources":"[{\"name\":\"NKDB Visual Atlas\",\"url\":\"https://www.visualatlas.org/en/density\"}]","county":"KP0220"}},{"type":"Feature","geometry":{"type":"Point","coordinates":[127.77648888888889,41.41862777777778]},"properties":{"id":"det-191","name":"MSS, Kimjongsuk County, Yanggang Province","type":"Security office","agency":"Ministry of State Security","province":null,"status":null,"confirmed":false,"incidents":3,"sources":"[{\"name\":\"NKDB Visual Atlas\",\"url\":\"https://www.visualatlas.org/en/density\"}]","county":"KP0103"}},{"type":"Feature","geometry":{"type":"Point","coordinates":[128.83331388888888,41.985930555555555]},"properties":{"id":"det-192","name":"MSS of Customs of Border Security Command, Samjang, Yanggang Province","type":"Security office","agency":"Ministry of State Security","province":null,"status":null,"confirmed":false,"incidents":2,"sources":"[{\"name\":\"NKDB Visual Atlas\",\"url\":\"https://www.visualatlas.org/en/density\"}]","county":"KP0108"}}]}