{"type":"FeatureCollection","features":[{"type":"Feature","properties":{"kind":"land"},"geometry":{"type":"LineString","coordinates":[[128.18,41.4],[123.4281,41.8025],[102.7094,25.0464],[102.63,17.98],[100.4942,13.7525]]}},{"type":"Feature","properties":{"kind":"air"},"geometry":{"type":"LineString","coordinates":[[100.4942,13.7525],[126.99,37.56]]}},{"type":"Feature","geometry":{"type":"Point","coordinates":[128.18,41.4]},"properties":{"name":"1. Crossing the Yalu or Tumen","note":"Most people cross a river into China, usually with a paid broker."}},{"type":"Feature","geometry":{"type":"Point","coordinates":[123.4281,41.8025]},"properties":{"name":"2. Hiding in northeast China","note":"No legal status. If caught, sent back. Many spend years here."}},{"type":"Feature","geometry":{"type":"Point","coordinates":[102.7094,25.0464]},"properties":{"name":"3. Through southern China","note":"Days of buses and trains past ID checkpoints and facial recognition."}},{"type":"Feature","geometry":{"type":"Point","coordinates":[102.63,17.98]},"properties":{"name":"4. Laos","note":"Jungle and river crossings, often at night."}},{"type":"Feature","geometry":{"type":"Point","coordinates":[100.4942,13.7525]},"properties":{"name":"5. Thailand","note":"Escapees can turn themselves in and are transferred to South Korea."}},{"type":"Feature","geometry":{"type":"Point","coordinates":[126.99,37.56]},"properties":{"name":"6. Seoul","note":"Three months at the Hanawon resettlement center, then citizenship."}}]}