{"type":"FeatureCollection","features":[{"type":"Feature","geometry":{"type":"Point","coordinates":[125.276505,40.316252]},"properties":{"id":"base-0","name":"Sinpung-dong Missile Operating Base","published":"2025-08-20","summary":"Approximately 27 kilometers from the China-North Korean border, the Sinpung-dong Missile Operating Base is an undeclared North Korean missile base.","url":"https://beyondparallel.csis.org/undeclared-north-korea-sinpung-dong-missile-operating-base/","county":"KP0618"}},{"type":"Feature","geometry":{"type":"Point","coordinates":[126.501814,40.483324]},"properties":{"id":"base-1","name":"Yongnim Missile Operating Base","published":"2024-11-14","summary":"Located 242 kilometers north of the demilitarized zone and only 65 kilometers from the Chinese border, the Yongnim Missile Operating Base is an undeclared ballistic missile operating ICBM base in Chagang Province.","url":"https://beyondparallel.csis.org/undeclared-north-korea-the-yongnim-missile-operating-base/","county":"KP0518"}},{"type":"Feature","geometry":{"type":"Point","coordinates":[126.913631,41.369883]},"properties":{"id":"base-2","name":"Hoejung-ni Missile Operating Base","published":"2022-02-07","summary":"Located 338-kilometers north of the demilitarized zone and only 25-kilometers from the Chinese border in Chagang Province, the Hoejung-ni missile operating base will, according to informed sources, likely house a regiment-sized unit equipped with intercontinental ballistic missiles (ICBM).","url":"https://beyondparallel.csis.org/undeclared-north-korea-hoejung-ni-missile-operating-base/","county":"KP0508"}},{"type":"Feature","geometry":{"type":"Point","coordinates":[126.259682,39.449886]},"properties":{"id":"base-3","name":"Yusang-ni Missile Operating Base","published":"2019-05-09","summary":"Located 150 kilometers north of the DMZ, North Korea&#039;s Yusang-ni missile operating base is one of the more recently constructed Strategic Force missile operating bases. There has been almost no open source information about this base until this study.","url":"https://beyondparallel.csis.org/undeclared-north-korea-the-yusang-ni-missile-operating-base/","county":"KP0720"}},{"type":"Feature","geometry":{"type":"Point","coordinates":[126.439019,40.636137]},"properties":{"id":"base-4","name":"Kal-gol Missile Operating Base","published":"2020-12-24","summary":"Located approximately 52 kilometers north of the DMZ and 125 kilometers north of Seoul, the Kal-gol missile operating base is one of the most developed of North Korea’s approximately 15-20 undeclared ballistic missile facilities. This base likely houses a reinforced brigade-sized unit equipped with 500-kilometer-range Hwasong-6 (Scud C) short-range ballistic missiles (SRBM) or Hwasong-9 (Scud-ER) medium-range ballistic missiles (MRBM).","url":"https://beyondparallel.csis.org/undeclared-north-korea-the-kal-gol-missile-operating-base/","county":"KP0505"}},{"type":"Feature","geometry":{"type":"Point","coordinates":[127.594722,38.966111]},"properties":{"id":"base-5","name":"Kumchon-ni Missile Operating Base","published":"2019-09-06","summary":"New CSIS Beyond Parallel imagery shows the undeclared Kumchon-ni missile operating base. This is the first comprehensive public description of the base. During wartime, it is reportedly tasked with striking southern Japan and, to a lesser degree, throughout South Korea.","url":"https://beyondparallel.csis.org/undeclared-north-korea-the-kumchon-ni-missile-operating-base/","county":"KP0403"}},{"type":"Feature","geometry":{"type":"Point","coordinates":[128.54165,40.838977]},"properties":{"id":"base-6","name":"Sangnam-ni Missile Operating Base","published":"2019-02-15","summary":"Located 250 kilometers north of the DMZ, Sangnam-ni missile operating base is an operational missile base that houses a battalion- or regiment-sized unit equipped with Hwasong-10 (Musudan) intermediate-range ballistic missiles (IRBM). Multiple flight failures of the Musudan missile in 2016 could have also led the KPA Strategic Force to abandon the system and replace it with the more successful Hwasong-12 IRBM.","url":"https://beyondparallel.csis.org/undeclared-north-korea-sangnam-ni-missile-operating-base/","county":"KP0324"}},{"type":"Feature","geometry":{"type":"Point","coordinates":[125.355288,39.644929]},"properties":{"id":"base-7","name":"Sino-ri Missile Operating Base","published":"2019-01-21","summary":"Located 212 kilometers north of the DMZ, Sino-ri is an operational missile base that houses a regiment-sized unit equipped with Nodong-1/-2 medium-range ballistic missiles (MRBM). It is one of the oldest of approximately 20 undeclared missile operating bases and is reported to serve as the headquarters of the Strategic Rocket Forces Nodong missile brigade. It may have also played a role in development of the newest generation Pukkuksong-2 (KN-15) ballistic missile first tested or unveiled by North Korea on February 12, 2017.","url":"https://beyondparallel.csis.org/undeclared-north-korea-the-sino-ri-missile-operating-base-and-strategic-force-facilities/","county":"KP0612"}},{"type":"Feature","geometry":{"type":"Point","coordinates":[126.107945,38.584698]},"properties":{"id":"base-8","name":"Sakkanmol Missile Operating Base","published":"2018-11-12","summary":"Sakkanmol is an undeclared North Korean operational missile base for short-range ballistic missiles (SRBMs) and is one of approximately 20 undeclared missile sites and one of the closest to the demilitarized zone (DMZ) and Seoul, giving it the shortest flight time. Sakkanmol currently houses a unit equipped with SRBMs but could easily accommodate more capable medium-range ballistic missiles (MRBMs).","url":"https://beyondparallel.csis.org/undeclared-north-korea-sakkanmol-missile-operating-base/","county":"KP0810"}}]}