{"type":"FeatureCollection","features":[{"type":"Feature","geometry":{"type":"Point","coordinates":[125.754,39.8]},"properties":{"id":"yongbyon","name":"Yongbyon nuclear complex","category":"nuclear","status":"Operating","note":"The heart of the nuclear program: reactors that make plutonium, a reprocessing plant and a uranium enrichment hall.","approx":false,"source":"{\"label\":\"Wikipedia\",\"url\":\"https://en.wikipedia.org/wiki/Nyongbyon_Nuclear_Scientific_Research_Center\"}","more":"/military","county":"KP0614"}},{"type":"Feature","geometry":{"type":"Point","coordinates":[125.611,38.957]},"properties":{"id":"kangson","name":"Kangson enrichment site","category":"nuclear","status":"Operating","note":"Suspected covert uranium enrichment plant near Pyongyang. Kim Jong Un visited an enrichment facility in 2024 in a rare public photo-op.","approx":false,"source":"{\"label\":\"Wikipedia\",\"url\":\"https://en.wikipedia.org/wiki/Kangson_enrichment_site\"}","more":null,"county":"KP1001"}},{"type":"Feature","geometry":{"type":"Point","coordinates":[129.0875,41.2781]},"properties":{"id":"punggye-ri","name":"Punggye-ri nuclear test site","category":"nuclear","status":"Restored, ready for a 7th test","note":"All six nuclear tests (2006-2017) happened here. Tunnels were blown up for cameras in 2018, then repaired.","approx":false,"source":"{\"label\":\"Wikipedia\",\"url\":\"https://en.wikipedia.org/wiki/Punggye-ri_Nuclear_Test_Site\"}","more":"/military","county":"KP0215"}},{"type":"Feature","geometry":{"type":"Point","coordinates":[126.432,38.317]},"properties":{"id":"pyongsan","name":"Pyongsan uranium mill","category":"nuclear","status":"Operating","note":"Mines and processes uranium ore into yellowcake, the raw material for the enrichment program.","approx":true,"source":"{\"label\":\"38 North\",\"url\":\"https://www.38north.org/\"}","more":null,"county":"KP0816"}},{"type":"Feature","geometry":{"type":"Point","coordinates":[124.705,39.66]},"properties":{"id":"sohae","name":"Sohae Satellite Launching Station","category":"missile","status":"Operating, expanding","note":"Main space launch site, also used for rocket engine tests. Launched the Malligyong-1 spy satellite in 2023.","approx":false,"source":"{\"label\":\"Wikipedia\",\"url\":\"https://en.wikipedia.org/wiki/Sohae_Satellite_Launching_Station\"}","more":"/missiles","county":"KP0608"}},{"type":"Feature","geometry":{"type":"Point","coordinates":[129.6864,40.8583]},"properties":{"id":"tonghae","name":"Tonghae Satellite Launching Ground","category":"missile","status":"Mostly idle","note":"East coast launch site used for early long-range rocket tests (1998, 2006, 2009).","approx":false,"source":"{\"label\":\"Wikipedia\",\"url\":\"https://en.wikipedia.org/wiki/Tonghae_Satellite_Launching_Ground\"}","more":"/missiles","county":"KP0212"}},{"type":"Feature","geometry":{"type":"Point","coordinates":[128.1856,40.0347]},"properties":{"id":"sinpo","name":"Sinpo shipyard","category":"missile","status":"Operating","note":"Submarine base and shipyard where submarine-launched ballistic missiles (Pukguksong) are built and tested.","approx":false,"source":"{\"label\":\"Wikipedia\",\"url\":\"https://en.wikipedia.org/wiki/Sinpo\"}","more":"/missiles","county":"KP0301"}},{"type":"Feature","geometry":{"type":"Point","coordinates":[125.22302,40.01325]},"properties":{"id":"kusong","name":"Kusong testing ground","category":"missile","status":"Operating","note":"Inland missile test area used for Hwasong-12 and other launches.","approx":false,"source":null,"more":"/missiles","county":"KP0603"}},{"type":"Feature","geometry":{"type":"Point","coordinates":[125.7093,39.203]},"properties":{"id":"sunan","name":"Sunan (Pyongyang airport)","category":"missile","status":"Operating","note":"Pyongyang’s international airport doubles as an ICBM launch pad. Several Hwasong-15 and -17 shots were fired from here.","approx":false,"source":null,"more":"/missiles","county":"KP1001"}},{"type":"Feature","geometry":{"type":"Point","coordinates":[125.7875,39.0642]},"properties":{"id":"kumsusan","name":"Kumsusan Palace of the Sun","category":"regime","status":null,"note":"Mausoleum where the embalmed bodies of Kim Il Sung and Kim Jong Il lie in state.","approx":false,"source":"{\"label\":\"Wikipedia\",\"url\":\"https://en.wikipedia.org/wiki/Kumsusan_Palace_of_the_Sun\"}","more":null,"county":"KP1001"}},{"type":"Feature","geometry":{"type":"Point","coordinates":[125.7525,39.0195]},"properties":{"id":"kim-il-sung-square","name":"Kim Il Sung Square","category":"regime","status":null,"note":"Site of the military parades where new missiles are often shown for the first time.","approx":false,"source":"{\"label\":\"Wikipedia\",\"url\":\"https://en.wikipedia.org/wiki/Kim_Il_Sung_Square\"}","more":null,"county":"KP1001"}},{"type":"Feature","geometry":{"type":"Point","coordinates":[125.7308,39.0367]},"properties":{"id":"ryugyong","name":"Ryugyong Hotel","category":"regime","status":null,"note":"105-story pyramid started in 1987 and still not open. A symbol of the regime’s priorities.","approx":false,"source":"{\"label\":\"Wikipedia\",\"url\":\"https://en.wikipedia.org/wiki/Ryugyong_Hotel\"}","more":null,"county":"KP1001"}},{"type":"Feature","geometry":{"type":"Point","coordinates":[128.1833,41.4]},"properties":{"id":"hyesan","name":"Hyesan","category":"border","status":null,"note":"Border city on the Yalu, across from China’s Changbai. Historically a major smuggling and crossing point, now heavily fenced.","approx":false,"source":"{\"label\":\"Wikipedia\",\"url\":\"https://en.wikipedia.org/wiki/Hyesan\"}","more":"/learn/how-north-koreans-escape","county":"KP0101"}},{"type":"Feature","geometry":{"type":"Point","coordinates":[129.3389,42.0706]},"properties":{"id":"musan","name":"Musan","category":"border","status":null,"note":"Mining county on the Tumen River, a common crossing area. Several well-known escapees came from here.","approx":false,"source":"{\"label\":\"Wikipedia\",\"url\":\"https://en.wikipedia.org/wiki/Musan_County\"}","more":"/learn/how-north-koreans-escape","county":"KP0218"}},{"type":"Feature","geometry":{"type":"Point","coordinates":[129.75,42.4333]},"properties":{"id":"hoeryong","name":"Hoeryong","category":"border","status":null,"note":"Border city on the Tumen. The river is narrow here, so it was a frequent crossing point before new fences went up after 2020.","approx":false,"source":"{\"label\":\"Wikipedia\",\"url\":\"https://en.wikipedia.org/wiki/Hoeryong\"}","more":"/learn/how-north-koreans-escape","county":"KP0203"}},{"type":"Feature","geometry":{"type":"Point","coordinates":[124.3925,40.115]},"properties":{"id":"sinuiju","name":"Sinuiju–Dandong bridge","category":"border","status":null,"note":"The Friendship Bridge over the Yalu. Most legal trade with China goes through here, and so does a lot of smuggled media.","approx":false,"source":"{\"label\":\"Wikipedia\",\"url\":\"https://en.wikipedia.org/wiki/Sino-Korean_Friendship_Bridge\"}","more":null,"county":"KP0601"}},{"type":"Feature","geometry":{"type":"Point","coordinates":[126.6767,37.9558]},"properties":{"id":"jsa","name":"Panmunjom (Joint Security Area)","category":"border","status":null,"note":"The truce village in the DMZ. A soldier escaped across it under fire in 2017.","approx":false,"source":"{\"label\":\"Wikipedia\",\"url\":\"https://en.wikipedia.org/wiki/Joint_Security_Area\"}","more":null,"county":"KP0803"}},{"type":"Feature","geometry":{"type":"Point","coordinates":[129.2692,42.2319]},"properties":{"id":"musan-mine","name":"Musan iron mine","category":"economy","status":null,"note":"One of the largest open-pit iron mines in Asia. Ore exports to China were a big source of hard currency before sanctions.","approx":false,"source":"{\"label\":\"Wikipedia\",\"url\":\"https://en.wikipedia.org/wiki/Musan_mine\"}","more":null,"county":"KP0218"}},{"type":"Feature","geometry":{"type":"Point","coordinates":[126.6333,37.9333]},"properties":{"id":"kaesong-ic","name":"Kaesong Industrial Region","category":"economy","status":"Closed since 2016","note":"Joint zone where South Korean companies employed over 50,000 North Korean workers. Shut down in 2016. The North blew up the nearby liaison office in 2020.","approx":false,"source":"{\"label\":\"Wikipedia\",\"url\":\"https://en.wikipedia.org/wiki/Kaesong_Industrial_Region\"}","more":null,"county":"KP0803"}},{"type":"Feature","geometry":{"type":"Point","coordinates":[127.49,39.19]},"properties":{"id":"kalma","name":"Wonsan-Kalma resort","category":"economy","status":"Opened 2025","note":"Beach resort Kim Jong Un pushed for years, opened in 2025 mostly for Russian tourists. Also near a common missile launch area.","approx":true,"source":null,"more":null,"county":null}},{"type":"Feature","geometry":{"type":"Point","coordinates":[130.3844,42.3444]},"properties":{"id":"rason","name":"Rason special economic zone","category":"economy","status":null,"note":"Free trade zone where North Korea borders both China and Russia. The rail and road link to Russia runs through here.","approx":false,"source":"{\"label\":\"Wikipedia\",\"url\":\"https://en.wikipedia.org/wiki/Rason\"}","more":null,"county":"KP0201"}}]}